{"type":"FeatureCollection","features":[{"type":"Feature","properties":{"code":"E10000003","name":"Cambridgeshire"},"geometry":{"type":"Polygon","coordinates":[[[0.172,52.738],[0.154,52.682],[0.185,52.678],[0.184,52.656],[0.17,52.65],[0.219,52.622],[0.192,52.599],[0.218,52.573],[0.206,52.565],[0.217,52.561],[0.205,52.555],[0.205,52.548],[0.215,52.549],[0.204,52.545],[0.208,52.53],[0.231,52.528],[0.206,52.52],[0.236,52.507],[0.246,52.5],[0.256,52.508],[0.309,52.514],[0.367,52.501],[0.381,52.48],[0.429,52.455],[0.429,52.436],[0.375,52.41],[0.408,52.362],[0.443,52.349],[0.424,52.329],[0.431,52.316],[0.458,52.316],[0.505,52.285],[0.499,52.273],[0.424,52.256],[0.383,52.293],[0.359,52.298],[0.355,52.279],[0.34,52.268],[0.361,52.249],[0.343,52.242],[0.371,52.227],[0.421,52.24],[0.415,52.248],[0.427,52.254],[0.482,52.232],[0.495,52.239],[0.514,52.227],[0.491,52.165],[0.471,52.163],[0.452,52.173],[0.436,52.159],[0.417,52.159],[0.417,52.133],[0.39,52.117],[0.382,52.103],[0.395,52.096],[0.405,52.066],[0.38,52.05],[0.39,52.036],[0.346,52.05],[0.325,52.073],[0.286,52.09],[0.276,52.093],[0.252,52.077],[0.235,52.089],[0.203,52.093],[0.183,52.073],[0.19,52.06],[0.168,52.055],[0.166,52.048],[0.151,52.053],[0.128,52.047],[0.119,52.06],[0.106,52.06],[0.092,52.022],[0.068,52.006],[0.04,52.053],[0.003,52.05],[-0.02,52.064],[-0.127,52.021],[-0.134,52.046],[-0.155,52.053],[-0.148,52.069],[-0.158,52.08],[-0.144,52.138],[-0.154,52.144],[-0.172,52.14],[-0.235,52.145],[-0.217,52.159],[-0.261,52.176],[-0.25,52.184],[-0.241,52.19],[-0.262,52.21],[-0.296,52.21],[-0.286,52.237],[-0.293,52.241],[-0.335,52.243],[-0.343,52.242],[-0.341,52.231],[-0.374,52.233],[-0.382,52.271],[-0.372,52.273],[-0.375,52.28],[-0.422,52.285],[-0.436,52.297],[-0.436,52.314],[-0.465,52.323],[-0.467,52.339],[-0.483,52.341],[-0.478,52.349],[-0.499,52.36],[-0.489,52.374],[-0.496,52.38],[-0.442,52.385],[-0.417,52.412],[-0.362,52.434],[-0.37,52.44],[-0.342,52.467],[-0.359,52.49],[-0.354,52.506],[-0.414,52.526],[-0.401,52.539],[-0.42,52.559],[-0.407,52.564],[-0.415,52.579],[-0.397,52.583],[-0.385,52.567],[-0.348,52.564],[-0.325,52.553],[-0.333,52.547],[-0.293,52.507],[-0.269,52.521],[-0.245,52.523],[-0.235,52.544],[-0.218,52.538],[-0.2,52.545],[-0.188,52.542],[-0.198,52.551],[-0.187,52.569],[-0.013,52.594],[-0.031,52.662],[0.022,52.665],[0.049,52.681],[0.044,52.714],[0.064,52.727],[0.089,52.724],[0.133,52.739],[0.172,52.738]]]}},{"type":"Feature","properties":{"code":"E10000007","name":"Derbyshire"},"geometry":{"type":"Polygon","coordinates":[[[-1.873,53.54],[-1.842,53.52],[-1.822,53.521],[-1.796,53.503],[-1.801,53.481],[-1.801,53.481],[-1.801,53.481],[-1.745,53.462],[-1.74,53.421],[-1.709,53.417],[-1.705,53.405],[-1.654,53.392],[-1.664,53.367],[-1.591,53.346],[-1.612,53.343],[-1.633,53.321],[-1.628,53.316],[-1.609,53.323],[-1.599,53.311],[-1.585,53.322],[-1.581,53.312],[-1.562,53.316],[-1.562,53.306],[-1.537,53.305],[-1.502,53.318],[-1.468,53.317],[-1.455,53.322],[-1.46,53.331],[-1.442,53.337],[-1.421,53.335],[-1.411,53.342],[-1.387,53.335],[-1.387,53.318],[-1.338,53.316],[-1.325,53.329],[-1.299,53.333],[-1.289,53.326],[-1.296,53.315],[-1.282,53.309],[-1.244,53.302],[-1.231,53.309],[-1.203,53.304],[-1.2,53.311],[-1.177,53.305],[-1.18,53.287],[-1.166,53.278],[-1.182,53.27],[-1.175,53.265],[-1.203,53.261],[-1.213,53.248],[-1.202,53.236],[-1.209,53.218],[-1.197,53.185],[-1.24,53.179],[-1.26,53.164],[-1.291,53.171],[-1.323,53.162],[-1.322,53.131],[-1.301,53.102],[-1.309,53.097],[-1.303,53.088],[-1.332,53.081],[-1.344,53.066],[-1.336,53.053],[-1.332,53.031],[-1.307,53.004],[-1.288,52.97],[-1.293,52.956],[-1.281,52.949],[-1.282,52.91],[-1.246,52.903],[-1.24,52.892],[-1.24,52.88],[-1.268,52.873],[-1.319,52.873],[-1.326,52.866],[-1.345,52.867],[-1.351,52.853],[-1.361,52.855],[-1.394,52.837],[-1.388,52.833],[-1.418,52.802],[-1.444,52.803],[-1.442,52.793],[-1.463,52.787],[-1.456,52.777],[-1.468,52.767],[-1.494,52.759],[-1.504,52.767],[-1.553,52.763],[-1.562,52.751],[-1.545,52.732],[-1.55,52.72],[-1.598,52.7],[-1.655,52.699],[-1.657,52.722],[-1.704,52.732],[-1.667,52.785],[-1.611,52.781],[-1.614,52.788],[-1.589,52.8],[-1.592,52.809],[-1.611,52.816],[-1.585,52.832],[-1.627,52.854],[-1.69,52.865],[-1.701,52.861],[-1.704,52.867],[-1.725,52.86],[-1.746,52.869],[-1.777,52.884],[-1.828,52.884],[-1.857,52.923],[-1.829,52.948],[-1.827,52.977],[-1.762,53.0],[-1.759,53.037],[-1.779,53.045],[-1.776,53.059],[-1.794,53.088],[-1.784,53.103],[-1.822,53.137],[-1.813,53.154],[-1.861,53.188],[-1.899,53.2],[-1.957,53.214],[-1.962,53.226],[-1.987,53.214],[-1.99,53.223],[-1.975,53.231],[-2.009,53.261],[-2.007,53.355],[-2.031,53.37],[-2.034,53.376],[-2.005,53.386],[-1.992,53.415],[-2.014,53.416],[-2.026,53.43],[-2.014,53.44],[-2.004,53.436],[-2.008,53.442],[-1.986,53.455],[-1.988,53.481],[-1.963,53.51],[-1.951,53.504],[-1.922,53.51],[-1.927,53.521],[-1.91,53.538],[-1.894,53.534],[-1.873,53.54]],[[-1.503,52.885],[-1.494,52.87],[-1.464,52.873],[-1.446,52.861],[-1.424,52.865],[-1.419,52.885],[-1.403,52.9],[-1.388,52.901],[-1.383,52.926],[-1.424,52.936],[-1.409,52.95],[-1.469,52.951],[-1.475,52.966],[-1.495,52.966],[-1.508,52.937],[-1.544,52.924],[-1.557,52.915],[-1.542,52.89],[-1.503,52.885]]]}},{"type":"Feature","properties":{"code":"E10000008","name":"Devon"},"geometry":{"type":"MultiPolygon","coordinates":[[[[-4.666,51.159],[-4.671,51.158],[-4.681,51.172],[-4.678,51.199],[-4.677,51.202],[-4.653,51.162],[-4.666,51.159]]],[[[-3.77,51.238],[-3.721,51.233],[-3.721,51.233],[-3.733,51.223],[-3.725,51.18],[-3.786,51.172],[-3.839,51.177],[-3.834,51.138],[-3.804,51.116],[-3.72,51.081],[-3.692,51.081],[-3.647,51.058],[-3.594,51.055],[-3.615,51.016],[-3.603,51.007],[-3.535,51.003],[-3.519,51.015],[-3.52,51.026],[-3.504,51.03],[-3.483,51.034],[-3.46,51.025],[-3.421,51.031],[-3.414,51.02],[-3.38,51.018],[-3.379,50.978],[-3.334,50.983],[-3.294,50.955],[-3.255,50.942],[-3.166,50.948],[-3.188,50.91],[-3.144,50.891],[-3.126,50.902],[-3.053,50.909],[-3.055,50.874],[-3.033,50.862],[-3.037,50.851],[-2.974,50.856],[-2.97,50.834],[-2.954,50.821],[-2.961,50.816],[-2.893,50.805],[-2.887,50.795],[-2.954,50.768],[-2.935,50.754],[-2.953,50.728],[-2.947,50.718],[-2.948,50.718],[-3.027,50.699],[-3.03,50.699],[-3.053,50.704],[-3.055,50.703],[-3.082,50.702],[-3.095,50.686],[-3.096,50.685],[-3.134,50.685],[-3.192,50.685],[-3.258,50.673],[-3.29,50.642],[-3.301,50.632],[-3.309,50.648],[-3.307,50.63],[-3.341,50.622],[-3.348,50.621],[-3.349,50.62],[-3.352,50.619],[-3.358,50.612],[-3.362,50.607],[-3.39,50.611],[-3.415,50.616],[-3.424,50.617],[-3.421,50.623],[-3.416,50.629],[-3.451,50.682],[-3.452,50.683],[-3.461,50.696],[-3.46,50.689],[-3.457,50.677],[-3.457,50.675],[-3.458,50.676],[-3.468,50.683],[-3.47,50.682],[-3.47,50.681],[-3.469,50.678],[-3.468,50.664],[-3.451,50.647],[-3.447,50.62],[-3.447,50.617],[-3.446,50.617],[-3.445,50.611],[-3.445,50.606],[-3.445,50.606],[-3.445,50.606],[-3.444,50.602],[-3.428,50.611],[-3.427,50.611],[-3.425,50.612],[-3.426,50.611],[-3.467,50.578],[-3.468,50.563],[-3.5,50.541],[-3.501,50.546],[-3.51,50.543],[-3.497,50.538],[-3.507,50.521],[-3.509,50.517],[-3.521,50.518],[-3.53,50.505],[-3.565,50.487],[-3.57,50.491],[-3.584,50.478],[-3.587,50.452],[-3.625,50.441],[-3.628,50.426],[-3.599,50.409],[-3.58,50.41],[-3.575,50.394],[-3.544,50.373],[-3.508,50.379],[-3.518,50.346],[-3.519,50.346],[-3.54,50.337],[-3.551,50.338],[-3.574,50.348],[-3.574,50.348],[-3.564,50.353],[-3.576,50.363],[-3.576,50.364],[-3.569,50.369],[-3.595,50.382],[-3.595,50.382],[-3.595,50.382],[-3.595,50.382],[-3.594,50.381],[-3.581,50.372],[-3.581,50.372],[-3.584,50.36],[-3.577,50.351],[-3.577,50.346],[-3.571,50.344],[-3.564,50.335],[-3.572,50.326],[-3.592,50.322],[-3.611,50.318],[-3.611,50.318],[-3.613,50.318],[-3.643,50.29],[-3.657,50.248],[-3.66,50.239],[-3.659,50.239],[-3.659,50.238],[-3.643,50.224],[-3.641,50.222],[-3.681,50.222],[-3.683,50.221],[-3.699,50.213],[-3.721,50.202],[-3.738,50.215],[-3.773,50.224],[-3.771,50.226],[-3.761,50.236],[-3.726,50.237],[-3.739,50.241],[-3.723,50.247],[-3.72,50.248],[-3.724,50.247],[-3.75,50.241],[-3.754,50.241],[-3.755,50.244],[-3.749,50.256],[-3.757,50.255],[-3.767,50.263],[-3.774,50.257],[-3.765,50.254],[-3.762,50.247],[-3.759,50.241],[-3.759,50.241],[-3.768,50.243],[-3.768,50.242],[-3.775,50.244],[-3.77,50.24],[-3.778,50.231],[-3.782,50.23],[-3.787,50.211],[-3.802,50.213],[-3.82,50.216],[-3.845,50.228],[-3.868,50.24],[-3.867,50.241],[-3.859,50.243],[-3.859,50.245],[-3.858,50.261],[-3.859,50.261],[-3.859,50.261],[-3.873,50.271],[-3.882,50.277],[-3.877,50.28],[-3.87,50.279],[-3.865,50.285],[-3.871,50.281],[-3.895,50.282],[-3.899,50.284],[-3.898,50.286],[-3.91,50.294],[-3.915,50.294],[-3.918,50.296],[-3.944,50.296],[-3.947,50.307],[-3.948,50.31],[-3.953,50.308],[-3.953,50.308],[-3.975,50.305],[-3.992,50.307],[-4.016,50.299],[-4.043,50.295],[-4.072,50.305],[-4.063,50.308],[-4.033,50.313],[-4.053,50.318],[-4.056,50.311],[-4.058,50.312],[-4.119,50.319],[-4.12,50.336],[-4.123,50.336],[-4.123,50.346],[-4.123,50.347],[-4.123,50.347],[-4.091,50.341],[-4.053,50.357],[-4.05,50.377],[-4.027,50.379],[-4.021,50.392],[-4.04,50.401],[-4.072,50.402],[-4.083,50.425],[-4.11,50.432],[-4.113,50.444],[-4.136,50.433],[-4.156,50.436],[-4.166,50.427],[-4.173,50.424],[-4.185,50.426],[-4.19,50.428],[-4.181,50.435],[-4.174,50.438],[-4.169,50.444],[-4.163,50.449],[-4.156,50.446],[-4.152,50.464],[-4.155,50.464],[-4.161,50.456],[-4.185,50.434],[-4.191,50.435],[-4.2,50.437],[-4.201,50.436],[-4.215,50.467],[-4.23,50.456],[-4.239,50.464],[-4.218,50.476],[-4.221,50.498],[-4.199,50.492],[-4.181,50.504],[-4.186,50.508],[-4.203,50.503],[-4.207,50.534],[-4.232,50.531],[-4.248,50.544],[-4.272,50.537],[-4.259,50.546],[-4.28,50.569],[-4.271,50.582],[-4.286,50.585],[-4.286,50.575],[-4.291,50.584],[-4.307,50.579],[-4.312,50.586],[-4.3,50.634],[-4.326,50.638],[-4.335,50.647],[-4.349,50.69],[-4.369,50.702],[-4.362,50.719],[-4.385,50.748],[-4.381,50.771],[-4.394,50.778],[-4.414,50.774],[-4.409,50.762],[-4.424,50.765],[-4.451,50.786],[-4.493,50.793],[-4.447,50.808],[-4.442,50.847],[-4.434,50.866],[-4.421,50.866],[-4.463,50.913],[-4.456,50.929],[-4.546,50.929],[-4.541,50.952],[-4.526,51.022],[-4.425,51.014],[-4.424,51.013],[-4.391,50.995],[-4.343,50.989],[-4.303,50.998],[-4.282,51.014],[-4.249,51.04],[-4.243,51.041],[-4.241,51.046],[-4.218,51.064],[-4.216,51.064],[-4.21,51.052],[-4.191,51.055],[-4.191,51.055],[-4.191,51.055],[-4.198,51.034],[-4.189,51.041],[-4.18,51.049],[-4.18,51.067],[-4.152,51.074],[-4.153,51.08],[-4.164,51.084],[-4.163,51.101],[-4.167,51.08],[-4.185,51.076],[-4.189,51.066],[-4.217,51.076],[-4.222,51.118],[-4.236,51.12],[-4.24,51.121],[-4.236,51.131],[-4.25,51.138],[-4.258,51.141],[-4.261,51.143],[-4.224,51.144],[-4.216,51.152],[-4.211,51.178],[-4.229,51.188],[-4.211,51.191],[-4.202,51.2],[-4.186,51.198],[-4.178,51.197],[-4.114,51.211],[-4.098,51.211],[-4.092,51.216],[-4.088,51.217],[-4.039,51.207],[-4.029,51.215],[-4.028,51.216],[-4.006,51.217],[-3.958,51.219],[-3.926,51.232],[-3.923,51.231],[-3.892,51.224],[-3.854,51.234],[-3.854,51.235],[-3.814,51.231],[-3.811,51.232],[-3.81,51.232],[-3.787,51.246],[-3.77,51.238]]]]}},{"type":"Feature","properties":{"code":"E10000011","name":"East Sussex"},"geometry":{"type":"Polygon","coordinates":[[[0.151,51.124],[0.171,51.115],[0.226,51.124],[0.245,51.115],[0.276,51.112],[0.275,51.121],[0.325,51.123],[0.335,51.105],[0.359,51.105],[0.351,51.084],[0.374,51.088],[0.396,51.083],[0.418,51.063],[0.463,51.055],[0.472,51.03],[0.538,51.022],[0.542,51.011],[0.571,51.003],[0.605,51.012],[0.661,51.018],[0.677,51.003],[0.707,50.994],[0.741,51.001],[0.779,50.989],[0.777,50.975],[0.784,50.977],[0.813,50.942],[0.841,50.958],[0.856,50.953],[0.868,50.933],[0.855,50.924],[0.844,50.925],[0.772,50.931],[0.775,50.927],[0.759,50.922],[0.759,50.922],[0.758,50.922],[0.73,50.913],[0.659,50.87],[0.658,50.87],[0.646,50.867],[0.525,50.845],[0.503,50.843],[0.501,50.842],[0.378,50.82],[0.377,50.82],[0.339,50.799],[0.339,50.799],[0.31,50.777],[0.266,50.743],[0.26,50.739],[0.21,50.738],[0.21,50.739],[0.156,50.757],[0.15,50.759],[0.149,50.759],[0.122,50.758],[0.107,50.764],[0.068,50.782],[0.06,50.782],[0.058,50.782],[0.058,50.782],[0.056,50.782],[0.058,50.776],[0.034,50.782],[-0.015,50.793],[-0.038,50.799],[-0.016,50.815],[-0.02,50.822],[-0.046,50.822],[-0.037,50.841],[-0.073,50.841],[-0.085,50.873],[-0.098,50.878],[-0.122,50.873],[-0.135,50.878],[-0.135,50.887],[-0.12,50.942],[-0.104,50.946],[-0.115,50.976],[-0.074,50.992],[-0.062,50.978],[-0.025,50.98],[-0.016,51.002],[-0.022,51.027],[-0.002,51.036],[-0.003,51.048],[0.014,51.057],[-0.009,51.056],[-0.013,51.074],[-0.027,51.075],[-0.036,51.093],[0.011,51.102],[0.01,51.11],[0.019,51.104],[0.045,51.111],[0.028,51.118],[0.027,51.14],[0.05,51.143],[0.133,51.147],[0.161,51.137],[0.151,51.124]]]}},{"type":"Feature","properties":{"code":"E10000012","name":"Essex"},"geometry":{"type":"MultiPolygon","coordinates":[[[[0.627,51.537],[0.626,51.532],[0.609,51.535],[0.624,51.536],[0.624,51.536],[0.627,51.537]]],[[[0.837,51.585],[0.823,51.565],[0.808,51.586],[0.83,51.596],[0.837,51.585]]],[[[0.884,51.569],[0.866,51.559],[0.84,51.562],[0.826,51.564],[0.839,51.581],[0.84,51.582],[0.838,51.594],[0.867,51.595],[0.874,51.614],[0.887,51.615],[0.958,51.621],[0.93,51.592],[0.884,51.569]]],[[[0.788,51.722],[0.77,51.719],[0.755,51.725],[0.77,51.727],[0.788,51.722]]],[[[0.721,51.731],[0.726,51.717],[0.708,51.72],[0.721,51.731]]],[[[0.946,51.775],[0.902,51.774],[0.902,51.786],[0.925,51.796],[0.943,51.807],[0.966,51.809],[0.999,51.802],[1.0,51.793],[0.946,51.775]]],[[[1.263,51.88],[1.264,51.873],[1.255,51.875],[1.263,51.88]]],[[[1.257,51.883],[1.245,51.869],[1.226,51.875],[1.23,51.881],[1.257,51.883]]],[[[1.234,51.894],[1.243,51.887],[1.232,51.887],[1.234,51.894]]],[[[0.703,52.065],[0.716,52.049],[0.699,52.048],[0.697,52.039],[0.714,52.027],[0.741,52.031],[0.739,52.011],[0.761,51.997],[0.76,51.985],[0.775,51.983],[0.772,51.97],[0.781,51.967],[0.811,51.961],[0.825,51.969],[0.85,51.961],[0.89,51.973],[0.925,51.976],[0.943,51.971],[0.963,51.977],[0.971,51.962],[0.999,51.964],[1.025,51.955],[1.048,51.959],[1.069,51.95],[1.066,51.949],[1.054,51.953],[1.062,51.946],[1.119,51.94],[1.17,51.948],[1.181,51.942],[1.199,51.941],[1.227,51.939],[1.246,51.948],[1.277,51.939],[1.291,51.949],[1.296,51.937],[1.297,51.936],[1.285,51.937],[1.25,51.916],[1.253,51.915],[1.258,51.912],[1.252,51.902],[1.246,51.896],[1.251,51.902],[1.234,51.903],[1.226,51.904],[1.212,51.897],[1.228,51.891],[1.212,51.89],[1.199,51.885],[1.21,51.879],[1.209,51.878],[1.195,51.875],[1.178,51.871],[1.194,51.869],[1.219,51.878],[1.225,51.88],[1.212,51.866],[1.226,51.872],[1.232,51.855],[1.236,51.861],[1.249,51.862],[1.25,51.856],[1.253,51.864],[1.267,51.864],[1.269,51.852],[1.27,51.864],[1.269,51.864],[1.268,51.877],[1.27,51.877],[1.264,51.886],[1.265,51.886],[1.289,51.875],[1.29,51.871],[1.288,51.862],[1.268,51.845],[1.253,51.834],[1.232,51.818],[1.129,51.775],[1.055,51.77],[1.043,51.77],[1.018,51.801],[1.044,51.802],[1.06,51.812],[1.064,51.817],[1.068,51.821],[1.046,51.823],[1.063,51.818],[1.054,51.811],[1.013,51.805],[0.984,51.835],[1.021,51.835],[0.985,51.839],[0.984,51.841],[0.98,51.845],[0.978,51.847],[0.978,51.848],[0.978,51.847],[0.978,51.841],[0.977,51.836],[0.966,51.829],[0.982,51.817],[0.966,51.823],[0.962,51.833],[0.956,51.829],[0.943,51.822],[0.991,51.807],[0.96,51.81],[0.916,51.811],[0.921,51.805],[0.937,51.806],[0.922,51.804],[0.904,51.804],[0.899,51.793],[0.892,51.779],[0.866,51.793],[0.872,51.783],[0.849,51.787],[0.842,51.782],[0.83,51.789],[0.843,51.781],[0.843,51.781],[0.877,51.779],[0.877,51.779],[0.877,51.779],[0.891,51.767],[0.855,51.772],[0.837,51.774],[0.834,51.771],[0.856,51.768],[0.838,51.768],[0.853,51.765],[0.85,51.757],[0.862,51.763],[0.883,51.758],[0.856,51.744],[0.847,51.747],[0.853,51.742],[0.842,51.739],[0.792,51.745],[0.789,51.737],[0.777,51.744],[0.736,51.729],[0.714,51.738],[0.706,51.724],[0.699,51.726],[0.711,51.713],[0.747,51.711],[0.746,51.705],[0.769,51.708],[0.738,51.687],[0.757,51.691],[0.767,51.703],[0.772,51.704],[0.798,51.708],[0.793,51.718],[0.82,51.721],[0.852,51.713],[0.884,51.736],[0.895,51.743],[0.896,51.743],[0.927,51.746],[0.931,51.746],[0.949,51.729],[0.94,51.699],[0.947,51.687],[0.95,51.683],[0.946,51.677],[0.944,51.674],[0.943,51.669],[0.942,51.662],[0.934,51.633],[0.904,51.623],[0.888,51.622],[0.86,51.621],[0.794,51.626],[0.781,51.631],[0.764,51.637],[0.784,51.624],[0.808,51.622],[0.865,51.615],[0.865,51.598],[0.854,51.596],[0.82,51.599],[0.812,51.603],[0.819,51.598],[0.796,51.586],[0.764,51.583],[0.806,51.586],[0.793,51.576],[0.808,51.579],[0.818,51.562],[0.851,51.556],[0.821,51.541],[0.821,51.541],[0.819,51.542],[0.789,51.542],[0.787,51.553],[0.675,51.573],[0.639,51.577],[0.632,51.571],[0.627,51.538],[0.626,51.538],[0.626,51.538],[0.608,51.535],[0.594,51.537],[0.572,51.541],[0.594,51.535],[0.622,51.527],[0.618,51.52],[0.637,51.522],[0.593,51.512],[0.573,51.508],[0.554,51.51],[0.549,51.513],[0.548,51.516],[0.543,51.516],[0.518,51.53],[0.518,51.53],[0.506,51.538],[0.509,51.534],[0.482,51.549],[0.467,51.547],[0.462,51.554],[0.428,51.545],[0.419,51.557],[0.394,51.558],[0.392,51.567],[0.383,51.566],[0.313,51.566],[0.29,51.564],[0.27,51.6],[0.254,51.602],[0.265,51.608],[0.252,51.618],[0.224,51.632],[0.2,51.625],[0.138,51.624],[0.073,51.605],[0.022,51.629],[0.023,51.641],[-0.012,51.646],[-0.012,51.681],[-0.02,51.703],[-0.014,51.742],[0.001,51.745],[0.014,51.764],[0.027,51.774],[0.058,51.78],[0.146,51.796],[0.158,51.814],[0.173,51.816],[0.166,51.822],[0.17,51.862],[0.196,51.868],[0.175,51.883],[0.184,51.894],[0.125,51.885],[0.125,51.924],[0.107,51.972],[0.096,51.984],[0.069,51.984],[0.068,52.006],[0.092,52.022],[0.106,52.06],[0.119,52.06],[0.128,52.047],[0.151,52.053],[0.166,52.048],[0.168,52.055],[0.19,52.06],[0.183,52.073],[0.203,52.093],[0.235,52.089],[0.252,52.077],[0.276,52.093],[0.286,52.09],[0.325,52.073],[0.346,52.05],[0.39,52.036],[0.38,52.05],[0.405,52.066],[0.438,52.072],[0.454,52.068],[0.467,52.078],[0.502,52.054],[0.511,52.06],[0.542,52.058],[0.551,52.069],[0.582,52.076],[0.657,52.085],[0.684,52.087],[0.712,52.072],[0.703,52.065]]]]}},{"type":"Feature","properties":{"code":"E10000013","name":"Gloucestershire"},"geometry":{"type":"Polygon","coordinates":[[[-1.768,52.113],[-1.746,52.093],[-1.729,52.1],[-1.731,52.073],[-1.713,52.067],[-1.702,52.073],[-1.705,52.06],[-1.689,52.052],[-1.694,52.04],[-1.664,52.031],[-1.624,52.039],[-1.618,52.033],[-1.666,51.997],[-1.666,51.987],[-1.663,51.964],[-1.632,51.956],[-1.615,51.938],[-1.646,51.922],[-1.633,51.899],[-1.659,51.897],[-1.667,51.877],[-1.687,51.865],[-1.676,51.85],[-1.686,51.834],[-1.682,51.804],[-1.719,51.783],[-1.701,51.771],[-1.687,51.74],[-1.696,51.724],[-1.688,51.712],[-1.648,51.684],[-1.668,51.68],[-1.683,51.69],[-1.697,51.692],[-1.711,51.672],[-1.727,51.667],[-1.754,51.662],[-1.789,51.667],[-1.812,51.703],[-1.823,51.674],[-1.816,51.663],[-1.851,51.656],[-1.874,51.683],[-1.899,51.68],[-1.877,51.652],[-1.921,51.657],[-1.942,51.67],[-1.963,51.659],[-1.951,51.637],[-1.977,51.638],[-1.995,51.651],[-2.015,51.65],[-2.057,51.672],[-2.153,51.59],[-2.18,51.6],[-2.19,51.592],[-2.207,51.596],[-2.208,51.603],[-2.242,51.592],[-2.245,51.581],[-2.273,51.578],[-2.283,51.579],[-2.292,51.594],[-2.331,51.592],[-2.366,51.604],[-2.37,51.598],[-2.395,51.597],[-2.389,51.628],[-2.4,51.635],[-2.386,51.64],[-2.443,51.652],[-2.491,51.645],[-2.49,51.664],[-2.541,51.682],[-2.542,51.682],[-2.546,51.684],[-2.567,51.695],[-2.58,51.688],[-2.61,51.673],[-2.649,51.631],[-2.652,51.61],[-2.657,51.622],[-2.66,51.63],[-2.663,51.636],[-2.669,51.646],[-2.68,51.648],[-2.666,51.664],[-2.686,51.663],[-2.657,51.675],[-2.672,51.681],[-2.669,51.693],[-2.684,51.701],[-2.668,51.706],[-2.688,51.73],[-2.672,51.736],[-2.663,51.754],[-2.68,51.769],[-2.67,51.794],[-2.679,51.803],[-2.66,51.811],[-2.661,51.823],[-2.65,51.826],[-2.637,51.843],[-2.625,51.839],[-2.601,51.856],[-2.583,51.85],[-2.581,51.862],[-2.532,51.861],[-2.509,51.885],[-2.488,51.88],[-2.439,51.897],[-2.448,51.919],[-2.466,51.928],[-2.466,51.952],[-2.501,51.961],[-2.492,51.964],[-2.495,51.981],[-2.471,51.995],[-2.492,52.008],[-2.479,52.023],[-2.464,52.023],[-2.463,52.014],[-2.437,52.015],[-2.437,51.997],[-2.413,51.994],[-2.399,51.996],[-2.393,52.013],[-2.351,52.021],[-2.353,52.014],[-2.325,52.004],[-2.327,51.976],[-2.313,51.977],[-2.3,51.967],[-2.271,51.969],[-2.251,51.967],[-2.221,51.995],[-2.185,51.991],[-2.181,52.0],[-2.165,51.996],[-2.188,52.019],[-2.177,52.023],[-2.181,52.042],[-2.171,52.048],[-2.118,52.042],[-2.117,52.034],[-2.139,52.028],[-2.15,52.011],[-2.141,51.999],[-2.112,52.015],[-2.085,52.01],[-2.061,52.015],[-2.05,52.004],[-2.038,52.005],[-1.984,52.036],[-1.951,52.038],[-1.932,52.03],[-1.913,52.044],[-1.839,52.007],[-1.825,52.031],[-1.835,52.044],[-1.863,52.053],[-1.874,52.07],[-1.847,52.079],[-1.832,52.073],[-1.819,52.085],[-1.813,52.079],[-1.802,52.097],[-1.768,52.113]]]}},{"type":"Feature","properties":{"code":"E10000014","name":"Hampshire"},"geometry":{"type":"MultiPolygon","coordinates":[[[[-0.951,50.824],[-0.957,50.808],[-0.973,50.809],[-0.953,50.801],[-0.959,50.795],[-0.967,50.787],[-0.951,50.787],[-0.959,50.781],[-0.938,50.787],[-0.939,50.778],[-0.959,50.78],[-1.024,50.788],[-1.025,50.795],[-1.025,50.796],[-0.995,50.798],[-0.983,50.821],[-0.99,50.827],[-0.968,50.835],[-0.951,50.824]]],[[[-1.087,51.384],[-1.05,51.358],[-0.986,51.363],[-0.987,51.36],[-0.924,51.366],[-0.878,51.353],[-0.837,51.353],[-0.775,51.332],[-0.763,51.319],[-0.744,51.309],[-0.731,51.28],[-0.729,51.256],[-0.746,51.23],[-0.776,51.242],[-0.802,51.239],[-0.805,51.245],[-0.849,51.211],[-0.825,51.181],[-0.834,51.148],[-0.805,51.155],[-0.794,51.15],[-0.769,51.117],[-0.745,51.112],[-0.749,51.103],[-0.759,51.103],[-0.753,51.086],[-0.781,51.079],[-0.798,51.064],[-0.843,51.067],[-0.853,51.045],[-0.897,51.022],[-0.893,51.003],[-0.908,50.994],[-0.932,50.946],[-0.942,50.943],[-0.924,50.924],[-0.94,50.918],[-0.958,50.891],[-0.939,50.874],[-0.926,50.864],[-0.934,50.846],[-0.975,50.842],[-0.981,50.835],[-0.999,50.842],[-1.001,50.851],[-1.003,50.843],[-1.021,50.839],[-1.022,50.836],[-1.022,50.835],[-1.023,50.833],[-1.024,50.833],[-1.024,50.832],[-1.023,50.852],[-1.054,50.857],[-1.116,50.858],[-1.114,50.844],[-1.117,50.843],[-1.118,50.837],[-1.154,50.845],[-1.171,50.841],[-1.172,50.857],[-1.178,50.838],[-1.179,50.838],[-1.18,50.837],[-1.177,50.837],[-1.161,50.838],[-1.157,50.838],[-1.157,50.823],[-1.15,50.825],[-1.146,50.826],[-1.124,50.806],[-1.137,50.802],[-1.124,50.804],[-1.12,50.796],[-1.118,50.792],[-1.141,50.783],[-1.112,50.79],[-1.136,50.777],[-1.142,50.773],[-1.15,50.776],[-1.19,50.79],[-1.199,50.797],[-1.214,50.809],[-1.214,50.809],[-1.307,50.841],[-1.303,50.877],[-1.301,50.88],[-1.303,50.879],[-1.304,50.879],[-1.317,50.876],[-1.311,50.851],[-1.31,50.849],[-1.311,50.849],[-1.363,50.879],[-1.322,50.901],[-1.333,50.92],[-1.358,50.931],[-1.355,50.941],[-1.38,50.948],[-1.406,50.956],[-1.424,50.947],[-1.45,50.95],[-1.477,50.929],[-1.477,50.929],[-1.477,50.929],[-1.48,50.935],[-1.478,50.929],[-1.482,50.93],[-1.485,50.933],[-1.486,50.933],[-1.486,50.932],[-1.484,50.93],[-1.482,50.928],[-1.474,50.912],[-1.479,50.917],[-1.489,50.91],[-1.491,50.916],[-1.489,50.91],[-1.488,50.908],[-1.478,50.912],[-1.459,50.901],[-1.433,50.897],[-1.427,50.897],[-1.378,50.855],[-1.357,50.85],[-1.361,50.843],[-1.34,50.843],[-1.339,50.827],[-1.325,50.826],[-1.326,50.816],[-1.326,50.816],[-1.311,50.813],[-1.308,50.82],[-1.308,50.82],[-1.309,50.815],[-1.317,50.808],[-1.327,50.804],[-1.343,50.786],[-1.374,50.785],[-1.375,50.785],[-1.375,50.785],[-1.398,50.784],[-1.408,50.786],[-1.413,50.784],[-1.393,50.777],[-1.4,50.774],[-1.4,50.774],[-1.409,50.77],[-1.41,50.769],[-1.434,50.765],[-1.502,50.754],[-1.52,50.754],[-1.535,50.764],[-1.526,50.745],[-1.542,50.74],[-1.531,50.737],[-1.558,50.721],[-1.58,50.718],[-1.565,50.711],[-1.558,50.71],[-1.555,50.714],[-1.554,50.707],[-1.56,50.709],[-1.629,50.729],[-1.64,50.732],[-1.692,50.737],[-1.682,50.752],[-1.744,50.747],[-1.739,50.763],[-1.749,50.779],[-1.785,50.765],[-1.804,50.796],[-1.812,50.809],[-1.803,50.83],[-1.791,50.836],[-1.802,50.843],[-1.807,50.863],[-1.83,50.855],[-1.854,50.863],[-1.849,50.89],[-1.817,50.904],[-1.811,50.927],[-1.842,50.932],[-1.874,50.917],[-1.921,50.961],[-1.955,50.978],[-1.957,50.99],[-1.95,50.982],[-1.928,50.998],[-1.887,51.0],[-1.874,51.006],[-1.874,50.985],[-1.853,51.005],[-1.836,51.009],[-1.815,50.986],[-1.8,50.991],[-1.754,50.978],[-1.72,50.977],[-1.662,50.945],[-1.635,50.959],[-1.62,50.959],[-1.603,50.979],[-1.62,50.983],[-1.629,50.999],[-1.597,51.01],[-1.599,51.024],[-1.632,51.033],[-1.635,51.04],[-1.628,51.078],[-1.637,51.092],[-1.626,51.117],[-1.663,51.127],[-1.654,51.156],[-1.672,51.179],[-1.669,51.191],[-1.694,51.204],[-1.69,51.215],[-1.634,51.218],[-1.608,51.253],[-1.578,51.256],[-1.546,51.245],[-1.536,51.249],[-1.53,51.261],[-1.541,51.261],[-1.543,51.281],[-1.523,51.287],[-1.519,51.296],[-1.534,51.316],[-1.528,51.338],[-1.498,51.329],[-1.43,51.337],[-1.444,51.355],[-1.428,51.357],[-1.411,51.373],[-1.35,51.367],[-1.251,51.372],[-1.177,51.357],[-1.139,51.357],[-1.116,51.36],[-1.115,51.374],[-1.087,51.384]]]]}},{"type":"Feature","properties":{"code":"E10000015","name":"Hertfordshire"},"geometry":{"type":"Polygon","coordinates":[[[-0.148,52.069],[-0.155,52.053],[-0.134,52.046],[-0.127,52.021],[-0.02,52.064],[0.003,52.05],[0.04,52.053],[0.068,52.006],[0.069,51.984],[0.096,51.984],[0.107,51.972],[0.125,51.924],[0.125,51.885],[0.184,51.894],[0.175,51.883],[0.196,51.868],[0.17,51.862],[0.166,51.822],[0.173,51.816],[0.158,51.814],[0.146,51.796],[0.058,51.78],[0.027,51.774],[0.014,51.764],[0.001,51.745],[-0.014,51.742],[-0.02,51.703],[-0.012,51.681],[-0.106,51.692],[-0.163,51.688],[-0.182,51.669],[-0.191,51.664],[-0.203,51.67],[-0.212,51.661],[-0.251,51.656],[-0.257,51.642],[-0.304,51.636],[-0.317,51.641],[-0.363,51.624],[-0.404,51.613],[-0.441,51.62],[-0.457,51.612],[-0.497,51.632],[-0.501,51.6],[-0.521,51.602],[-0.539,51.638],[-0.537,51.661],[-0.523,51.658],[-0.521,51.668],[-0.505,51.673],[-0.524,51.682],[-0.549,51.683],[-0.544,51.697],[-0.563,51.712],[-0.55,51.723],[-0.554,51.734],[-0.575,51.737],[-0.586,51.752],[-0.613,51.747],[-0.67,51.766],[-0.69,51.792],[-0.685,51.8],[-0.709,51.821],[-0.724,51.818],[-0.746,51.842],[-0.717,51.857],[-0.696,51.858],[-0.687,51.849],[-0.695,51.841],[-0.667,51.816],[-0.633,51.82],[-0.582,51.807],[-0.561,51.83],[-0.554,51.827],[-0.52,51.805],[-0.502,51.815],[-0.511,51.826],[-0.502,51.837],[-0.471,51.845],[-0.478,51.853],[-0.47,51.856],[-0.448,51.848],[-0.422,51.85],[-0.405,51.841],[-0.373,51.829],[-0.363,51.842],[-0.339,51.85],[-0.355,51.874],[-0.35,51.879],[-0.377,51.898],[-0.386,51.916],[-0.406,51.932],[-0.391,51.977],[-0.38,51.978],[-0.383,51.952],[-0.374,51.948],[-0.35,51.958],[-0.349,51.971],[-0.367,51.984],[-0.312,51.982],[-0.296,52.002],[-0.282,52.002],[-0.271,51.98],[-0.248,51.985],[-0.244,51.999],[-0.201,52.01],[-0.219,52.037],[-0.195,52.062],[-0.173,52.06],[-0.158,52.08],[-0.148,52.069]]]}},{"type":"Feature","properties":{"code":"E10000016","name":"Kent"},"geometry":{"type":"MultiPolygon","coordinates":[[[[0.683,51.413],[0.695,51.397],[0.673,51.398],[0.666,51.406],[0.683,51.413]]],[[[0.679,51.424],[0.688,51.414],[0.66,51.418],[0.679,51.424]]],[[[0.901,51.417],[0.95,51.372],[0.897,51.354],[0.872,51.365],[0.858,51.37],[0.857,51.365],[0.841,51.372],[0.851,51.365],[0.839,51.364],[0.806,51.372],[0.766,51.37],[0.764,51.388],[0.733,51.4],[0.722,51.414],[0.732,51.409],[0.747,51.415],[0.735,51.424],[0.749,51.446],[0.784,51.441],[0.791,51.44],[0.824,51.426],[0.875,51.42],[0.901,51.417]]],[[[0.221,51.479],[0.275,51.454],[0.302,51.461],[0.315,51.465],[0.315,51.465],[0.325,51.45],[0.382,51.444],[0.44,51.447],[0.459,51.456],[0.458,51.458],[0.488,51.443],[0.489,51.415],[0.475,51.413],[0.468,51.398],[0.452,51.398],[0.453,51.391],[0.431,51.388],[0.401,51.353],[0.4,51.344],[0.419,51.348],[0.453,51.341],[0.456,51.369],[0.503,51.355],[0.506,51.343],[0.526,51.335],[0.544,51.328],[0.563,51.339],[0.601,51.333],[0.635,51.366],[0.623,51.369],[0.626,51.379],[0.632,51.389],[0.635,51.389],[0.627,51.375],[0.648,51.398],[0.67,51.373],[0.687,51.392],[0.703,51.392],[0.695,51.38],[0.714,51.384],[0.697,51.42],[0.728,51.42],[0.716,51.413],[0.726,51.399],[0.764,51.382],[0.764,51.363],[0.735,51.346],[0.767,51.362],[0.814,51.358],[0.816,51.346],[0.817,51.356],[0.866,51.356],[0.871,51.354],[0.897,51.344],[0.88,51.329],[0.895,51.336],[0.915,51.329],[0.897,51.341],[0.95,51.346],[0.95,51.346],[1.005,51.349],[1.033,51.366],[1.16,51.375],[1.224,51.379],[1.225,51.379],[1.315,51.38],[1.379,51.391],[1.394,51.393],[1.425,51.394],[1.441,51.387],[1.442,51.387],[1.446,51.358],[1.446,51.358],[1.446,51.358],[1.425,51.326],[1.423,51.331],[1.415,51.327],[1.424,51.324],[1.378,51.329],[1.359,51.312],[1.358,51.311],[1.371,51.314],[1.379,51.296],[1.379,51.292],[1.405,51.23],[1.405,51.175],[1.395,51.156],[1.377,51.141],[1.343,51.131],[1.343,51.13],[1.343,51.13],[1.343,51.124],[1.343,51.122],[1.338,51.127],[1.338,51.127],[1.317,51.123],[1.323,51.114],[1.31,51.117],[1.318,51.114],[1.314,51.115],[1.328,51.111],[1.317,51.112],[1.302,51.113],[1.3,51.113],[1.268,51.102],[1.221,51.098],[1.22,51.098],[1.186,51.079],[1.195,51.076],[1.139,51.069],[1.06,51.059],[0.997,51.025],[0.964,50.969],[0.971,50.942],[0.978,50.913],[0.943,50.916],[0.855,50.924],[0.855,50.924],[0.868,50.933],[0.856,50.953],[0.841,50.958],[0.813,50.942],[0.784,50.977],[0.777,50.975],[0.779,50.989],[0.741,51.001],[0.707,50.994],[0.677,51.003],[0.661,51.018],[0.605,51.012],[0.571,51.003],[0.542,51.011],[0.538,51.022],[0.472,51.03],[0.463,51.055],[0.418,51.063],[0.396,51.083],[0.374,51.088],[0.351,51.084],[0.359,51.105],[0.335,51.105],[0.325,51.123],[0.275,51.121],[0.276,51.112],[0.245,51.115],[0.226,51.124],[0.171,51.115],[0.151,51.124],[0.161,51.137],[0.133,51.147],[0.05,51.143],[0.053,51.181],[0.034,51.214],[0.058,51.248],[0.042,51.293],[0.086,51.293],[0.085,51.316],[0.118,51.33],[0.118,51.344],[0.137,51.344],[0.152,51.37],[0.148,51.393],[0.162,51.392],[0.149,51.408],[0.153,51.409],[0.156,51.431],[0.164,51.429],[0.173,51.443],[0.203,51.454],[0.221,51.479]]]]}},{"type":"Feature","properties":{"code":"E10000017","name":"Lancashire"},"geometry":{"type":"Polygon","coordinates":[[[-2.461,54.227],[-2.534,54.158],[-2.561,54.153],[-2.565,54.127],[-2.524,54.095],[-2.51,54.095],[-2.464,54.075],[-2.47,54.046],[-2.426,54.038],[-2.374,54.049],[-2.357,54.019],[-2.34,54.009],[-2.352,54.011],[-2.352,53.995],[-2.34,53.989],[-2.319,53.994],[-2.295,53.974],[-2.23,53.982],[-2.221,53.978],[-2.232,53.971],[-2.226,53.961],[-2.196,53.97],[-2.184,53.952],[-2.182,53.935],[-2.132,53.927],[-2.113,53.916],[-2.103,53.891],[-2.081,53.876],[-2.09,53.868],[-2.046,53.85],[-2.047,53.83],[-2.061,53.826],[-2.112,53.806],[-2.128,53.799],[-2.125,53.788],[-2.136,53.78],[-2.131,53.752],[-2.173,53.723],[-2.146,53.682],[-2.161,53.641],[-2.185,53.638],[-2.182,53.648],[-2.205,53.654],[-2.218,53.669],[-2.246,53.663],[-2.27,53.646],[-2.257,53.62],[-2.272,53.614],[-2.295,53.64],[-2.299,53.667],[-2.317,53.655],[-2.371,53.667],[-2.374,53.687],[-2.398,53.692],[-2.411,53.705],[-2.434,53.719],[-2.44,53.749],[-2.452,53.756],[-2.446,53.767],[-2.466,53.781],[-2.551,53.756],[-2.562,53.747],[-2.54,53.702],[-2.516,53.692],[-2.532,53.665],[-2.511,53.627],[-2.569,53.596],[-2.596,53.611],[-2.626,53.594],[-2.635,53.608],[-2.689,53.604],[-2.693,53.589],[-2.719,53.576],[-2.705,53.559],[-2.718,53.527],[-2.73,53.521],[-2.769,53.514],[-2.782,53.531],[-2.817,53.512],[-2.825,53.485],[-2.844,53.484],[-2.85,53.493],[-2.865,53.492],[-2.888,53.504],[-2.882,53.521],[-2.923,53.525],[-2.948,53.544],[-2.977,53.546],[-2.963,53.524],[-2.976,53.515],[-3.047,53.543],[-3.04,53.565],[-3.023,53.57],[-3.021,53.584],[-3.036,53.587],[-3.029,53.602],[-2.998,53.627],[-2.982,53.622],[-2.967,53.631],[-2.94,53.659],[-2.947,53.688],[-2.95,53.692],[-2.954,53.695],[-2.954,53.695],[-2.955,53.697],[-2.956,53.698],[-2.937,53.695],[-2.951,53.7],[-2.937,53.702],[-2.955,53.704],[-2.944,53.708],[-2.932,53.7],[-2.926,53.705],[-2.948,53.712],[-2.938,53.725],[-2.914,53.711],[-2.929,53.724],[-2.915,53.726],[-2.911,53.727],[-2.866,53.733],[-2.845,53.725],[-2.831,53.717],[-2.829,53.716],[-2.828,53.715],[-2.827,53.714],[-2.828,53.716],[-2.83,53.717],[-2.831,53.72],[-2.832,53.72],[-2.835,53.724],[-2.821,53.73],[-2.836,53.725],[-2.843,53.732],[-2.836,53.737],[-2.845,53.734],[-2.845,53.73],[-2.855,53.735],[-2.81,53.747],[-2.804,53.749],[-2.794,53.752],[-2.794,53.752],[-2.794,53.752],[-2.856,53.738],[-2.859,53.751],[-2.857,53.738],[-2.899,53.733],[-2.911,53.733],[-2.934,53.732],[-2.953,53.733],[-2.945,53.736],[-2.976,53.734],[-3.039,53.747],[-3.057,53.777],[-3.057,53.777],[-3.033,53.781],[-3.029,53.773],[-2.996,53.775],[-3.004,53.791],[-2.983,53.794],[-2.995,53.818],[-3.011,53.826],[-3.02,53.869],[-3.048,53.875],[-3.048,53.876],[-3.05,53.92],[-3.008,53.929],[-3.009,53.901],[-3.0,53.929],[-2.925,53.95],[-2.916,53.947],[-2.911,53.946],[-2.916,53.946],[-2.93,53.945],[-2.916,53.941],[-2.906,53.938],[-2.881,53.943],[-2.88,53.945],[-2.882,53.947],[-2.864,53.953],[-2.887,53.958],[-2.861,53.955],[-2.869,53.96],[-2.857,53.958],[-2.862,53.965],[-2.836,53.955],[-2.854,53.965],[-2.836,53.964],[-2.872,53.97],[-2.879,53.979],[-2.856,54.0],[-2.823,53.995],[-2.833,53.999],[-2.835,54.011],[-2.853,54.006],[-2.845,54.015],[-2.86,54.004],[-2.871,54.014],[-2.865,54.005],[-2.878,54.006],[-2.881,53.989],[-2.887,54.002],[-2.886,53.991],[-2.9,53.992],[-2.904,54.022],[-2.917,54.028],[-2.924,54.031],[-2.922,54.032],[-2.921,54.033],[-2.912,54.034],[-2.919,54.034],[-2.918,54.034],[-2.906,54.039],[-2.882,54.072],[-2.87,54.076],[-2.847,54.078],[-2.819,54.089],[-2.814,54.095],[-2.821,54.089],[-2.827,54.1],[-2.78,54.136],[-2.798,54.127],[-2.829,54.138],[-2.828,54.148],[-2.837,54.158],[-2.838,54.174],[-2.799,54.198],[-2.768,54.186],[-2.734,54.184],[-2.736,54.169],[-2.68,54.161],[-2.64,54.202],[-2.625,54.196],[-2.576,54.196],[-2.46,54.24],[-2.461,54.227]]]}},{"type":"Feature","properties":{"code":"E10000018","name":"Leicestershire"},"geometry":{"type":"Polygon","coordinates":[[[-0.778,52.959],[-0.755,52.95],[-0.777,52.905],[-0.758,52.9],[-0.767,52.887],[-0.743,52.883],[-0.682,52.812],[-0.664,52.757],[-0.752,52.737],[-0.776,52.744],[-0.813,52.729],[-0.822,52.716],[-0.786,52.695],[-0.782,52.669],[-0.809,52.646],[-0.806,52.621],[-0.821,52.596],[-0.792,52.598],[-0.765,52.582],[-0.76,52.565],[-0.739,52.549],[-0.742,52.539],[-0.714,52.525],[-0.757,52.511],[-0.775,52.518],[-0.82,52.516],[-0.869,52.527],[-0.883,52.514],[-0.882,52.493],[-0.898,52.487],[-0.882,52.471],[-0.901,52.46],[-0.942,52.468],[-0.952,52.477],[-1.001,52.471],[-1.044,52.446],[-1.034,52.436],[-1.05,52.422],[-1.084,52.436],[-1.129,52.416],[-1.149,52.397],[-1.184,52.392],[-1.202,52.397],[-1.306,52.493],[-1.325,52.501],[-1.417,52.534],[-1.46,52.552],[-1.523,52.57],[-1.527,52.583],[-1.561,52.596],[-1.554,52.615],[-1.571,52.635],[-1.545,52.645],[-1.552,52.667],[-1.59,52.687],[-1.598,52.7],[-1.55,52.72],[-1.545,52.732],[-1.562,52.751],[-1.553,52.763],[-1.504,52.767],[-1.494,52.759],[-1.468,52.767],[-1.456,52.777],[-1.463,52.787],[-1.442,52.793],[-1.444,52.803],[-1.418,52.802],[-1.388,52.833],[-1.394,52.837],[-1.361,52.855],[-1.351,52.853],[-1.345,52.867],[-1.326,52.866],[-1.319,52.873],[-1.268,52.873],[-1.274,52.836],[-1.262,52.81],[-1.235,52.802],[-1.226,52.792],[-1.198,52.789],[-1.163,52.807],[-1.131,52.806],[-1.117,52.82],[-1.074,52.825],[-1.072,52.814],[-1.036,52.816],[-1.022,52.822],[-0.983,52.821],[-0.977,52.841],[-0.959,52.844],[-0.928,52.866],[-0.941,52.877],[-0.917,52.879],[-0.858,52.906],[-0.863,52.913],[-0.824,52.942],[-0.834,52.946],[-0.82,52.96],[-0.813,52.957],[-0.796,52.977],[-0.778,52.977],[-0.778,52.959]],[[-1.185,52.661],[-1.191,52.64],[-1.207,52.643],[-1.216,52.635],[-1.165,52.613],[-1.174,52.593],[-1.158,52.591],[-1.161,52.583],[-1.149,52.581],[-1.144,52.588],[-1.12,52.598],[-1.104,52.596],[-1.097,52.616],[-1.07,52.618],[-1.047,52.635],[-1.049,52.655],[-1.075,52.67],[-1.119,52.673],[-1.129,52.665],[-1.143,52.687],[-1.157,52.692],[-1.178,52.678],[-1.185,52.661]]]}},{"type":"Feature","properties":{"code":"E10000019","name":"Lincolnshire"},"geometry":{"type":"Polygon","coordinates":[[[-0.248,53.594],[-0.251,53.585],[-0.235,53.586],[-0.223,53.568],[-0.195,53.572],[-0.189,53.566],[-0.22,53.533],[-0.211,53.532],[-0.204,53.512],[-0.211,53.486],[-0.189,53.485],[-0.182,53.469],[-0.154,53.466],[-0.149,53.447],[-0.132,53.436],[-0.12,53.434],[-0.082,53.451],[-0.108,53.47],[-0.09,53.478],[-0.095,53.486],[-0.075,53.489],[-0.065,53.519],[-0.015,53.515],[0.016,53.528],[0.018,53.525],[0.034,53.522],[0.021,53.518],[0.035,53.519],[0.037,53.511],[0.036,53.522],[0.041,53.508],[0.044,53.514],[0.061,53.512],[0.027,53.53],[0.077,53.513],[0.087,53.516],[0.084,53.499],[0.091,53.492],[0.101,53.495],[0.101,53.485],[0.108,53.484],[0.115,53.484],[0.109,53.489],[0.104,53.492],[0.109,53.49],[0.121,53.484],[0.109,53.49],[0.103,53.493],[0.109,53.494],[0.113,53.495],[0.109,53.504],[0.109,53.505],[0.109,53.505],[0.129,53.499],[0.135,53.485],[0.143,53.485],[0.139,53.495],[0.147,53.493],[0.166,53.477],[0.174,53.471],[0.165,53.474],[0.179,53.443],[0.19,53.438],[0.175,53.437],[0.191,53.437],[0.211,53.417],[0.189,53.417],[0.213,53.417],[0.213,53.416],[0.212,53.416],[0.206,53.41],[0.212,53.416],[0.214,53.409],[0.214,53.416],[0.231,53.402],[0.261,53.359],[0.274,53.332],[0.324,53.262],[0.356,53.192],[0.349,53.114],[0.349,53.112],[0.338,53.102],[0.338,53.101],[0.334,53.087],[0.335,53.094],[0.319,53.092],[0.319,53.091],[0.299,53.091],[0.316,53.089],[0.288,53.076],[0.282,53.08],[0.287,53.075],[0.257,53.064],[0.269,53.063],[0.258,53.056],[0.249,53.052],[0.243,53.057],[0.249,53.052],[0.236,53.053],[0.245,53.049],[0.2,53.033],[0.199,53.033],[0.151,53.008],[0.082,52.941],[0.08,52.939],[0.072,52.932],[0.078,52.932],[0.063,52.923],[0.053,52.916],[0.043,52.909],[0.027,52.898],[0.038,52.905],[0.037,52.903],[0.041,52.907],[0.069,52.919],[0.069,52.908],[0.056,52.903],[0.073,52.906],[0.077,52.898],[0.08,52.898],[0.145,52.885],[0.136,52.875],[0.15,52.882],[0.176,52.874],[0.214,52.829],[0.215,52.828],[0.215,52.823],[0.204,52.782],[0.217,52.821],[0.245,52.822],[0.266,52.814],[0.245,52.784],[0.272,52.773],[0.186,52.735],[0.172,52.738],[0.133,52.739],[0.089,52.724],[0.064,52.727],[0.044,52.714],[0.049,52.681],[0.022,52.665],[-0.031,52.662],[-0.064,52.675],[-0.088,52.667],[-0.102,52.672],[-0.141,52.652],[-0.18,52.661],[-0.193,52.652],[-0.213,52.667],[-0.261,52.651],[-0.289,52.67],[-0.335,52.675],[-0.35,52.662],[-0.406,52.648],[-0.453,52.654],[-0.495,52.64],[-0.495,52.64],[-0.524,52.665],[-0.507,52.66],[-0.456,52.67],[-0.434,52.684],[-0.43,52.705],[-0.495,52.71],[-0.542,52.723],[-0.54,52.738],[-0.573,52.753],[-0.605,52.75],[-0.61,52.76],[-0.664,52.757],[-0.682,52.812],[-0.743,52.883],[-0.767,52.887],[-0.758,52.9],[-0.777,52.905],[-0.755,52.95],[-0.778,52.959],[-0.778,52.977],[-0.804,53.013],[-0.796,53.011],[-0.788,53.026],[-0.761,53.029],[-0.75,53.055],[-0.716,53.059],[-0.713,53.066],[-0.695,53.066],[-0.73,53.098],[-0.717,53.116],[-0.732,53.128],[-0.715,53.137],[-0.718,53.177],[-0.764,53.183],[-0.731,53.211],[-0.715,53.208],[-0.698,53.22],[-0.676,53.218],[-0.667,53.24],[-0.688,53.258],[-0.734,53.254],[-0.735,53.244],[-0.777,53.247],[-0.764,53.273],[-0.778,53.284],[-0.764,53.299],[-0.751,53.294],[-0.747,53.304],[-0.75,53.324],[-0.766,53.33],[-0.759,53.354],[-0.774,53.364],[-0.791,53.364],[-0.775,53.378],[-0.79,53.386],[-0.777,53.397],[-0.789,53.415],[-0.818,53.427],[-0.821,53.441],[-0.797,53.455],[-0.784,53.463],[-0.784,53.477],[-0.772,53.479],[-0.768,53.499],[-0.752,53.501],[-0.74,53.52],[-0.624,53.513],[-0.63,53.458],[-0.552,53.46],[-0.472,53.475],[-0.487,53.48],[-0.488,53.505],[-0.405,53.518],[-0.408,53.532],[-0.431,53.546],[-0.501,53.537],[-0.491,53.546],[-0.467,53.549],[-0.429,53.575],[-0.417,53.563],[-0.336,53.559],[-0.301,53.595],[-0.309,53.614],[-0.292,53.613],[-0.248,53.594]]]}},{"type":"Feature","properties":{"code":"E10000020","name":"Norfolk"},"geometry":{"type":"MultiPolygon","coordinates":[[[[1.007,52.974],[1.01,52.974],[1.124,52.951],[1.132,52.951],[1.132,52.95],[1.14,52.95],[1.272,52.936],[1.301,52.933],[1.36,52.91],[1.432,52.882],[1.56,52.815],[1.586,52.802],[1.675,52.743],[1.675,52.743],[1.698,52.724],[1.699,52.72],[1.714,52.692],[1.737,52.645],[1.744,52.574],[1.74,52.574],[1.74,52.568],[1.733,52.557],[1.74,52.533],[1.74,52.532],[1.726,52.531],[1.702,52.545],[1.668,52.55],[1.629,52.526],[1.654,52.501],[1.672,52.504],[1.682,52.495],[1.659,52.468],[1.647,52.472],[1.635,52.463],[1.618,52.463],[1.586,52.479],[1.568,52.475],[1.558,52.458],[1.53,52.468],[1.508,52.462],[1.481,52.472],[1.446,52.456],[1.42,52.471],[1.411,52.462],[1.433,52.456],[1.433,52.445],[1.408,52.444],[1.364,52.427],[1.347,52.404],[1.316,52.387],[1.286,52.391],[1.26,52.371],[1.214,52.355],[1.068,52.379],[1.03,52.379],[0.967,52.37],[0.931,52.389],[0.867,52.39],[0.841,52.401],[0.808,52.39],[0.766,52.39],[0.747,52.383],[0.738,52.395],[0.691,52.397],[0.669,52.409],[0.719,52.45],[0.684,52.453],[0.666,52.463],[0.642,52.451],[0.583,52.452],[0.555,52.456],[0.524,52.448],[0.445,52.447],[0.429,52.436],[0.429,52.455],[0.381,52.48],[0.367,52.501],[0.309,52.514],[0.256,52.508],[0.246,52.5],[0.236,52.507],[0.206,52.52],[0.231,52.528],[0.208,52.53],[0.204,52.545],[0.215,52.549],[0.205,52.548],[0.205,52.555],[0.217,52.561],[0.206,52.565],[0.218,52.573],[0.192,52.599],[0.219,52.622],[0.17,52.65],[0.184,52.656],[0.185,52.678],[0.154,52.682],[0.172,52.738],[0.186,52.735],[0.272,52.773],[0.245,52.784],[0.266,52.814],[0.267,52.813],[0.285,52.812],[0.278,52.816],[0.288,52.819],[0.29,52.813],[0.315,52.819],[0.345,52.814],[0.334,52.81],[0.346,52.814],[0.339,52.808],[0.352,52.809],[0.345,52.803],[0.354,52.806],[0.362,52.797],[0.371,52.783],[0.389,52.754],[0.392,52.747],[0.389,52.754],[0.375,52.784],[0.381,52.789],[0.374,52.785],[0.371,52.789],[0.363,52.802],[0.37,52.802],[0.358,52.808],[0.372,52.811],[0.381,52.813],[0.373,52.813],[0.358,52.812],[0.373,52.821],[0.403,52.837],[0.412,52.833],[0.405,52.838],[0.433,52.853],[0.445,52.853],[0.45,52.842],[0.445,52.873],[0.48,52.932],[0.49,52.948],[0.542,52.975],[0.569,52.975],[0.562,52.972],[0.576,52.964],[0.586,52.973],[0.587,52.966],[0.592,52.971],[0.59,52.965],[0.603,52.966],[0.588,52.977],[0.618,52.973],[0.614,52.966],[0.626,52.967],[0.623,52.974],[0.672,52.978],[0.669,52.97],[0.639,52.971],[0.643,52.966],[0.679,52.967],[0.685,52.967],[0.7,52.974],[0.68,52.969],[0.694,52.979],[0.716,52.972],[0.748,52.975],[0.751,52.973],[0.746,52.966],[0.748,52.973],[0.732,52.973],[0.732,52.961],[0.758,52.969],[0.754,52.975],[0.764,52.977],[0.751,52.977],[0.782,52.978],[0.782,52.978],[0.813,52.973],[0.845,52.978],[0.851,52.958],[0.87,52.955],[0.872,52.96],[0.868,52.967],[0.857,52.96],[0.863,52.968],[0.855,52.967],[0.867,52.979],[0.878,52.976],[0.886,52.964],[0.894,52.971],[0.905,52.968],[0.894,52.96],[0.905,52.962],[0.909,52.957],[0.911,52.963],[0.917,52.962],[0.915,52.964],[0.921,52.966],[0.937,52.958],[0.976,52.963],[0.984,52.964],[1.015,52.963],[1.011,52.955],[1.031,52.967],[1.003,52.974],[0.977,52.972],[0.97,52.971],[0.958,52.969],[0.975,52.98],[0.978,52.98],[1.007,52.974]]],[[[0.689,52.988],[0.751,52.978],[0.722,52.982],[0.717,52.977],[0.719,52.983],[0.711,52.979],[0.703,52.984],[0.701,52.979],[0.703,52.985],[0.698,52.981],[0.69,52.987],[0.697,52.981],[0.685,52.983],[0.682,52.977],[0.686,52.987],[0.68,52.987],[0.658,52.986],[0.68,52.987],[0.689,52.988]]]]}},{"type":"Feature","properties":{"code":"E10000024","name":"Nottinghamshire"},"geometry":{"type":"Polygon","coordinates":[[[-0.92,53.466],[-0.916,53.46],[-0.872,53.466],[-0.797,53.455],[-0.821,53.441],[-0.818,53.427],[-0.789,53.415],[-0.777,53.397],[-0.79,53.386],[-0.775,53.378],[-0.791,53.364],[-0.774,53.364],[-0.759,53.354],[-0.766,53.33],[-0.75,53.324],[-0.747,53.304],[-0.751,53.294],[-0.764,53.299],[-0.778,53.284],[-0.764,53.273],[-0.777,53.247],[-0.735,53.244],[-0.734,53.254],[-0.688,53.258],[-0.667,53.24],[-0.676,53.218],[-0.698,53.22],[-0.715,53.208],[-0.731,53.211],[-0.764,53.183],[-0.718,53.177],[-0.715,53.137],[-0.732,53.128],[-0.717,53.116],[-0.73,53.098],[-0.695,53.066],[-0.713,53.066],[-0.716,53.059],[-0.75,53.055],[-0.761,53.029],[-0.788,53.026],[-0.796,53.011],[-0.804,53.013],[-0.778,52.977],[-0.796,52.977],[-0.813,52.957],[-0.82,52.96],[-0.834,52.946],[-0.824,52.942],[-0.863,52.913],[-0.858,52.906],[-0.917,52.879],[-0.941,52.877],[-0.928,52.866],[-0.959,52.844],[-0.977,52.841],[-0.983,52.821],[-1.022,52.822],[-1.036,52.816],[-1.072,52.814],[-1.074,52.825],[-1.117,52.82],[-1.131,52.806],[-1.163,52.807],[-1.198,52.789],[-1.226,52.792],[-1.235,52.802],[-1.262,52.81],[-1.274,52.836],[-1.268,52.873],[-1.24,52.88],[-1.24,52.892],[-1.246,52.903],[-1.282,52.91],[-1.281,52.949],[-1.293,52.956],[-1.288,52.97],[-1.307,53.004],[-1.332,53.031],[-1.336,53.053],[-1.344,53.066],[-1.332,53.081],[-1.303,53.088],[-1.309,53.097],[-1.301,53.102],[-1.322,53.131],[-1.323,53.162],[-1.291,53.171],[-1.26,53.164],[-1.24,53.179],[-1.197,53.185],[-1.209,53.218],[-1.202,53.236],[-1.213,53.248],[-1.203,53.261],[-1.175,53.265],[-1.182,53.27],[-1.166,53.278],[-1.18,53.287],[-1.177,53.305],[-1.2,53.311],[-1.139,53.341],[-1.141,53.347],[-1.157,53.345],[-1.163,53.357],[-1.139,53.356],[-1.146,53.369],[-1.131,53.376],[-1.135,53.39],[-1.116,53.397],[-1.116,53.407],[-1.08,53.427],[-1.031,53.431],[-1.031,53.425],[-1.014,53.426],[-0.996,53.437],[-0.986,53.472],[-0.953,53.484],[-0.936,53.503],[-0.9,53.475],[-0.92,53.466]],[[-1.203,52.988],[-1.226,52.981],[-1.247,52.985],[-1.232,52.968],[-1.247,52.953],[-1.182,52.917],[-1.199,52.909],[-1.211,52.912],[-1.214,52.904],[-1.177,52.889],[-1.159,52.9],[-1.152,52.937],[-1.142,52.932],[-1.132,52.943],[-1.1,52.942],[-1.086,52.949],[-1.12,52.968],[-1.123,52.983],[-1.142,52.986],[-1.138,52.995],[-1.154,52.997],[-1.144,53.007],[-1.183,53.019],[-1.21,53.018],[-1.225,53.008],[-1.219,52.991],[-1.203,52.988]]]}},{"type":"Feature","properties":{"code":"E10000025","name":"Oxfordshire"},"geometry":{"type":"Polygon","coordinates":[[[-1.332,52.168],[-1.248,52.097],[-1.321,52.087],[-1.318,52.08],[-1.298,52.078],[-1.313,52.051],[-1.278,52.014],[-1.283,51.98],[-1.242,51.986],[-1.196,51.977],[-1.164,51.993],[-1.134,51.997],[-1.118,52.015],[-1.053,52.002],[-1.095,51.957],[-1.079,51.943],[-1.055,51.948],[-1.087,51.923],[-1.079,51.917],[-1.094,51.894],[-1.069,51.887],[-1.078,51.877],[-1.065,51.869],[-1.062,51.844],[-1.047,51.84],[-1.078,51.829],[-1.122,51.845],[-1.141,51.835],[-1.11,51.817],[-1.125,51.808],[-1.124,51.794],[-1.106,51.782],[-1.083,51.781],[-1.081,51.757],[-1.045,51.745],[-1.03,51.745],[-1.03,51.758],[-0.986,51.752],[-0.98,51.761],[-0.954,51.758],[-0.924,51.748],[-0.888,51.719],[-0.895,51.693],[-0.88,51.681],[-0.898,51.676],[-0.878,51.668],[-0.918,51.672],[-0.932,51.665],[-0.927,51.651],[-0.951,51.651],[-0.935,51.637],[-0.95,51.629],[-0.939,51.618],[-0.943,51.605],[-0.917,51.6],[-0.941,51.586],[-0.938,51.571],[-0.902,51.556],[-0.897,51.545],[-0.9,51.537],[-0.879,51.523],[-0.87,51.504],[-0.894,51.497],[-0.922,51.468],[-0.949,51.46],[-0.955,51.465],[-0.941,51.475],[-0.957,51.493],[-0.998,51.484],[-1.014,51.466],[-1.037,51.475],[-1.051,51.492],[-1.088,51.486],[-1.102,51.49],[-1.113,51.509],[-1.142,51.516],[-1.14,51.543],[-1.205,51.528],[-1.205,51.538],[-1.227,51.535],[-1.261,51.538],[-1.329,51.564],[-1.342,51.544],[-1.367,51.552],[-1.384,51.54],[-1.405,51.547],[-1.423,51.536],[-1.427,51.546],[-1.448,51.536],[-1.464,51.539],[-1.471,51.529],[-1.513,51.551],[-1.531,51.546],[-1.555,51.553],[-1.581,51.537],[-1.585,51.525],[-1.603,51.518],[-1.648,51.572],[-1.655,51.576],[-1.677,51.569],[-1.691,51.584],[-1.691,51.605],[-1.667,51.616],[-1.674,51.623],[-1.66,51.635],[-1.692,51.652],[-1.7,51.671],[-1.683,51.69],[-1.668,51.68],[-1.648,51.684],[-1.688,51.712],[-1.696,51.724],[-1.687,51.74],[-1.701,51.771],[-1.719,51.783],[-1.682,51.804],[-1.686,51.834],[-1.676,51.85],[-1.687,51.865],[-1.667,51.877],[-1.659,51.897],[-1.633,51.899],[-1.646,51.922],[-1.615,51.938],[-1.632,51.956],[-1.663,51.964],[-1.666,51.987],[-1.612,51.955],[-1.592,51.97],[-1.6,51.977],[-1.564,51.977],[-1.55,51.981],[-1.557,51.992],[-1.523,51.997],[-1.488,52.094],[-1.477,52.101],[-1.447,52.098],[-1.453,52.113],[-1.426,52.118],[-1.385,52.094],[-1.358,52.101],[-1.371,52.118],[-1.393,52.119],[-1.366,52.136],[-1.349,52.135],[-1.332,52.168]]]}},{"type":"Feature","properties":{"code":"E10000028","name":"Staffordshire"},"geometry":{"type":"Polygon","coordinates":[[[-1.861,53.188],[-1.813,53.154],[-1.822,53.137],[-1.784,53.103],[-1.794,53.088],[-1.776,53.059],[-1.779,53.045],[-1.759,53.037],[-1.762,53.0],[-1.827,52.977],[-1.829,52.948],[-1.857,52.923],[-1.828,52.884],[-1.777,52.884],[-1.746,52.869],[-1.725,52.86],[-1.704,52.867],[-1.701,52.861],[-1.69,52.865],[-1.627,52.854],[-1.585,52.832],[-1.611,52.816],[-1.592,52.809],[-1.589,52.8],[-1.614,52.788],[-1.611,52.781],[-1.667,52.785],[-1.704,52.732],[-1.657,52.722],[-1.655,52.699],[-1.598,52.7],[-1.59,52.687],[-1.645,52.657],[-1.633,52.643],[-1.643,52.641],[-1.644,52.603],[-1.666,52.592],[-1.7,52.591],[-1.729,52.588],[-1.742,52.594],[-1.788,52.588],[-1.797,52.599],[-1.828,52.609],[-1.854,52.602],[-1.873,52.585],[-1.892,52.599],[-1.886,52.615],[-1.916,52.635],[-1.905,52.643],[-1.918,52.65],[-1.911,52.657],[-1.934,52.662],[-1.945,52.656],[-1.955,52.663],[-1.961,52.643],[-1.987,52.64],[-2.03,52.626],[-2.03,52.617],[-2.051,52.621],[-2.081,52.612],[-2.101,52.635],[-2.132,52.638],[-2.168,52.62],[-2.169,52.609],[-2.196,52.607],[-2.189,52.589],[-2.207,52.585],[-2.18,52.575],[-2.176,52.554],[-2.133,52.554],[-2.136,52.534],[-2.152,52.526],[-2.144,52.517],[-2.192,52.503],[-2.167,52.472],[-2.176,52.455],[-2.165,52.43],[-2.168,52.424],[-2.27,52.439],[-2.295,52.449],[-2.287,52.455],[-2.313,52.489],[-2.291,52.512],[-2.261,52.524],[-2.269,52.531],[-2.256,52.542],[-2.282,52.553],[-2.262,52.569],[-2.3,52.593],[-2.322,52.594],[-2.324,52.613],[-2.282,52.606],[-2.256,52.61],[-2.233,52.648],[-2.235,52.656],[-2.248,52.657],[-2.239,52.664],[-2.248,52.683],[-2.303,52.683],[-2.32,52.695],[-2.325,52.705],[-2.309,52.721],[-2.316,52.733],[-2.312,52.741],[-2.385,52.79],[-2.371,52.795],[-2.378,52.812],[-2.416,52.827],[-2.394,52.837],[-2.379,52.892],[-2.44,52.881],[-2.446,52.874],[-2.471,52.906],[-2.437,52.944],[-2.425,52.95],[-2.406,52.947],[-2.413,52.962],[-2.386,52.953],[-2.38,52.976],[-2.369,52.979],[-2.381,52.998],[-2.383,53.008],[-2.37,53.015],[-2.384,53.026],[-2.381,53.052],[-2.348,53.056],[-2.318,53.081],[-2.293,53.078],[-2.253,53.094],[-2.247,53.09],[-2.211,53.116],[-2.156,53.16],[-2.141,53.157],[-2.14,53.184],[-2.112,53.169],[-2.07,53.172],[-2.046,53.193],[-2.002,53.193],[-1.987,53.214],[-1.962,53.226],[-1.957,53.214],[-1.899,53.2],[-1.861,53.188]],[[-2.199,53.093],[-2.239,53.073],[-2.203,53.02],[-2.216,53.015],[-2.204,52.981],[-2.213,52.981],[-2.182,52.946],[-2.177,52.954],[-2.163,52.953],[-2.146,52.976],[-2.13,52.971],[-2.122,52.956],[-2.081,52.967],[-2.088,52.974],[-2.079,52.975],[-2.092,52.986],[-2.089,52.997],[-2.105,52.998],[-2.103,53.011],[-2.124,53.022],[-2.132,53.047],[-2.117,53.048],[-2.125,53.065],[-2.161,53.07],[-2.172,53.089],[-2.181,53.09],[-2.199,53.093]]]}},{"type":"Feature","properties":{"code":"E10000029","name":"Suffolk"},"geometry":{"type":"Polygon","coordinates":[[[1.702,52.545],[1.726,52.531],[1.74,52.532],[1.74,52.532],[1.764,52.482],[1.757,52.472],[1.758,52.477],[1.711,52.475],[1.756,52.471],[1.735,52.449],[1.735,52.448],[1.733,52.447],[1.731,52.422],[1.728,52.401],[1.722,52.39],[1.703,52.36],[1.675,52.314],[1.672,52.314],[1.665,52.307],[1.65,52.3],[1.635,52.279],[1.634,52.278],[1.633,52.277],[1.623,52.189],[1.621,52.183],[1.58,52.089],[1.58,52.089],[1.58,52.087],[1.477,52.052],[1.5,52.062],[1.535,52.077],[1.542,52.079],[1.562,52.088],[1.567,52.091],[1.568,52.091],[1.561,52.088],[1.541,52.08],[1.518,52.076],[1.504,52.071],[1.501,52.071],[1.5,52.07],[1.451,52.044],[1.463,52.048],[1.463,52.047],[1.462,52.047],[1.432,52.007],[1.394,51.987],[1.395,51.999],[1.361,52.006],[1.391,51.989],[1.389,51.982],[1.383,51.976],[1.345,51.957],[1.32,51.933],[1.316,51.951],[1.316,51.951],[1.284,51.965],[1.282,51.969],[1.28,51.993],[1.205,52.014],[1.203,52.015],[1.183,52.021],[1.179,52.022],[1.166,52.03],[1.161,52.032],[1.159,52.032],[1.156,52.035],[1.151,52.034],[1.149,52.034],[1.15,52.034],[1.167,52.023],[1.17,52.02],[1.178,52.017],[1.18,52.015],[1.204,52.001],[1.212,51.996],[1.267,51.988],[1.276,51.958],[1.272,51.957],[1.243,51.961],[1.22,51.953],[1.2,51.954],[1.188,51.956],[1.164,51.971],[1.13,51.954],[1.086,51.959],[1.069,51.95],[1.048,51.959],[1.025,51.955],[0.999,51.964],[0.971,51.962],[0.963,51.977],[0.943,51.971],[0.925,51.976],[0.89,51.973],[0.85,51.961],[0.825,51.969],[0.811,51.961],[0.781,51.967],[0.772,51.97],[0.775,51.983],[0.76,51.985],[0.761,51.997],[0.739,52.011],[0.741,52.031],[0.714,52.027],[0.697,52.039],[0.699,52.048],[0.716,52.049],[0.703,52.065],[0.712,52.072],[0.684,52.087],[0.657,52.085],[0.582,52.076],[0.551,52.069],[0.542,52.058],[0.511,52.06],[0.502,52.054],[0.467,52.078],[0.454,52.068],[0.438,52.072],[0.405,52.066],[0.395,52.096],[0.382,52.103],[0.39,52.117],[0.417,52.133],[0.417,52.159],[0.436,52.159],[0.452,52.173],[0.471,52.163],[0.491,52.165],[0.514,52.227],[0.495,52.239],[0.482,52.232],[0.427,52.254],[0.415,52.248],[0.421,52.24],[0.371,52.227],[0.343,52.242],[0.361,52.249],[0.34,52.268],[0.355,52.279],[0.359,52.298],[0.383,52.293],[0.424,52.256],[0.499,52.273],[0.505,52.285],[0.458,52.316],[0.431,52.316],[0.424,52.329],[0.443,52.349],[0.408,52.362],[0.375,52.41],[0.429,52.436],[0.445,52.447],[0.524,52.448],[0.555,52.456],[0.583,52.452],[0.642,52.451],[0.666,52.463],[0.684,52.453],[0.719,52.45],[0.669,52.409],[0.691,52.397],[0.738,52.395],[0.747,52.383],[0.766,52.39],[0.808,52.39],[0.841,52.401],[0.867,52.39],[0.931,52.389],[0.967,52.37],[1.03,52.379],[1.068,52.379],[1.214,52.355],[1.26,52.371],[1.286,52.391],[1.316,52.387],[1.347,52.404],[1.364,52.427],[1.408,52.444],[1.433,52.445],[1.433,52.456],[1.411,52.462],[1.42,52.471],[1.446,52.456],[1.481,52.472],[1.508,52.462],[1.53,52.468],[1.558,52.458],[1.568,52.475],[1.586,52.479],[1.618,52.463],[1.635,52.463],[1.647,52.472],[1.659,52.468],[1.682,52.495],[1.672,52.504],[1.654,52.501],[1.629,52.526],[1.668,52.55],[1.702,52.545]]]}},{"type":"Feature","properties":{"code":"E10000030","name":"Surrey"},"geometry":{"type":"Polygon","coordinates":[[[-0.456,51.438],[-0.391,51.422],[-0.383,51.409],[-0.359,51.412],[-0.328,51.392],[-0.318,51.394],[-0.307,51.378],[-0.331,51.348],[-0.331,51.329],[-0.306,51.335],[-0.288,51.362],[-0.261,51.38],[-0.245,51.38],[-0.245,51.367],[-0.223,51.357],[-0.217,51.343],[-0.23,51.337],[-0.221,51.33],[-0.197,51.344],[-0.157,51.321],[-0.155,51.301],[-0.137,51.301],[-0.124,51.287],[-0.091,51.301],[-0.079,51.32],[-0.051,51.322],[-0.038,51.339],[0.002,51.329],[0.015,51.292],[0.033,51.308],[0.042,51.293],[0.058,51.248],[0.034,51.214],[0.053,51.181],[0.05,51.143],[0.027,51.14],[-0.138,51.142],[-0.133,51.159],[-0.14,51.16],[-0.177,51.167],[-0.212,51.155],[-0.214,51.148],[-0.255,51.144],[-0.255,51.139],[-0.3,51.125],[-0.392,51.117],[-0.419,51.105],[-0.492,51.094],[-0.505,51.088],[-0.535,51.094],[-0.539,51.082],[-0.578,51.087],[-0.597,51.08],[-0.629,51.089],[-0.697,51.071],[-0.753,51.086],[-0.759,51.103],[-0.749,51.103],[-0.745,51.112],[-0.769,51.117],[-0.794,51.15],[-0.805,51.155],[-0.834,51.148],[-0.825,51.181],[-0.849,51.211],[-0.805,51.245],[-0.802,51.239],[-0.776,51.242],[-0.746,51.23],[-0.729,51.256],[-0.731,51.28],[-0.744,51.309],[-0.763,51.319],[-0.775,51.332],[-0.735,51.365],[-0.668,51.385],[-0.616,51.384],[-0.618,51.392],[-0.594,51.442],[-0.572,51.451],[-0.523,51.435],[-0.541,51.458],[-0.524,51.472],[-0.51,51.469],[-0.459,51.456],[-0.456,51.438]]]}},{"type":"Feature","properties":{"code":"E10000031","name":"Warwickshire"},"geometry":{"type":"Polygon","coordinates":[[[-1.561,52.596],[-1.527,52.583],[-1.523,52.57],[-1.46,52.552],[-1.417,52.534],[-1.325,52.501],[-1.306,52.493],[-1.202,52.397],[-1.175,52.356],[-1.234,52.346],[-1.265,52.328],[-1.209,52.315],[-1.234,52.29],[-1.216,52.266],[-1.233,52.253],[-1.267,52.235],[-1.285,52.238],[-1.255,52.198],[-1.313,52.19],[-1.332,52.168],[-1.349,52.135],[-1.366,52.136],[-1.393,52.119],[-1.371,52.118],[-1.358,52.101],[-1.385,52.094],[-1.426,52.118],[-1.453,52.113],[-1.447,52.098],[-1.477,52.101],[-1.488,52.094],[-1.523,51.997],[-1.557,51.992],[-1.55,51.981],[-1.564,51.977],[-1.6,51.977],[-1.592,51.97],[-1.612,51.955],[-1.666,51.987],[-1.666,51.997],[-1.618,52.033],[-1.624,52.039],[-1.664,52.031],[-1.694,52.04],[-1.689,52.052],[-1.705,52.06],[-1.702,52.073],[-1.713,52.067],[-1.731,52.073],[-1.729,52.1],[-1.746,52.093],[-1.768,52.113],[-1.757,52.116],[-1.791,52.12],[-1.786,52.132],[-1.808,52.14],[-1.823,52.136],[-1.823,52.146],[-1.84,52.153],[-1.854,52.139],[-1.867,52.153],[-1.89,52.156],[-1.894,52.148],[-1.885,52.147],[-1.903,52.133],[-1.922,52.153],[-1.944,52.155],[-1.935,52.17],[-1.96,52.169],[-1.942,52.177],[-1.936,52.204],[-1.917,52.218],[-1.935,52.252],[-1.937,52.276],[-1.916,52.275],[-1.887,52.287],[-1.881,52.311],[-1.869,52.315],[-1.865,52.333],[-1.889,52.361],[-1.872,52.368],[-1.808,52.367],[-1.776,52.348],[-1.78,52.364],[-1.746,52.355],[-1.735,52.37],[-1.72,52.373],[-1.719,52.356],[-1.694,52.351],[-1.684,52.363],[-1.661,52.366],[-1.648,52.357],[-1.623,52.366],[-1.601,52.389],[-1.568,52.385],[-1.552,52.364],[-1.525,52.379],[-1.514,52.369],[-1.504,52.378],[-1.464,52.373],[-1.431,52.397],[-1.438,52.41],[-1.424,52.433],[-1.459,52.455],[-1.492,52.459],[-1.505,52.45],[-1.54,52.465],[-1.561,52.455],[-1.59,52.462],[-1.595,52.456],[-1.624,52.464],[-1.642,52.443],[-1.662,52.444],[-1.667,52.435],[-1.677,52.436],[-1.754,52.513],[-1.754,52.521],[-1.729,52.525],[-1.749,52.531],[-1.756,52.555],[-1.774,52.565],[-1.764,52.571],[-1.788,52.588],[-1.742,52.594],[-1.729,52.588],[-1.7,52.591],[-1.666,52.592],[-1.644,52.603],[-1.643,52.641],[-1.633,52.643],[-1.645,52.657],[-1.59,52.687],[-1.552,52.667],[-1.545,52.645],[-1.571,52.635],[-1.554,52.615],[-1.561,52.596]]]}},{"type":"Feature","properties":{"code":"E10000032","name":"West Sussex"},"geometry":{"type":"Polygon","coordinates":[[[-0.133,51.159],[-0.138,51.142],[0.027,51.14],[0.028,51.118],[0.045,51.111],[0.019,51.104],[0.01,51.11],[0.011,51.102],[-0.036,51.093],[-0.027,51.075],[-0.013,51.074],[-0.009,51.056],[0.014,51.057],[-0.003,51.048],[-0.002,51.036],[-0.022,51.027],[-0.016,51.002],[-0.025,50.98],[-0.062,50.978],[-0.074,50.992],[-0.115,50.976],[-0.104,50.946],[-0.12,50.942],[-0.135,50.887],[-0.168,50.881],[-0.169,50.892],[-0.182,50.888],[-0.188,50.869],[-0.227,50.878],[-0.239,50.868],[-0.245,50.864],[-0.217,50.828],[-0.251,50.83],[-0.249,50.826],[-0.267,50.826],[-0.278,50.827],[-0.298,50.823],[-0.333,50.817],[-0.333,50.817],[-0.436,50.803],[-0.436,50.803],[-0.542,50.8],[-0.556,50.798],[-0.568,50.798],[-0.627,50.788],[-0.702,50.777],[-0.713,50.774],[-0.726,50.772],[-0.734,50.766],[-0.752,50.76],[-0.753,50.761],[-0.753,50.761],[-0.752,50.761],[-0.751,50.762],[-0.751,50.762],[-0.751,50.762],[-0.751,50.762],[-0.75,50.763],[-0.763,50.773],[-0.764,50.772],[-0.787,50.76],[-0.772,50.764],[-0.762,50.751],[-0.751,50.757],[-0.75,50.757],[-0.785,50.726],[-0.789,50.722],[-0.819,50.739],[-0.824,50.744],[-0.844,50.751],[-0.86,50.76],[-0.881,50.765],[-0.907,50.774],[-0.915,50.781],[-0.915,50.789],[-0.908,50.787],[-0.912,50.783],[-0.911,50.781],[-0.905,50.782],[-0.892,50.794],[-0.878,50.808],[-0.866,50.805],[-0.845,50.799],[-0.825,50.804],[-0.808,50.831],[-0.814,50.834],[-0.82,50.817],[-0.843,50.805],[-0.866,50.813],[-0.869,50.814],[-0.866,50.816],[-0.851,50.828],[-0.861,50.828],[-0.858,50.84],[-0.865,50.84],[-0.87,50.84],[-0.865,50.828],[-0.865,50.827],[-0.865,50.827],[-0.877,50.811],[-0.892,50.818],[-0.894,50.838],[-0.913,50.84],[-0.908,50.799],[-0.943,50.815],[-0.932,50.846],[-0.934,50.846],[-0.926,50.864],[-0.939,50.874],[-0.958,50.891],[-0.94,50.918],[-0.924,50.924],[-0.942,50.943],[-0.932,50.946],[-0.908,50.994],[-0.893,51.003],[-0.897,51.022],[-0.853,51.045],[-0.843,51.067],[-0.798,51.064],[-0.781,51.079],[-0.753,51.086],[-0.697,51.071],[-0.629,51.089],[-0.597,51.08],[-0.578,51.087],[-0.539,51.082],[-0.535,51.094],[-0.505,51.088],[-0.492,51.094],[-0.419,51.105],[-0.392,51.117],[-0.3,51.125],[-0.255,51.139],[-0.255,51.144],[-0.214,51.148],[-0.212,51.155],[-0.177,51.167],[-0.14,51.16],[-0.133,51.159]]]}},{"type":"Feature","properties":{"code":"E10000034","name":"Worcestershire"},"geometry":{"type":"Polygon","coordinates":[[[-2.27,52.439],[-2.168,52.424],[-2.165,52.43],[-2.136,52.426],[-2.099,52.445],[-2.085,52.432],[-2.068,52.435],[-2.062,52.427],[-2.056,52.441],[-2.038,52.442],[-2.037,52.428],[-2.017,52.433],[-1.986,52.417],[-2.034,52.402],[-1.999,52.381],[-1.954,52.393],[-1.934,52.387],[-1.914,52.407],[-1.883,52.4],[-1.869,52.405],[-1.845,52.4],[-1.872,52.368],[-1.889,52.361],[-1.865,52.333],[-1.869,52.315],[-1.881,52.311],[-1.887,52.287],[-1.916,52.275],[-1.937,52.276],[-1.935,52.252],[-1.917,52.218],[-1.936,52.204],[-1.942,52.177],[-1.96,52.169],[-1.935,52.17],[-1.944,52.155],[-1.922,52.153],[-1.903,52.133],[-1.885,52.147],[-1.894,52.148],[-1.89,52.156],[-1.867,52.153],[-1.854,52.139],[-1.84,52.153],[-1.823,52.146],[-1.823,52.136],[-1.808,52.14],[-1.786,52.132],[-1.791,52.12],[-1.757,52.116],[-1.768,52.113],[-1.802,52.097],[-1.813,52.079],[-1.819,52.085],[-1.832,52.073],[-1.847,52.079],[-1.874,52.07],[-1.863,52.053],[-1.835,52.044],[-1.825,52.031],[-1.839,52.007],[-1.913,52.044],[-1.932,52.03],[-1.951,52.038],[-1.984,52.036],[-2.038,52.005],[-2.05,52.004],[-2.061,52.015],[-2.085,52.01],[-2.112,52.015],[-2.141,51.999],[-2.15,52.011],[-2.139,52.028],[-2.117,52.034],[-2.118,52.042],[-2.171,52.048],[-2.181,52.042],[-2.177,52.023],[-2.188,52.019],[-2.165,51.996],[-2.181,52.0],[-2.185,51.991],[-2.221,51.995],[-2.251,51.967],[-2.271,51.969],[-2.3,51.967],[-2.313,51.977],[-2.327,51.976],[-2.325,52.004],[-2.353,52.014],[-2.351,52.021],[-2.338,52.09],[-2.352,52.103],[-2.351,52.145],[-2.379,52.155],[-2.415,52.145],[-2.435,52.168],[-2.422,52.172],[-2.408,52.203],[-2.393,52.209],[-2.404,52.221],[-2.384,52.225],[-2.423,52.237],[-2.465,52.234],[-2.475,52.241],[-2.468,52.256],[-2.428,52.271],[-2.451,52.285],[-2.503,52.277],[-2.496,52.257],[-2.526,52.248],[-2.532,52.253],[-2.574,52.253],[-2.629,52.24],[-2.628,52.261],[-2.598,52.282],[-2.64,52.286],[-2.663,52.304],[-2.618,52.307],[-2.575,52.318],[-2.563,52.311],[-2.562,52.333],[-2.539,52.344],[-2.512,52.337],[-2.513,52.329],[-2.482,52.331],[-2.488,52.355],[-2.475,52.367],[-2.415,52.368],[-2.41,52.387],[-2.391,52.382],[-2.367,52.388],[-2.336,52.385],[-2.373,52.402],[-2.364,52.439],[-2.312,52.438],[-2.287,52.455],[-2.295,52.449],[-2.27,52.439]]]}}]}