{"type":"FeatureCollection","features":[{"type":"Feature","properties":{"code":"E12000001","name":"North East"},"geometry":{"type":"MultiPolygon","coordinates":[[[[-1.401,55.011],[-1.405,55.01],[-1.405,55.01],[-1.401,55.011]]],[[[-1.779,55.686],[-1.779,55.668],[-1.803,55.668],[-1.815,55.682],[-1.855,55.68],[-1.851,55.688],[-1.815,55.689],[-1.79,55.688],[-1.779,55.686]]],[[[-1.989,55.769],[-1.988,55.765],[-2.002,55.765],[-2.004,55.765],[-2.002,55.764],[-1.959,55.734],[-1.958,55.733],[-1.957,55.733],[-1.938,55.72],[-1.91,55.711],[-1.908,55.71],[-1.903,55.709],[-1.871,55.699],[-1.874,55.684],[-1.886,55.685],[-1.873,55.683],[-1.872,55.666],[-1.855,55.653],[-1.841,55.643],[-1.808,55.634],[-1.79,55.65],[-1.792,55.653],[-1.795,55.659],[-1.788,55.657],[-1.789,55.653],[-1.791,55.647],[-1.755,55.623],[-1.756,55.618],[-1.786,55.617],[-1.77,55.603],[-1.745,55.619],[-1.723,55.617],[-1.684,55.599],[-1.667,55.591],[-1.662,55.587],[-1.65,55.583],[-1.64,55.578],[-1.652,55.571],[-1.646,55.574],[-1.642,55.571],[-1.642,55.571],[-1.639,55.569],[-1.619,55.552],[-1.619,55.552],[-1.631,55.548],[-1.631,55.544],[-1.642,55.538],[-1.611,55.522],[-1.611,55.518],[-1.616,55.513],[-1.611,55.513],[-1.612,55.502],[-1.614,55.5],[-1.613,55.5],[-1.613,55.497],[-1.591,55.492],[-1.592,55.473],[-1.593,55.44],[-1.591,55.439],[-1.591,55.438],[-1.576,55.43],[-1.578,55.417],[-1.578,55.417],[-1.578,55.417],[-1.58,55.407],[-1.612,55.385],[-1.609,55.384],[-1.602,55.37],[-1.602,55.37],[-1.601,55.369],[-1.592,55.349],[-1.587,55.336],[-1.573,55.339],[-1.564,55.334],[-1.549,55.322],[-1.568,55.293],[-1.57,55.291],[-1.569,55.272],[-1.564,55.266],[-1.564,55.265],[-1.564,55.265],[-1.522,55.214],[-1.522,55.21],[-1.515,55.205],[-1.499,55.186],[-1.506,55.184],[-1.512,55.184],[-1.525,55.163],[-1.54,55.162],[-1.526,55.16],[-1.487,55.117],[-1.487,55.117],[-1.5,55.128],[-1.522,55.144],[-1.52,55.139],[-1.533,55.139],[-1.559,55.147],[-1.534,55.138],[-1.569,55.131],[-1.528,55.137],[-1.506,55.13],[-1.499,55.124],[-1.494,55.114],[-1.496,55.113],[-1.491,55.1],[-1.486,55.095],[-1.478,55.079],[-1.473,55.084],[-1.465,55.078],[-1.462,55.074],[-1.462,55.074],[-1.45,55.059],[-1.451,55.055],[-1.444,55.051],[-1.421,55.02],[-1.403,55.015],[-1.417,55.017],[-1.422,55.014],[-1.43,55.013],[-1.456,54.989],[-1.502,54.989],[-1.518,54.996],[-1.503,54.988],[-1.531,54.984],[-1.475,54.986],[-1.475,54.986],[-1.48,54.975],[-1.457,54.977],[-1.472,54.986],[-1.449,54.984],[-1.426,55.006],[-1.42,55.005],[-1.419,55.003],[-1.412,55.006],[-1.409,55.001],[-1.411,54.999],[-1.377,54.978],[-1.357,54.965],[-1.364,54.944],[-1.364,54.944],[-1.365,54.933],[-1.366,54.926],[-1.359,54.924],[-1.359,54.922],[-1.363,54.923],[-1.371,54.912],[-1.358,54.917],[-1.356,54.911],[-1.362,54.898],[-1.348,54.861],[-1.347,54.86],[-1.321,54.838],[-1.329,54.838],[-1.302,54.768],[-1.281,54.753],[-1.241,54.723],[-1.241,54.723],[-1.176,54.698],[-1.174,54.692],[-1.174,54.692],[-1.196,54.699],[-1.188,54.693],[-1.189,54.692],[-1.192,54.693],[-1.194,54.686],[-1.199,54.681],[-1.176,54.653],[-1.158,54.648],[-1.173,54.634],[-1.188,54.633],[-1.192,54.629],[-1.201,54.623],[-1.173,54.622],[-1.168,54.629],[-1.16,54.611],[-1.186,54.591],[-1.188,54.59],[-1.198,54.582],[-1.16,54.605],[-1.147,54.599],[-1.158,54.605],[-1.152,54.615],[-1.132,54.609],[-1.151,54.615],[-1.154,54.628],[-1.135,54.63],[-1.137,54.643],[-1.126,54.638],[-1.113,54.628],[-1.072,54.62],[-1.053,54.616],[-1.04,54.611],[-1.037,54.608],[-1.027,54.605],[-1.001,54.593],[-0.961,54.585],[-0.947,54.587],[-0.936,54.588],[-0.898,54.571],[-0.853,54.572],[-0.844,54.57],[-0.794,54.558],[-0.792,54.558],[-0.8,54.551],[-0.827,54.549],[-0.849,54.53],[-0.849,54.488],[-0.881,54.497],[-0.953,54.488],[-1.003,54.503],[-1.037,54.494],[-1.095,54.507],[-1.118,54.498],[-1.146,54.503],[-1.235,54.51],[-1.257,54.501],[-1.257,54.487],[-1.281,54.491],[-1.3,54.476],[-1.344,54.464],[-1.345,54.472],[-1.364,54.466],[-1.373,54.472],[-1.381,54.494],[-1.395,54.486],[-1.407,54.494],[-1.413,54.477],[-1.432,54.479],[-1.435,54.487],[-1.459,54.504],[-1.475,54.5],[-1.458,54.493],[-1.462,54.451],[-1.475,54.474],[-1.499,54.475],[-1.492,54.486],[-1.511,54.475],[-1.514,54.484],[-1.529,54.485],[-1.52,54.471],[-1.546,54.471],[-1.555,54.485],[-1.583,54.497],[-1.579,54.505],[-1.592,54.504],[-1.581,54.513],[-1.602,54.51],[-1.611,54.52],[-1.633,54.514],[-1.634,54.525],[-1.655,54.525],[-1.658,54.535],[-1.697,54.536],[-1.721,54.542],[-1.733,54.528],[-1.78,54.532],[-1.776,54.507],[-1.793,54.484],[-1.839,54.508],[-1.858,54.504],[-1.859,54.482],[-1.943,54.453],[-1.97,54.452],[-1.997,54.467],[-2.045,54.475],[-2.043,54.484],[-2.117,54.462],[-2.17,54.458],[-2.159,54.472],[-2.172,54.532],[-2.198,54.533],[-2.209,54.552],[-2.305,54.596],[-2.325,54.632],[-2.288,54.65],[-2.293,54.664],[-2.327,54.671],[-2.352,54.686],[-2.356,54.698],[-2.326,54.727],[-2.312,54.791],[-2.327,54.805],[-2.348,54.807],[-2.39,54.832],[-2.412,54.856],[-2.423,54.843],[-2.461,54.834],[-2.495,54.81],[-2.523,54.806],[-2.558,54.817],[-2.583,54.846],[-2.573,54.854],[-2.605,54.884],[-2.576,54.897],[-2.566,54.919],[-2.545,54.929],[-2.568,54.941],[-2.568,54.958],[-2.596,54.963],[-2.601,54.971],[-2.573,54.988],[-2.573,55.016],[-2.483,55.04],[-2.504,55.062],[-2.486,55.082],[-2.503,55.091],[-2.562,55.083],[-2.568,55.096],[-2.594,55.105],[-2.599,55.125],[-2.657,55.136],[-2.677,55.155],[-2.675,55.176],[-2.69,55.189],[-2.667,55.222],[-2.631,55.224],[-2.63,55.245],[-2.611,55.247],[-2.647,55.26],[-2.627,55.262],[-2.609,55.283],[-2.573,55.297],[-2.559,55.318],[-2.52,55.323],[-2.475,55.355],[-2.415,55.359],[-2.399,55.348],[-2.379,55.349],[-2.338,55.367],[-2.346,55.373],[-2.33,55.381],[-2.345,55.399],[-2.336,55.408],[-2.313,55.407],[-2.261,55.433],[-2.231,55.428],[-2.195,55.445],[-2.188,55.462],[-2.166,55.468],[-2.201,55.475],[-2.203,55.49],[-2.229,55.51],[-2.24,55.556],[-2.289,55.58],[-2.289,55.604],[-2.316,55.62],[-2.309,55.629],[-2.324,55.626],[-2.336,55.632],[-2.306,55.647],[-2.234,55.641],[-2.248,55.652],[-2.218,55.664],[-2.219,55.676],[-2.167,55.706],[-2.177,55.719],[-2.151,55.723],[-2.144,55.739],[-2.118,55.739],[-2.108,55.76],[-2.086,55.762],[-2.086,55.793],[-2.034,55.811],[-2.034,55.811],[-2.002,55.781],[-1.989,55.769]]]]}},{"type":"Feature","properties":{"code":"E12000002","name":"North West"},"geometry":{"type":"MultiPolygon","coordinates":[[[[-3.243,54.099],[-3.252,54.096],[-3.243,54.098],[-3.247,54.092],[-3.224,54.082],[-3.221,54.08],[-3.224,54.076],[-3.227,54.072],[-3.224,54.07],[-3.21,54.065],[-3.205,54.052],[-3.179,54.055],[-3.174,54.048],[-3.173,54.055],[-3.173,54.047],[-3.21,54.048],[-3.224,54.062],[-3.269,54.107],[-3.276,54.143],[-3.252,54.15],[-3.267,54.142],[-3.246,54.11],[-3.243,54.099]]],[[[-2.568,55.096],[-2.562,55.083],[-2.503,55.091],[-2.486,55.082],[-2.504,55.062],[-2.483,55.04],[-2.573,55.016],[-2.573,54.988],[-2.601,54.971],[-2.596,54.963],[-2.568,54.958],[-2.568,54.941],[-2.545,54.929],[-2.566,54.919],[-2.576,54.897],[-2.605,54.884],[-2.573,54.854],[-2.583,54.846],[-2.558,54.817],[-2.523,54.806],[-2.495,54.81],[-2.461,54.834],[-2.423,54.843],[-2.412,54.856],[-2.39,54.832],[-2.348,54.807],[-2.327,54.805],[-2.312,54.791],[-2.326,54.727],[-2.356,54.698],[-2.352,54.686],[-2.327,54.671],[-2.293,54.664],[-2.288,54.65],[-2.325,54.632],[-2.305,54.596],[-2.209,54.552],[-2.198,54.533],[-2.172,54.532],[-2.159,54.472],[-2.17,54.458],[-2.178,54.462],[-2.189,54.449],[-2.25,54.452],[-2.293,54.439],[-2.308,54.42],[-2.305,54.397],[-2.292,54.391],[-2.297,54.377],[-2.317,54.376],[-2.345,54.36],[-2.368,54.356],[-2.31,54.324],[-2.323,54.311],[-2.317,54.287],[-2.326,54.28],[-2.315,54.27],[-2.326,54.241],[-2.348,54.238],[-2.362,54.25],[-2.373,54.24],[-2.397,54.239],[-2.406,54.225],[-2.461,54.227],[-2.534,54.158],[-2.561,54.153],[-2.565,54.127],[-2.524,54.095],[-2.51,54.095],[-2.464,54.075],[-2.47,54.046],[-2.426,54.038],[-2.374,54.049],[-2.357,54.019],[-2.34,54.009],[-2.352,54.011],[-2.352,53.995],[-2.34,53.989],[-2.319,53.994],[-2.295,53.974],[-2.23,53.982],[-2.221,53.978],[-2.232,53.971],[-2.226,53.961],[-2.196,53.97],[-2.184,53.952],[-2.182,53.935],[-2.132,53.927],[-2.113,53.916],[-2.103,53.891],[-2.081,53.876],[-2.09,53.868],[-2.046,53.85],[-2.047,53.83],[-2.061,53.826],[-2.112,53.806],[-2.128,53.799],[-2.125,53.788],[-2.136,53.78],[-2.131,53.752],[-2.173,53.723],[-2.146,53.682],[-2.142,53.678],[-2.134,53.686],[-2.118,53.671],[-2.093,53.67],[-2.051,53.684],[-2.027,53.624],[-2.023,53.616],[-2.009,53.617],[-1.943,53.562],[-1.913,53.552],[-1.91,53.538],[-1.927,53.521],[-1.922,53.51],[-1.951,53.504],[-1.963,53.51],[-1.988,53.481],[-1.986,53.455],[-2.008,53.442],[-2.004,53.436],[-2.014,53.44],[-2.026,53.43],[-2.014,53.416],[-1.992,53.415],[-2.005,53.386],[-2.034,53.376],[-2.031,53.37],[-2.007,53.355],[-2.009,53.261],[-1.975,53.231],[-1.99,53.223],[-1.987,53.214],[-2.002,53.193],[-2.046,53.193],[-2.07,53.172],[-2.112,53.169],[-2.14,53.184],[-2.141,53.157],[-2.156,53.16],[-2.211,53.116],[-2.247,53.09],[-2.253,53.094],[-2.293,53.078],[-2.318,53.081],[-2.348,53.056],[-2.381,53.052],[-2.384,53.026],[-2.37,53.015],[-2.383,53.008],[-2.381,52.998],[-2.437,52.986],[-2.435,52.97],[-2.481,52.959],[-2.521,52.974],[-2.53,52.947],[-2.561,52.965],[-2.586,52.955],[-2.598,52.963],[-2.595,52.98],[-2.633,52.997],[-2.675,52.986],[-2.699,52.995],[-2.727,52.983],[-2.76,52.986],[-2.768,52.995],[-2.803,52.99],[-2.836,52.997],[-2.844,53.018],[-2.861,53.023],[-2.856,53.037],[-2.87,53.045],[-2.859,53.054],[-2.873,53.059],[-2.861,53.061],[-2.882,53.074],[-2.876,53.082],[-2.902,53.092],[-2.881,53.122],[-2.91,53.113],[-2.964,53.133],[-2.979,53.151],[-2.995,53.154],[-2.928,53.171],[-2.922,53.189],[-2.998,53.236],[-3.036,53.252],[-3.086,53.257],[-3.086,53.257],[-3.107,53.272],[-3.107,53.272],[-3.089,53.268],[-3.086,53.272],[-3.11,53.277],[-3.078,53.28],[-3.108,53.278],[-3.103,53.28],[-3.099,53.28],[-3.089,53.286],[-3.102,53.281],[-3.107,53.282],[-3.097,53.289],[-3.11,53.283],[-3.12,53.289],[-3.105,53.292],[-3.123,53.289],[-3.118,53.292],[-3.117,53.293],[-3.117,53.293],[-3.116,53.293],[-3.114,53.294],[-3.114,53.294],[-3.096,53.294],[-3.109,53.297],[-3.109,53.297],[-3.113,53.295],[-3.124,53.296],[-3.116,53.301],[-3.127,53.294],[-3.138,53.298],[-3.134,53.308],[-3.133,53.3],[-3.124,53.3],[-3.127,53.301],[-3.131,53.307],[-3.128,53.305],[-3.129,53.306],[-3.107,53.302],[-3.127,53.306],[-3.113,53.309],[-3.121,53.312],[-3.126,53.314],[-3.119,53.316],[-3.129,53.314],[-3.123,53.317],[-3.136,53.316],[-3.136,53.328],[-3.106,53.314],[-3.204,53.383],[-3.178,53.4],[-3.041,53.443],[-3.003,53.375],[-2.934,53.313],[-2.929,53.308],[-2.929,53.308],[-2.902,53.295],[-2.889,53.29],[-2.901,53.297],[-2.856,53.292],[-2.857,53.287],[-2.84,53.299],[-2.846,53.307],[-2.816,53.306],[-2.789,53.295],[-2.753,53.315],[-2.752,53.315],[-2.752,53.315],[-2.763,53.328],[-2.754,53.343],[-2.719,53.345],[-2.699,53.357],[-2.679,53.355],[-2.675,53.354],[-2.691,53.361],[-2.693,53.362],[-2.734,53.348],[-2.764,53.355],[-2.759,53.35],[-2.778,53.333],[-2.784,53.336],[-2.778,53.329],[-2.789,53.323],[-2.827,53.332],[-2.828,53.331],[-2.854,53.327],[-2.878,53.334],[-2.903,53.346],[-2.975,53.379],[-3.002,53.41],[-3.009,53.438],[-3.009,53.438],[-3.027,53.453],[-3.026,53.454],[-3.039,53.463],[-3.041,53.465],[-3.056,53.492],[-3.064,53.505],[-3.063,53.53],[-3.068,53.52],[-3.086,53.525],[-3.102,53.537],[-3.104,53.554],[-3.059,53.621],[-3.006,53.665],[-3.01,53.672],[-3.014,53.679],[-2.983,53.683],[-2.987,53.689],[-2.978,53.686],[-2.967,53.698],[-2.972,53.692],[-2.96,53.692],[-2.961,53.686],[-2.954,53.692],[-2.957,53.683],[-2.946,53.679],[-2.95,53.691],[-2.95,53.692],[-2.95,53.692],[-2.95,53.692],[-2.962,53.694],[-2.954,53.695],[-2.954,53.695],[-2.955,53.696],[-2.955,53.697],[-2.956,53.698],[-2.937,53.695],[-2.951,53.7],[-2.937,53.702],[-2.955,53.704],[-2.944,53.708],[-2.932,53.7],[-2.926,53.705],[-2.948,53.712],[-2.938,53.725],[-2.914,53.711],[-2.929,53.724],[-2.915,53.726],[-2.911,53.727],[-2.866,53.733],[-2.86,53.734],[-2.845,53.725],[-2.831,53.717],[-2.829,53.716],[-2.828,53.715],[-2.827,53.714],[-2.828,53.716],[-2.83,53.717],[-2.832,53.72],[-2.835,53.724],[-2.821,53.73],[-2.836,53.725],[-2.843,53.732],[-2.836,53.737],[-2.845,53.734],[-2.845,53.73],[-2.855,53.735],[-2.81,53.747],[-2.804,53.749],[-2.794,53.752],[-2.794,53.752],[-2.794,53.752],[-2.856,53.738],[-2.859,53.751],[-2.857,53.738],[-2.899,53.733],[-2.911,53.733],[-2.934,53.732],[-2.953,53.733],[-2.945,53.736],[-2.976,53.734],[-3.039,53.747],[-3.057,53.777],[-3.057,53.777],[-3.05,53.852],[-3.048,53.874],[-3.048,53.876],[-3.05,53.92],[-3.008,53.929],[-3.009,53.901],[-3.0,53.929],[-2.925,53.95],[-2.916,53.947],[-2.911,53.946],[-2.916,53.946],[-2.93,53.945],[-2.916,53.941],[-2.906,53.938],[-2.881,53.943],[-2.88,53.943],[-2.881,53.944],[-2.882,53.946],[-2.882,53.947],[-2.864,53.953],[-2.887,53.958],[-2.861,53.955],[-2.869,53.96],[-2.857,53.958],[-2.862,53.965],[-2.836,53.955],[-2.854,53.965],[-2.836,53.964],[-2.872,53.97],[-2.879,53.979],[-2.856,54.0],[-2.823,53.995],[-2.833,53.999],[-2.835,54.011],[-2.853,54.006],[-2.845,54.015],[-2.86,54.004],[-2.871,54.014],[-2.865,54.005],[-2.878,54.006],[-2.881,53.989],[-2.887,54.002],[-2.886,53.991],[-2.9,53.992],[-2.904,54.022],[-2.917,54.028],[-2.924,54.031],[-2.922,54.032],[-2.921,54.033],[-2.912,54.034],[-2.919,54.034],[-2.918,54.034],[-2.906,54.039],[-2.882,54.072],[-2.87,54.076],[-2.847,54.078],[-2.819,54.089],[-2.814,54.095],[-2.821,54.089],[-2.827,54.1],[-2.78,54.136],[-2.798,54.127],[-2.802,54.143],[-2.81,54.132],[-2.825,54.14],[-2.828,54.148],[-2.811,54.155],[-2.828,54.153],[-2.838,54.174],[-2.838,54.174],[-2.864,54.183],[-2.864,54.192],[-2.843,54.206],[-2.887,54.199],[-2.902,54.189],[-2.896,54.181],[-2.911,54.18],[-2.899,54.176],[-2.92,54.166],[-2.922,54.165],[-2.92,54.165],[-2.908,54.165],[-2.92,54.155],[-2.925,54.15],[-3.0,54.155],[-2.989,54.179],[-3.006,54.172],[-3.005,54.18],[-3.01,54.177],[-3.039,54.197],[-3.023,54.192],[-3.035,54.196],[-3.033,54.211],[-3.033,54.213],[-3.034,54.211],[-3.064,54.186],[-3.061,54.162],[-3.106,54.119],[-3.149,54.094],[-3.172,54.082],[-3.151,54.065],[-3.171,54.08],[-3.178,54.075],[-3.174,54.083],[-3.192,54.103],[-3.215,54.098],[-3.22,54.09],[-3.225,54.094],[-3.242,54.109],[-3.237,54.155],[-3.249,54.155],[-3.258,54.166],[-3.227,54.175],[-3.217,54.177],[-3.223,54.188],[-3.215,54.186],[-3.213,54.207],[-3.206,54.21],[-3.202,54.211],[-3.202,54.211],[-3.202,54.212],[-3.203,54.212],[-3.203,54.212],[-3.203,54.212],[-3.18,54.239],[-3.198,54.229],[-3.21,54.254],[-3.229,54.26],[-3.228,54.278],[-3.23,54.271],[-3.23,54.27],[-3.234,54.26],[-3.23,54.257],[-3.223,54.252],[-3.229,54.25],[-3.244,54.246],[-3.229,54.249],[-3.228,54.249],[-3.226,54.24],[-3.229,54.238],[-3.266,54.213],[-3.254,54.21],[-3.251,54.216],[-3.245,54.209],[-3.239,54.203],[-3.254,54.192],[-3.288,54.197],[-3.298,54.189],[-3.322,54.19],[-3.342,54.208],[-3.394,54.254],[-3.421,54.285],[-3.424,54.338],[-3.41,54.35],[-3.417,54.349],[-3.435,54.343],[-3.478,54.386],[-3.503,54.411],[-3.543,54.441],[-3.618,54.496],[-3.638,54.513],[-3.613,54.525],[-3.609,54.53],[-3.608,54.531],[-3.605,54.535],[-3.591,54.552],[-3.587,54.562],[-3.585,54.565],[-3.582,54.575],[-3.573,54.601],[-3.566,54.612],[-3.58,54.652],[-3.572,54.651],[-3.551,54.648],[-3.544,54.647],[-3.551,54.648],[-3.571,54.651],[-3.552,54.667],[-3.519,54.693],[-3.514,54.707],[-3.508,54.717],[-3.494,54.713],[-3.507,54.717],[-3.507,54.718],[-3.458,54.746],[-3.437,54.759],[-3.438,54.802],[-3.4,54.867],[-3.367,54.891],[-3.338,54.9],[-3.286,54.878],[-3.287,54.891],[-3.275,54.888],[-3.262,54.895],[-3.264,54.889],[-3.25,54.901],[-3.252,54.911],[-3.272,54.9],[-3.309,54.912],[-3.314,54.92],[-3.304,54.928],[-3.285,54.942],[-3.265,54.943],[-3.269,54.937],[-3.25,54.945],[-3.232,54.953],[-3.204,54.954],[-3.153,54.932],[-3.138,54.929],[-3.119,54.926],[-3.119,54.926],[-3.119,54.926],[-3.119,54.925],[-3.084,54.93],[-3.084,54.93],[-3.119,54.935],[-3.125,54.944],[-3.114,54.941],[-3.122,54.945],[-3.114,54.947],[-3.127,54.951],[-3.096,54.946],[-3.104,54.949],[-3.117,54.956],[-3.106,54.951],[-3.112,54.958],[-3.085,54.965],[-3.063,54.983],[-3.06,54.985],[-3.05,54.984],[-3.048,54.983],[-3.052,54.99],[-3.044,54.999],[-3.049,55.009],[-3.026,55.036],[-3.053,55.047],[-3.051,55.053],[-2.959,55.049],[-2.936,55.06],[-2.94,55.069],[-2.897,55.078],[-2.886,55.095],[-2.859,55.108],[-2.828,55.125],[-2.826,55.138],[-2.785,55.142],[-2.703,55.173],[-2.69,55.189],[-2.675,55.176],[-2.677,55.155],[-2.657,55.136],[-2.599,55.125],[-2.594,55.105],[-2.568,55.096]]]]}},{"type":"Feature","properties":{"code":"E12000003","name":"Yorkshire and The Humber"},"geometry":{"type":"MultiPolygon","coordinates":[[[[-0.521,53.685],[-0.536,53.681],[-0.554,53.69],[-0.521,53.685]]],[[[-0.765,54.548],[-0.743,54.528],[-0.735,54.53],[-0.713,54.533],[-0.699,54.527],[-0.693,54.521],[-0.683,54.52],[-0.682,54.52],[-0.67,54.501],[-0.624,54.495],[-0.61,54.494],[-0.574,54.481],[-0.554,54.47],[-0.521,54.446],[-0.533,54.433],[-0.528,54.425],[-0.529,54.425],[-0.528,54.424],[-0.524,54.417],[-0.512,54.414],[-0.504,54.408],[-0.498,54.41],[-0.491,54.408],[-0.464,54.389],[-0.462,54.386],[-0.461,54.386],[-0.433,54.34],[-0.417,54.331],[-0.407,54.293],[-0.385,54.288],[-0.385,54.288],[-0.397,54.275],[-0.369,54.248],[-0.366,54.248],[-0.366,54.247],[-0.355,54.244],[-0.265,54.217],[-0.277,54.212],[-0.281,54.212],[-0.281,54.211],[-0.284,54.21],[-0.282,54.204],[-0.277,54.186],[-0.245,54.166],[-0.213,54.158],[-0.213,54.158],[-0.164,54.146],[-0.097,54.129],[-0.081,54.119],[-0.076,54.116],[-0.104,54.104],[-0.166,54.099],[-0.167,54.099],[-0.177,54.09],[-0.192,54.08],[-0.2,54.068],[-0.212,54.057],[-0.213,54.023],[-0.213,54.007],[-0.174,53.934],[-0.156,53.902],[-0.147,53.893],[-0.147,53.893],[-0.146,53.892],[-0.092,53.841],[-0.037,53.789],[0.117,53.663],[0.117,53.662],[0.119,53.658],[0.146,53.608],[0.146,53.604],[0.145,53.599],[0.142,53.596],[0.113,53.575],[0.109,53.572],[0.109,53.572],[0.113,53.575],[0.142,53.597],[0.145,53.605],[0.142,53.609],[0.115,53.623],[0.081,53.64],[0.032,53.649],[-0.053,53.629],[-0.056,53.629],[-0.103,53.635],[-0.144,53.662],[-0.184,53.689],[-0.214,53.709],[-0.227,53.708],[-0.23,53.734],[-0.243,53.729],[-0.244,53.737],[-0.244,53.738],[-0.247,53.741],[-0.245,53.737],[-0.25,53.733],[-0.251,53.734],[-0.287,53.743],[-0.331,53.738],[-0.419,53.72],[-0.419,53.72],[-0.486,53.714],[-0.543,53.708],[-0.583,53.727],[-0.63,53.734],[-0.637,53.729],[-0.619,53.731],[-0.672,53.722],[-0.696,53.704],[-0.743,53.707],[-0.712,53.702],[-0.699,53.698],[-0.71,53.696],[-0.7,53.696],[-0.699,53.69],[-0.698,53.685],[-0.692,53.679],[-0.685,53.673],[-0.695,53.695],[-0.64,53.71],[-0.611,53.714],[-0.586,53.693],[-0.524,53.677],[-0.487,53.692],[-0.471,53.698],[-0.443,53.697],[-0.443,53.689],[-0.443,53.697],[-0.395,53.7],[-0.39,53.689],[-0.388,53.702],[-0.294,53.714],[-0.252,53.681],[-0.238,53.664],[-0.203,53.642],[-0.201,53.64],[-0.201,53.64],[-0.187,53.632],[-0.094,53.581],[-0.079,53.577],[-0.065,53.583],[-0.062,53.583],[-0.015,53.552],[-0.004,53.547],[-0.009,53.556],[0.015,53.528],[-0.015,53.515],[-0.065,53.519],[-0.075,53.489],[-0.095,53.486],[-0.09,53.478],[-0.108,53.47],[-0.082,53.451],[-0.12,53.434],[-0.132,53.436],[-0.149,53.447],[-0.154,53.466],[-0.182,53.469],[-0.189,53.485],[-0.211,53.486],[-0.204,53.512],[-0.211,53.532],[-0.22,53.533],[-0.189,53.566],[-0.195,53.572],[-0.223,53.568],[-0.235,53.586],[-0.251,53.585],[-0.248,53.594],[-0.292,53.613],[-0.309,53.614],[-0.301,53.595],[-0.336,53.559],[-0.417,53.563],[-0.429,53.575],[-0.467,53.549],[-0.491,53.546],[-0.501,53.537],[-0.431,53.546],[-0.408,53.532],[-0.405,53.518],[-0.488,53.505],[-0.487,53.48],[-0.472,53.475],[-0.552,53.46],[-0.63,53.458],[-0.624,53.513],[-0.74,53.52],[-0.752,53.501],[-0.768,53.499],[-0.772,53.479],[-0.784,53.477],[-0.784,53.463],[-0.797,53.455],[-0.872,53.466],[-0.916,53.46],[-0.92,53.466],[-0.9,53.475],[-0.936,53.503],[-0.953,53.484],[-0.986,53.472],[-0.996,53.437],[-1.014,53.426],[-1.031,53.425],[-1.031,53.431],[-1.08,53.427],[-1.116,53.407],[-1.116,53.397],[-1.135,53.39],[-1.131,53.376],[-1.146,53.369],[-1.139,53.356],[-1.163,53.357],[-1.157,53.345],[-1.141,53.347],[-1.139,53.341],[-1.2,53.311],[-1.203,53.304],[-1.231,53.309],[-1.244,53.302],[-1.282,53.309],[-1.296,53.315],[-1.289,53.326],[-1.299,53.333],[-1.325,53.329],[-1.338,53.316],[-1.387,53.318],[-1.387,53.335],[-1.411,53.342],[-1.421,53.335],[-1.442,53.337],[-1.46,53.331],[-1.455,53.322],[-1.468,53.317],[-1.502,53.318],[-1.537,53.305],[-1.562,53.306],[-1.562,53.316],[-1.581,53.312],[-1.585,53.322],[-1.599,53.311],[-1.609,53.323],[-1.628,53.316],[-1.633,53.321],[-1.612,53.343],[-1.591,53.346],[-1.664,53.367],[-1.654,53.392],[-1.705,53.405],[-1.709,53.417],[-1.74,53.421],[-1.745,53.462],[-1.801,53.481],[-1.801,53.481],[-1.801,53.481],[-1.796,53.503],[-1.822,53.521],[-1.842,53.52],[-1.873,53.54],[-1.894,53.534],[-1.91,53.538],[-1.913,53.552],[-1.943,53.562],[-2.009,53.617],[-2.023,53.616],[-2.027,53.624],[-2.051,53.684],[-2.093,53.67],[-2.118,53.671],[-2.134,53.686],[-2.142,53.678],[-2.146,53.682],[-2.173,53.723],[-2.131,53.752],[-2.136,53.78],[-2.125,53.788],[-2.128,53.799],[-2.112,53.806],[-2.061,53.826],[-2.047,53.83],[-2.046,53.85],[-2.09,53.868],[-2.081,53.876],[-2.103,53.891],[-2.113,53.916],[-2.132,53.927],[-2.182,53.935],[-2.184,53.952],[-2.196,53.97],[-2.226,53.961],[-2.232,53.971],[-2.221,53.978],[-2.23,53.982],[-2.295,53.974],[-2.319,53.994],[-2.34,53.989],[-2.352,53.995],[-2.352,54.011],[-2.34,54.009],[-2.357,54.019],[-2.374,54.049],[-2.426,54.038],[-2.47,54.046],[-2.464,54.075],[-2.51,54.095],[-2.524,54.095],[-2.565,54.127],[-2.561,54.153],[-2.534,54.158],[-2.461,54.227],[-2.406,54.225],[-2.397,54.239],[-2.373,54.24],[-2.362,54.25],[-2.348,54.238],[-2.326,54.241],[-2.315,54.27],[-2.326,54.28],[-2.317,54.287],[-2.323,54.311],[-2.31,54.324],[-2.368,54.356],[-2.345,54.36],[-2.317,54.376],[-2.297,54.377],[-2.292,54.391],[-2.305,54.397],[-2.308,54.42],[-2.293,54.439],[-2.25,54.452],[-2.189,54.449],[-2.178,54.462],[-2.17,54.458],[-2.117,54.462],[-2.043,54.484],[-2.045,54.475],[-1.997,54.467],[-1.97,54.452],[-1.943,54.453],[-1.859,54.482],[-1.858,54.504],[-1.839,54.508],[-1.793,54.484],[-1.776,54.507],[-1.78,54.532],[-1.733,54.528],[-1.721,54.542],[-1.697,54.536],[-1.658,54.535],[-1.655,54.525],[-1.634,54.525],[-1.633,54.514],[-1.611,54.52],[-1.602,54.51],[-1.581,54.513],[-1.592,54.504],[-1.579,54.505],[-1.583,54.497],[-1.555,54.485],[-1.546,54.471],[-1.52,54.471],[-1.529,54.485],[-1.514,54.484],[-1.511,54.475],[-1.492,54.486],[-1.499,54.475],[-1.475,54.474],[-1.462,54.451],[-1.458,54.493],[-1.475,54.5],[-1.459,54.504],[-1.435,54.487],[-1.432,54.479],[-1.413,54.477],[-1.407,54.494],[-1.395,54.486],[-1.381,54.494],[-1.373,54.472],[-1.364,54.466],[-1.345,54.472],[-1.344,54.464],[-1.3,54.476],[-1.281,54.491],[-1.257,54.487],[-1.257,54.501],[-1.235,54.51],[-1.146,54.503],[-1.118,54.498],[-1.095,54.507],[-1.037,54.494],[-1.003,54.503],[-0.953,54.488],[-0.881,54.497],[-0.849,54.488],[-0.849,54.53],[-0.827,54.549],[-0.8,54.551],[-0.792,54.558],[-0.785,54.558],[-0.767,54.55],[-0.765,54.548]]]]}},{"type":"Feature","properties":{"code":"E12000004","name":"East Midlands"},"geometry":{"type":"Polygon","coordinates":[[[-0.248,53.594],[-0.251,53.585],[-0.235,53.586],[-0.223,53.568],[-0.195,53.572],[-0.189,53.566],[-0.22,53.533],[-0.211,53.532],[-0.204,53.512],[-0.211,53.486],[-0.189,53.485],[-0.182,53.469],[-0.154,53.466],[-0.149,53.447],[-0.132,53.436],[-0.12,53.434],[-0.082,53.451],[-0.108,53.47],[-0.09,53.478],[-0.095,53.486],[-0.075,53.489],[-0.065,53.519],[-0.015,53.515],[0.015,53.528],[0.018,53.525],[0.034,53.522],[0.021,53.518],[0.035,53.519],[0.037,53.511],[0.036,53.522],[0.041,53.508],[0.044,53.514],[0.061,53.512],[0.027,53.53],[0.077,53.513],[0.087,53.516],[0.084,53.499],[0.091,53.492],[0.101,53.495],[0.101,53.485],[0.108,53.484],[0.115,53.484],[0.109,53.489],[0.104,53.492],[0.109,53.49],[0.121,53.484],[0.109,53.49],[0.103,53.493],[0.109,53.494],[0.113,53.495],[0.109,53.504],[0.109,53.505],[0.109,53.505],[0.129,53.499],[0.135,53.485],[0.143,53.485],[0.139,53.495],[0.147,53.493],[0.166,53.477],[0.174,53.471],[0.165,53.474],[0.179,53.443],[0.19,53.438],[0.175,53.437],[0.191,53.437],[0.211,53.417],[0.189,53.417],[0.213,53.417],[0.213,53.416],[0.212,53.416],[0.206,53.41],[0.212,53.416],[0.214,53.409],[0.214,53.416],[0.231,53.402],[0.261,53.359],[0.274,53.332],[0.322,53.266],[0.356,53.192],[0.349,53.114],[0.349,53.112],[0.338,53.102],[0.338,53.101],[0.334,53.087],[0.335,53.094],[0.319,53.092],[0.319,53.091],[0.299,53.091],[0.316,53.089],[0.288,53.076],[0.282,53.08],[0.287,53.075],[0.257,53.064],[0.269,53.063],[0.258,53.056],[0.249,53.052],[0.243,53.057],[0.249,53.052],[0.236,53.053],[0.245,53.049],[0.2,53.033],[0.2,53.033],[0.151,53.008],[0.082,52.941],[0.08,52.939],[0.072,52.932],[0.078,52.932],[0.053,52.916],[0.038,52.906],[0.038,52.905],[0.027,52.898],[0.038,52.905],[0.037,52.903],[0.041,52.907],[0.069,52.919],[0.069,52.908],[0.056,52.903],[0.073,52.906],[0.077,52.898],[0.08,52.898],[0.145,52.885],[0.136,52.875],[0.15,52.882],[0.176,52.874],[0.214,52.829],[0.197,52.83],[0.215,52.828],[0.215,52.823],[0.204,52.782],[0.217,52.821],[0.245,52.822],[0.266,52.814],[0.245,52.784],[0.272,52.773],[0.186,52.735],[0.172,52.738],[0.133,52.739],[0.089,52.724],[0.064,52.727],[0.044,52.714],[0.049,52.681],[0.022,52.665],[-0.031,52.662],[-0.064,52.675],[-0.088,52.667],[-0.102,52.672],[-0.141,52.652],[-0.18,52.661],[-0.193,52.652],[-0.213,52.667],[-0.261,52.651],[-0.289,52.67],[-0.335,52.675],[-0.35,52.662],[-0.406,52.648],[-0.453,52.654],[-0.495,52.64],[-0.471,52.624],[-0.493,52.582],[-0.479,52.574],[-0.415,52.579],[-0.407,52.564],[-0.42,52.559],[-0.401,52.539],[-0.414,52.526],[-0.354,52.506],[-0.359,52.49],[-0.342,52.467],[-0.37,52.44],[-0.362,52.434],[-0.417,52.412],[-0.442,52.385],[-0.496,52.38],[-0.489,52.374],[-0.499,52.36],[-0.478,52.349],[-0.483,52.341],[-0.467,52.339],[-0.465,52.323],[-0.52,52.318],[-0.514,52.315],[-0.542,52.29],[-0.531,52.27],[-0.542,52.256],[-0.566,52.253],[-0.603,52.279],[-0.654,52.268],[-0.637,52.227],[-0.668,52.195],[-0.705,52.192],[-0.75,52.167],[-0.778,52.169],[-0.792,52.151],[-0.808,52.157],[-0.814,52.142],[-0.832,52.144],[-0.828,52.133],[-0.881,52.126],[-0.887,52.114],[-0.871,52.112],[-0.87,52.1],[-0.847,52.092],[-0.831,52.072],[-0.84,52.064],[-0.863,52.061],[-0.852,52.051],[-0.871,52.04],[-0.878,52.03],[-0.89,52.032],[-0.906,52.021],[-0.952,52.082],[-0.968,52.071],[-1.026,52.076],[-1.042,52.074],[-1.028,52.064],[-1.062,52.063],[-1.122,52.045],[-1.137,52.022],[-1.118,52.015],[-1.134,51.997],[-1.164,51.993],[-1.196,51.977],[-1.242,51.986],[-1.283,51.98],[-1.278,52.014],[-1.313,52.051],[-1.298,52.078],[-1.318,52.08],[-1.321,52.087],[-1.248,52.097],[-1.332,52.168],[-1.313,52.19],[-1.255,52.198],[-1.285,52.238],[-1.267,52.235],[-1.233,52.253],[-1.216,52.266],[-1.234,52.29],[-1.209,52.315],[-1.265,52.328],[-1.234,52.346],[-1.175,52.356],[-1.202,52.397],[-1.306,52.493],[-1.325,52.501],[-1.417,52.534],[-1.46,52.552],[-1.523,52.57],[-1.527,52.583],[-1.561,52.596],[-1.554,52.615],[-1.571,52.635],[-1.545,52.645],[-1.552,52.667],[-1.59,52.687],[-1.598,52.7],[-1.655,52.699],[-1.657,52.722],[-1.704,52.732],[-1.667,52.785],[-1.611,52.781],[-1.614,52.788],[-1.589,52.8],[-1.592,52.809],[-1.611,52.816],[-1.585,52.832],[-1.627,52.854],[-1.69,52.865],[-1.701,52.861],[-1.704,52.867],[-1.725,52.86],[-1.746,52.869],[-1.777,52.884],[-1.828,52.884],[-1.857,52.923],[-1.829,52.948],[-1.827,52.977],[-1.762,53.0],[-1.759,53.037],[-1.779,53.045],[-1.776,53.059],[-1.794,53.088],[-1.784,53.103],[-1.822,53.137],[-1.813,53.154],[-1.861,53.188],[-1.899,53.2],[-1.957,53.214],[-1.962,53.226],[-1.987,53.214],[-1.99,53.223],[-1.975,53.231],[-2.009,53.261],[-2.007,53.355],[-2.031,53.37],[-2.034,53.376],[-2.005,53.386],[-1.992,53.415],[-2.014,53.416],[-2.026,53.43],[-2.014,53.44],[-2.004,53.436],[-2.008,53.442],[-1.986,53.455],[-1.988,53.481],[-1.963,53.51],[-1.951,53.504],[-1.922,53.51],[-1.927,53.521],[-1.91,53.538],[-1.894,53.534],[-1.873,53.54],[-1.842,53.52],[-1.822,53.521],[-1.796,53.503],[-1.801,53.481],[-1.801,53.481],[-1.801,53.481],[-1.745,53.462],[-1.74,53.421],[-1.709,53.417],[-1.705,53.405],[-1.654,53.392],[-1.664,53.367],[-1.591,53.346],[-1.612,53.343],[-1.633,53.321],[-1.628,53.316],[-1.609,53.323],[-1.599,53.311],[-1.585,53.322],[-1.581,53.312],[-1.562,53.316],[-1.562,53.306],[-1.537,53.305],[-1.502,53.318],[-1.468,53.317],[-1.455,53.322],[-1.46,53.331],[-1.442,53.337],[-1.421,53.335],[-1.411,53.342],[-1.387,53.335],[-1.387,53.318],[-1.338,53.316],[-1.325,53.329],[-1.299,53.333],[-1.289,53.326],[-1.296,53.315],[-1.282,53.309],[-1.244,53.302],[-1.231,53.309],[-1.203,53.304],[-1.2,53.311],[-1.139,53.341],[-1.141,53.347],[-1.157,53.345],[-1.163,53.357],[-1.139,53.356],[-1.146,53.369],[-1.131,53.376],[-1.135,53.39],[-1.116,53.397],[-1.116,53.407],[-1.08,53.427],[-1.031,53.431],[-1.031,53.425],[-1.014,53.426],[-0.996,53.437],[-0.986,53.472],[-0.953,53.484],[-0.936,53.503],[-0.9,53.475],[-0.92,53.466],[-0.916,53.46],[-0.872,53.466],[-0.797,53.455],[-0.784,53.463],[-0.784,53.477],[-0.772,53.479],[-0.768,53.499],[-0.752,53.501],[-0.74,53.52],[-0.624,53.513],[-0.63,53.458],[-0.552,53.46],[-0.472,53.475],[-0.487,53.48],[-0.488,53.505],[-0.405,53.518],[-0.408,53.532],[-0.431,53.546],[-0.501,53.537],[-0.491,53.546],[-0.467,53.549],[-0.429,53.575],[-0.417,53.563],[-0.336,53.559],[-0.301,53.595],[-0.309,53.614],[-0.292,53.613],[-0.248,53.594]]]}},{"type":"Feature","properties":{"code":"E12000005","name":"West Midlands"},"geometry":{"type":"Polygon","coordinates":[[[-1.861,53.188],[-1.813,53.154],[-1.822,53.137],[-1.784,53.103],[-1.794,53.088],[-1.776,53.059],[-1.779,53.045],[-1.759,53.037],[-1.762,53.0],[-1.827,52.977],[-1.829,52.948],[-1.857,52.923],[-1.828,52.884],[-1.777,52.884],[-1.746,52.869],[-1.725,52.86],[-1.704,52.867],[-1.701,52.861],[-1.69,52.865],[-1.627,52.854],[-1.585,52.832],[-1.611,52.816],[-1.592,52.809],[-1.589,52.8],[-1.614,52.788],[-1.611,52.781],[-1.667,52.785],[-1.704,52.732],[-1.657,52.722],[-1.655,52.699],[-1.598,52.7],[-1.59,52.687],[-1.552,52.667],[-1.545,52.645],[-1.571,52.635],[-1.554,52.615],[-1.561,52.596],[-1.527,52.583],[-1.523,52.57],[-1.46,52.552],[-1.417,52.534],[-1.325,52.501],[-1.306,52.493],[-1.202,52.397],[-1.175,52.356],[-1.234,52.346],[-1.265,52.328],[-1.209,52.315],[-1.234,52.29],[-1.216,52.266],[-1.233,52.253],[-1.267,52.235],[-1.285,52.238],[-1.255,52.198],[-1.313,52.19],[-1.332,52.168],[-1.349,52.135],[-1.366,52.136],[-1.393,52.119],[-1.371,52.118],[-1.358,52.101],[-1.385,52.094],[-1.426,52.118],[-1.453,52.113],[-1.447,52.098],[-1.477,52.101],[-1.488,52.094],[-1.523,51.997],[-1.557,51.992],[-1.55,51.981],[-1.564,51.977],[-1.6,51.977],[-1.592,51.97],[-1.612,51.955],[-1.666,51.987],[-1.666,51.997],[-1.618,52.033],[-1.624,52.039],[-1.664,52.031],[-1.694,52.04],[-1.689,52.052],[-1.705,52.06],[-1.702,52.073],[-1.713,52.067],[-1.731,52.073],[-1.729,52.1],[-1.746,52.093],[-1.768,52.113],[-1.802,52.097],[-1.813,52.079],[-1.819,52.085],[-1.832,52.073],[-1.847,52.079],[-1.874,52.07],[-1.863,52.053],[-1.835,52.044],[-1.825,52.031],[-1.839,52.007],[-1.913,52.044],[-1.932,52.03],[-1.951,52.038],[-1.984,52.036],[-2.038,52.005],[-2.05,52.004],[-2.061,52.015],[-2.085,52.01],[-2.112,52.015],[-2.141,51.999],[-2.15,52.011],[-2.139,52.028],[-2.117,52.034],[-2.118,52.042],[-2.171,52.048],[-2.181,52.042],[-2.177,52.023],[-2.188,52.019],[-2.165,51.996],[-2.181,52.0],[-2.185,51.991],[-2.221,51.995],[-2.251,51.967],[-2.271,51.969],[-2.3,51.967],[-2.313,51.977],[-2.327,51.976],[-2.325,52.004],[-2.353,52.014],[-2.351,52.021],[-2.393,52.013],[-2.399,51.996],[-2.413,51.994],[-2.437,51.997],[-2.437,52.015],[-2.463,52.014],[-2.464,52.023],[-2.479,52.023],[-2.492,52.008],[-2.471,51.995],[-2.495,51.981],[-2.492,51.964],[-2.501,51.961],[-2.466,51.952],[-2.466,51.928],[-2.448,51.919],[-2.439,51.897],[-2.488,51.88],[-2.509,51.885],[-2.532,51.861],[-2.581,51.862],[-2.583,51.85],[-2.601,51.856],[-2.625,51.839],[-2.637,51.843],[-2.65,51.826],[-2.666,51.836],[-2.693,51.834],[-2.697,51.845],[-2.715,51.84],[-2.72,51.849],[-2.739,51.837],[-2.779,51.866],[-2.768,51.88],[-2.836,51.906],[-2.842,51.918],[-2.862,51.914],[-2.845,51.922],[-2.878,51.934],[-2.972,51.905],[-2.977,51.927],[-3.008,51.927],[-3.026,51.957],[-3.067,51.983],[-3.099,52.023],[-3.086,52.04],[-3.091,52.051],[-3.126,52.078],[-3.123,52.103],[-3.105,52.105],[-3.105,52.117],[-3.142,52.128],[-3.136,52.138],[-3.094,52.144],[-3.073,52.156],[-3.083,52.163],[-3.099,52.155],[-3.122,52.163],[-3.095,52.184],[-3.102,52.203],[-3.072,52.213],[-3.073,52.236],[-3.044,52.238],[-3.048,52.25],[-3.036,52.257],[-3.006,52.264],[-2.977,52.26],[-2.95,52.269],[-3.013,52.279],[-3.001,52.322],[-2.967,52.329],[-2.955,52.349],[-2.975,52.355],[-3.04,52.344],[-3.061,52.348],[-3.111,52.377],[-3.154,52.388],[-3.179,52.409],[-3.22,52.421],[-3.236,52.443],[-3.197,52.476],[-3.18,52.474],[-3.111,52.499],[-3.029,52.501],[-3.032,52.524],[-3.004,52.52],[-2.994,52.553],[-3.014,52.575],[-3.087,52.551],[-3.085,52.535],[-3.133,52.527],[-3.137,52.534],[-3.111,52.541],[-3.14,52.586],[-3.117,52.586],[-3.09,52.6],[-3.094,52.609],[-3.073,52.629],[-3.06,52.631],[-3.084,52.641],[-3.051,52.647],[-3.039,52.675],[-3.047,52.691],[-3.022,52.707],[-3.02,52.725],[-3.001,52.72],[-2.978,52.727],[-2.978,52.715],[-2.961,52.716],[-2.965,52.732],[-2.991,52.734],[-2.992,52.744],[-3.022,52.752],[-3.011,52.758],[-3.017,52.768],[-3.035,52.764],[-3.039,52.77],[-3.053,52.769],[-3.048,52.773],[-3.08,52.772],[-3.092,52.787],[-3.087,52.796],[-3.118,52.784],[-3.161,52.796],[-3.153,52.806],[-3.168,52.807],[-3.168,52.819],[-3.151,52.843],[-3.163,52.847],[-3.128,52.867],[-3.152,52.879],[-3.136,52.885],[-3.148,52.89],[-3.114,52.894],[-3.096,52.93],[-3.077,52.925],[-3.035,52.929],[-3.01,52.956],[-2.982,52.959],[-2.975,52.969],[-2.96,52.951],[-2.929,52.939],[-2.887,52.953],[-2.884,52.947],[-2.841,52.943],[-2.799,52.896],[-2.755,52.925],[-2.728,52.925],[-2.724,52.957],[-2.735,52.97],[-2.727,52.983],[-2.699,52.995],[-2.675,52.986],[-2.633,52.997],[-2.595,52.98],[-2.598,52.963],[-2.586,52.955],[-2.561,52.965],[-2.53,52.947],[-2.521,52.974],[-2.481,52.959],[-2.435,52.97],[-2.437,52.986],[-2.381,52.998],[-2.383,53.008],[-2.37,53.015],[-2.384,53.026],[-2.381,53.052],[-2.348,53.056],[-2.318,53.081],[-2.293,53.078],[-2.253,53.094],[-2.247,53.09],[-2.211,53.116],[-2.156,53.16],[-2.141,53.157],[-2.14,53.184],[-2.112,53.169],[-2.07,53.172],[-2.046,53.193],[-2.002,53.193],[-1.987,53.214],[-1.962,53.226],[-1.957,53.214],[-1.899,53.2],[-1.861,53.188]]]}},{"type":"Feature","properties":{"code":"E12000006","name":"East of England"},"geometry":{"type":"MultiPolygon","coordinates":[[[[0.646,51.539],[0.627,51.533],[0.627,51.533],[0.627,51.532],[0.626,51.532],[0.609,51.535],[0.624,51.536],[0.624,51.536],[0.627,51.537],[0.646,51.539]]],[[[0.837,51.585],[0.823,51.565],[0.808,51.586],[0.83,51.596],[0.837,51.585]]],[[[0.884,51.569],[0.866,51.559],[0.84,51.562],[0.826,51.564],[0.839,51.581],[0.84,51.582],[0.838,51.594],[0.867,51.595],[0.874,51.614],[0.887,51.615],[0.958,51.621],[0.93,51.592],[0.884,51.569]]],[[[0.788,51.722],[0.77,51.719],[0.755,51.725],[0.77,51.727],[0.788,51.722]]],[[[0.721,51.731],[0.726,51.717],[0.708,51.72],[0.721,51.731]]],[[[0.838,51.773],[0.856,51.768],[0.833,51.769],[0.838,51.773]]],[[[0.946,51.775],[0.902,51.774],[0.902,51.786],[0.925,51.796],[0.943,51.807],[0.966,51.809],[0.999,51.802],[1.0,51.793],[0.946,51.775]]],[[[1.222,51.872],[1.207,51.871],[1.219,51.878],[1.225,51.88],[1.222,51.872]]],[[[1.263,51.88],[1.264,51.873],[1.255,51.875],[1.263,51.88]]],[[[1.257,51.883],[1.245,51.869],[1.226,51.875],[1.23,51.881],[1.257,51.883]]],[[[1.234,51.894],[1.243,51.887],[1.232,51.887],[1.234,51.894]]],[[[0.912,52.964],[0.892,52.962],[0.902,52.966],[0.912,52.964]]],[[[0.905,52.968],[0.88,52.959],[0.887,52.963],[0.876,52.967],[0.886,52.964],[0.894,52.971],[0.905,52.968]]],[[[0.878,52.976],[0.884,52.965],[0.867,52.976],[0.872,52.969],[0.868,52.973],[0.855,52.967],[0.867,52.979],[0.878,52.976]]],[[[1.007,52.974],[1.01,52.974],[1.124,52.951],[1.272,52.936],[1.301,52.933],[1.36,52.91],[1.432,52.882],[1.56,52.815],[1.586,52.802],[1.675,52.743],[1.675,52.743],[1.698,52.724],[1.699,52.72],[1.737,52.647],[1.744,52.574],[1.74,52.574],[1.74,52.568],[1.733,52.557],[1.74,52.533],[1.74,52.532],[1.74,52.532],[1.764,52.482],[1.757,52.472],[1.758,52.477],[1.711,52.475],[1.756,52.471],[1.735,52.449],[1.735,52.448],[1.735,52.448],[1.732,52.428],[1.728,52.4],[1.703,52.36],[1.675,52.314],[1.672,52.314],[1.665,52.307],[1.65,52.3],[1.635,52.279],[1.634,52.278],[1.633,52.277],[1.623,52.189],[1.621,52.183],[1.58,52.089],[1.58,52.089],[1.58,52.087],[1.477,52.052],[1.5,52.062],[1.535,52.077],[1.542,52.079],[1.562,52.088],[1.567,52.091],[1.568,52.091],[1.561,52.088],[1.541,52.08],[1.518,52.076],[1.504,52.071],[1.501,52.071],[1.5,52.07],[1.451,52.044],[1.463,52.048],[1.463,52.047],[1.462,52.047],[1.432,52.007],[1.394,51.987],[1.395,51.999],[1.361,52.006],[1.391,51.989],[1.388,51.978],[1.345,51.957],[1.32,51.933],[1.316,51.951],[1.316,51.951],[1.284,51.965],[1.283,51.966],[1.282,51.969],[1.28,51.993],[1.205,52.014],[1.203,52.015],[1.183,52.021],[1.179,52.022],[1.166,52.03],[1.161,52.032],[1.159,52.032],[1.151,52.034],[1.149,52.034],[1.15,52.034],[1.167,52.023],[1.172,52.02],[1.178,52.017],[1.18,52.015],[1.204,52.001],[1.212,51.996],[1.267,51.988],[1.276,51.957],[1.243,51.961],[1.22,51.953],[1.2,51.954],[1.188,51.956],[1.164,51.971],[1.13,51.954],[1.086,51.959],[1.069,51.95],[1.066,51.949],[1.054,51.953],[1.062,51.946],[1.119,51.94],[1.17,51.948],[1.181,51.942],[1.199,51.941],[1.227,51.939],[1.246,51.948],[1.277,51.939],[1.291,51.949],[1.296,51.937],[1.297,51.936],[1.297,51.936],[1.285,51.937],[1.25,51.916],[1.253,51.915],[1.258,51.912],[1.252,51.902],[1.246,51.896],[1.251,51.902],[1.234,51.903],[1.226,51.904],[1.212,51.897],[1.228,51.891],[1.212,51.89],[1.199,51.885],[1.21,51.879],[1.209,51.878],[1.195,51.875],[1.178,51.871],[1.194,51.869],[1.212,51.866],[1.226,51.872],[1.232,51.855],[1.236,51.861],[1.249,51.862],[1.25,51.856],[1.253,51.864],[1.267,51.864],[1.269,51.852],[1.27,51.864],[1.269,51.864],[1.268,51.877],[1.286,51.876],[1.27,51.877],[1.264,51.886],[1.29,51.874],[1.291,51.873],[1.288,51.862],[1.266,51.843],[1.253,51.834],[1.232,51.818],[1.129,51.775],[1.055,51.77],[1.043,51.77],[1.018,51.801],[1.044,51.802],[1.06,51.812],[1.064,51.817],[1.068,51.821],[1.046,51.823],[1.063,51.818],[1.054,51.811],[1.013,51.805],[0.984,51.835],[1.021,51.835],[0.985,51.839],[0.984,51.841],[0.98,51.845],[0.978,51.847],[0.978,51.848],[0.978,51.847],[0.978,51.841],[0.977,51.836],[0.966,51.829],[0.982,51.817],[0.966,51.823],[0.962,51.833],[0.956,51.829],[0.943,51.822],[0.991,51.807],[0.96,51.81],[0.916,51.811],[0.921,51.805],[0.937,51.806],[0.922,51.804],[0.904,51.804],[0.899,51.793],[0.892,51.779],[0.866,51.793],[0.872,51.783],[0.849,51.787],[0.842,51.782],[0.83,51.789],[0.843,51.781],[0.843,51.781],[0.877,51.779],[0.877,51.779],[0.877,51.779],[0.891,51.767],[0.855,51.772],[0.837,51.774],[0.832,51.77],[0.853,51.765],[0.85,51.757],[0.862,51.763],[0.883,51.758],[0.856,51.744],[0.847,51.747],[0.853,51.742],[0.842,51.739],[0.792,51.745],[0.789,51.737],[0.777,51.744],[0.736,51.729],[0.714,51.738],[0.706,51.724],[0.699,51.726],[0.711,51.713],[0.747,51.711],[0.746,51.705],[0.769,51.708],[0.738,51.687],[0.757,51.691],[0.767,51.703],[0.772,51.704],[0.798,51.708],[0.793,51.718],[0.82,51.721],[0.852,51.713],[0.884,51.736],[0.895,51.743],[0.896,51.743],[0.927,51.746],[0.931,51.746],[0.949,51.729],[0.939,51.692],[0.947,51.687],[0.938,51.688],[0.947,51.685],[0.932,51.686],[0.949,51.683],[0.932,51.679],[0.946,51.677],[0.933,51.675],[0.946,51.676],[0.934,51.673],[0.944,51.674],[0.933,51.667],[0.942,51.664],[0.942,51.662],[0.934,51.633],[0.904,51.623],[0.888,51.622],[0.86,51.621],[0.794,51.626],[0.781,51.631],[0.764,51.637],[0.784,51.624],[0.808,51.622],[0.865,51.615],[0.864,51.609],[0.858,51.608],[0.854,51.596],[0.82,51.599],[0.812,51.603],[0.819,51.598],[0.796,51.586],[0.764,51.583],[0.806,51.586],[0.793,51.576],[0.808,51.579],[0.818,51.562],[0.851,51.556],[0.821,51.541],[0.821,51.541],[0.782,51.521],[0.67,51.538],[0.648,51.538],[0.646,51.54],[0.627,51.538],[0.626,51.538],[0.626,51.538],[0.608,51.535],[0.594,51.537],[0.572,51.541],[0.594,51.535],[0.622,51.527],[0.618,51.52],[0.637,51.522],[0.593,51.512],[0.573,51.508],[0.554,51.51],[0.549,51.513],[0.543,51.516],[0.518,51.53],[0.518,51.53],[0.506,51.538],[0.509,51.534],[0.522,51.516],[0.541,51.513],[0.442,51.501],[0.423,51.515],[0.436,51.5],[0.446,51.498],[0.444,51.493],[0.434,51.461],[0.405,51.454],[0.341,51.452],[0.318,51.474],[0.302,51.473],[0.298,51.472],[0.281,51.461],[0.212,51.49],[0.214,51.496],[0.23,51.499],[0.227,51.507],[0.242,51.508],[0.237,51.519],[0.249,51.529],[0.254,51.518],[0.264,51.518],[0.265,51.532],[0.334,51.541],[0.313,51.566],[0.29,51.564],[0.27,51.6],[0.254,51.602],[0.265,51.608],[0.252,51.618],[0.224,51.632],[0.2,51.625],[0.138,51.624],[0.073,51.605],[0.022,51.629],[0.023,51.641],[-0.012,51.646],[-0.012,51.681],[-0.106,51.692],[-0.163,51.688],[-0.182,51.669],[-0.191,51.664],[-0.203,51.67],[-0.212,51.661],[-0.251,51.656],[-0.257,51.642],[-0.304,51.636],[-0.317,51.641],[-0.363,51.624],[-0.404,51.613],[-0.441,51.62],[-0.457,51.612],[-0.497,51.632],[-0.501,51.6],[-0.521,51.602],[-0.539,51.638],[-0.537,51.661],[-0.523,51.658],[-0.521,51.668],[-0.505,51.673],[-0.524,51.682],[-0.549,51.683],[-0.544,51.697],[-0.563,51.712],[-0.55,51.723],[-0.554,51.734],[-0.575,51.737],[-0.586,51.752],[-0.613,51.747],[-0.67,51.766],[-0.69,51.792],[-0.685,51.8],[-0.709,51.821],[-0.724,51.818],[-0.746,51.842],[-0.717,51.857],[-0.696,51.858],[-0.687,51.849],[-0.695,51.841],[-0.667,51.816],[-0.633,51.82],[-0.582,51.807],[-0.561,51.83],[-0.554,51.827],[-0.544,51.825],[-0.538,51.831],[-0.584,51.87],[-0.62,51.885],[-0.652,51.887],[-0.673,51.902],[-0.693,51.9],[-0.702,51.909],[-0.653,51.969],[-0.646,51.972],[-0.662,52.0],[-0.643,52.011],[-0.651,52.019],[-0.64,52.024],[-0.643,52.037],[-0.669,52.049],[-0.592,52.111],[-0.607,52.134],[-0.635,52.139],[-0.641,52.153],[-0.631,52.155],[-0.627,52.182],[-0.668,52.195],[-0.637,52.227],[-0.654,52.268],[-0.603,52.279],[-0.566,52.253],[-0.542,52.256],[-0.531,52.27],[-0.542,52.29],[-0.514,52.315],[-0.52,52.318],[-0.465,52.323],[-0.467,52.339],[-0.483,52.341],[-0.478,52.349],[-0.499,52.36],[-0.489,52.374],[-0.496,52.38],[-0.442,52.385],[-0.417,52.412],[-0.362,52.434],[-0.37,52.44],[-0.342,52.467],[-0.359,52.49],[-0.354,52.506],[-0.414,52.526],[-0.401,52.539],[-0.42,52.559],[-0.407,52.564],[-0.415,52.579],[-0.479,52.574],[-0.493,52.582],[-0.471,52.624],[-0.495,52.64],[-0.453,52.654],[-0.406,52.648],[-0.35,52.662],[-0.335,52.675],[-0.289,52.67],[-0.261,52.651],[-0.213,52.667],[-0.193,52.652],[-0.18,52.661],[-0.141,52.652],[-0.102,52.672],[-0.088,52.667],[-0.064,52.675],[-0.031,52.662],[0.022,52.665],[0.049,52.681],[0.044,52.714],[0.064,52.727],[0.089,52.724],[0.133,52.739],[0.172,52.738],[0.186,52.735],[0.272,52.773],[0.245,52.784],[0.266,52.814],[0.267,52.813],[0.285,52.812],[0.278,52.816],[0.288,52.819],[0.29,52.813],[0.315,52.819],[0.345,52.814],[0.334,52.81],[0.346,52.814],[0.339,52.808],[0.352,52.809],[0.345,52.803],[0.354,52.806],[0.362,52.797],[0.371,52.783],[0.389,52.754],[0.392,52.747],[0.389,52.754],[0.375,52.784],[0.381,52.789],[0.374,52.785],[0.371,52.789],[0.363,52.802],[0.37,52.802],[0.358,52.808],[0.372,52.811],[0.381,52.813],[0.373,52.813],[0.358,52.812],[0.373,52.821],[0.403,52.837],[0.412,52.833],[0.405,52.838],[0.433,52.853],[0.445,52.853],[0.45,52.842],[0.445,52.873],[0.48,52.932],[0.49,52.948],[0.542,52.975],[0.569,52.975],[0.562,52.972],[0.576,52.964],[0.586,52.973],[0.587,52.966],[0.592,52.971],[0.59,52.965],[0.603,52.966],[0.588,52.977],[0.618,52.973],[0.614,52.966],[0.626,52.967],[0.623,52.974],[0.672,52.978],[0.669,52.97],[0.639,52.971],[0.643,52.966],[0.679,52.967],[0.685,52.967],[0.7,52.974],[0.68,52.969],[0.694,52.979],[0.716,52.972],[0.748,52.975],[0.751,52.973],[0.746,52.966],[0.748,52.973],[0.732,52.973],[0.732,52.961],[0.758,52.969],[0.754,52.975],[0.764,52.977],[0.751,52.977],[0.782,52.978],[0.782,52.978],[0.813,52.973],[0.845,52.978],[0.851,52.958],[0.87,52.955],[0.905,52.962],[0.909,52.957],[0.911,52.963],[0.917,52.962],[0.915,52.964],[0.921,52.966],[0.937,52.958],[0.976,52.963],[0.984,52.964],[1.015,52.963],[1.011,52.955],[1.031,52.967],[1.003,52.974],[0.977,52.972],[0.97,52.971],[0.958,52.969],[0.975,52.98],[0.978,52.98],[1.007,52.974]]],[[[0.695,52.987],[0.751,52.978],[0.722,52.982],[0.717,52.977],[0.719,52.983],[0.711,52.979],[0.703,52.984],[0.701,52.979],[0.703,52.985],[0.698,52.981],[0.69,52.987],[0.697,52.981],[0.685,52.983],[0.682,52.977],[0.686,52.987],[0.68,52.987],[0.658,52.986],[0.68,52.987],[0.687,52.988],[0.695,52.987]]]]}},{"type":"Feature","properties":{"code":"E12000007","name":"London"},"geometry":{"type":"Polygon","coordinates":[[[-0.012,51.681],[-0.012,51.646],[0.023,51.641],[0.022,51.629],[0.073,51.605],[0.138,51.624],[0.2,51.625],[0.224,51.632],[0.252,51.618],[0.265,51.608],[0.254,51.602],[0.27,51.6],[0.29,51.564],[0.313,51.566],[0.334,51.541],[0.265,51.532],[0.264,51.518],[0.254,51.518],[0.249,51.529],[0.237,51.519],[0.242,51.508],[0.227,51.507],[0.23,51.499],[0.214,51.496],[0.212,51.49],[0.211,51.49],[0.188,51.488],[0.182,51.499],[0.179,51.505],[0.16,51.512],[0.159,51.512],[0.127,51.52],[0.098,51.515],[0.098,51.515],[0.066,51.501],[0.06,51.498],[0.02,51.499],[0.018,51.502],[0.016,51.503],[0.009,51.508],[0.008,51.508],[0.006,51.508],[-0.006,51.505],[-0.006,51.502],[-0.008,51.487],[-0.009,51.487],[-0.011,51.487],[-0.025,51.49],[-0.028,51.502],[-0.03,51.509],[-0.045,51.509],[-0.06,51.503],[-0.06,51.503],[-0.06,51.503],[-0.079,51.508],[-0.073,51.505],[-0.068,51.503],[-0.063,51.501],[-0.054,51.503],[-0.036,51.507],[-0.035,51.502],[-0.032,51.493],[-0.032,51.493],[-0.025,51.486],[-0.022,51.484],[-0.017,51.48],[-0.02,51.478],[-0.023,51.475],[-0.019,51.477],[0.002,51.489],[0.001,51.502],[0.001,51.504],[0.001,51.505],[0.002,51.504],[0.007,51.502],[0.015,51.497],[0.022,51.494],[0.058,51.494],[0.077,51.496],[0.082,51.5],[0.091,51.508],[0.092,51.509],[0.094,51.509],[0.119,51.511],[0.12,51.511],[0.163,51.505],[0.165,51.504],[0.169,51.499],[0.169,51.499],[0.184,51.481],[0.218,51.48],[0.221,51.479],[0.203,51.454],[0.173,51.443],[0.164,51.429],[0.156,51.431],[0.153,51.409],[0.149,51.408],[0.162,51.392],[0.148,51.393],[0.152,51.37],[0.137,51.344],[0.118,51.344],[0.118,51.33],[0.085,51.316],[0.086,51.293],[0.042,51.293],[0.033,51.308],[0.015,51.292],[0.002,51.329],[-0.038,51.339],[-0.051,51.322],[-0.079,51.32],[-0.091,51.301],[-0.124,51.287],[-0.137,51.301],[-0.155,51.301],[-0.157,51.321],[-0.197,51.344],[-0.221,51.33],[-0.23,51.337],[-0.217,51.343],[-0.223,51.357],[-0.245,51.367],[-0.245,51.38],[-0.261,51.38],[-0.288,51.362],[-0.306,51.335],[-0.331,51.329],[-0.331,51.348],[-0.307,51.378],[-0.318,51.394],[-0.328,51.392],[-0.359,51.412],[-0.383,51.409],[-0.391,51.422],[-0.456,51.438],[-0.459,51.456],[-0.51,51.469],[-0.49,51.495],[-0.483,51.507],[-0.495,51.539],[-0.477,51.559],[-0.501,51.6],[-0.497,51.632],[-0.457,51.612],[-0.441,51.62],[-0.404,51.613],[-0.363,51.624],[-0.317,51.641],[-0.304,51.636],[-0.257,51.642],[-0.251,51.656],[-0.212,51.661],[-0.203,51.67],[-0.191,51.664],[-0.182,51.669],[-0.163,51.688],[-0.106,51.692],[-0.012,51.681]]]}},{"type":"Feature","properties":{"code":"E12000008","name":"South East"},"geometry":{"type":"MultiPolygon","coordinates":[[[[-1.555,50.714],[-1.551,50.706],[-1.556,50.708],[-1.555,50.714]]],[[[-1.304,50.765],[-1.296,50.762],[-1.295,50.762],[-1.283,50.73],[-1.291,50.763],[-1.275,50.765],[-1.248,50.752],[-1.243,50.739],[-1.235,50.743],[-1.228,50.742],[-1.216,50.735],[-1.217,50.735],[-1.216,50.735],[-1.215,50.734],[-1.209,50.735],[-1.155,50.733],[-1.151,50.732],[-1.109,50.721],[-1.096,50.694],[-1.103,50.7],[-1.108,50.694],[-1.086,50.694],[-1.07,50.688],[-1.07,50.688],[-1.099,50.665],[-1.132,50.662],[-1.153,50.653],[-1.16,50.649],[-1.176,50.617],[-1.185,50.597],[-1.301,50.576],[-1.345,50.601],[-1.374,50.618],[-1.389,50.627],[-1.436,50.64],[-1.448,50.644],[-1.484,50.667],[-1.587,50.663],[-1.548,50.678],[-1.522,50.707],[-1.52,50.707],[-1.502,50.707],[-1.51,50.706],[-1.5,50.698],[-1.497,50.701],[-1.504,50.706],[-1.469,50.71],[-1.435,50.723],[-1.428,50.726],[-1.417,50.725],[-1.412,50.724],[-1.422,50.725],[-1.413,50.719],[-1.414,50.715],[-1.413,50.704],[-1.412,50.714],[-1.398,50.71],[-1.408,50.719],[-1.385,50.722],[-1.404,50.727],[-1.395,50.729],[-1.353,50.739],[-1.315,50.765],[-1.311,50.767],[-1.304,50.765]]],[[[-1.093,50.815],[-1.101,50.814],[-1.096,50.821],[-1.093,50.815]]],[[[-0.951,50.824],[-0.957,50.808],[-0.973,50.809],[-0.953,50.801],[-0.959,50.795],[-0.967,50.787],[-0.951,50.787],[-0.959,50.781],[-0.938,50.787],[-0.939,50.778],[-0.96,50.78],[-1.024,50.788],[-1.025,50.795],[-1.025,50.796],[-0.995,50.798],[-0.983,50.821],[-0.99,50.827],[-0.968,50.835],[-0.951,50.824]]],[[[-1.044,50.832],[-1.044,50.796],[-1.044,50.791],[-1.034,50.796],[-1.031,50.797],[-1.031,50.796],[-1.029,50.789],[-1.089,50.778],[-1.095,50.782],[-1.109,50.79],[-1.11,50.796],[-1.112,50.807],[-1.091,50.809],[-1.095,50.812],[-1.091,50.816],[-1.094,50.823],[-1.1,50.827],[-1.084,50.825],[-1.076,50.837],[-1.044,50.832]]],[[[0.608,51.402],[0.615,51.395],[0.597,51.396],[0.608,51.402]]],[[[0.583,51.403],[0.562,51.402],[0.564,51.408],[0.583,51.403]]],[[[0.683,51.413],[0.695,51.397],[0.673,51.398],[0.666,51.406],[0.683,51.413]]],[[[0.679,51.424],[0.688,51.414],[0.66,51.418],[0.679,51.424]]],[[[0.901,51.417],[0.95,51.372],[0.897,51.354],[0.872,51.365],[0.858,51.37],[0.857,51.365],[0.841,51.372],[0.851,51.365],[0.839,51.364],[0.806,51.372],[0.766,51.37],[0.764,51.388],[0.733,51.4],[0.722,51.414],[0.732,51.409],[0.747,51.415],[0.735,51.424],[0.749,51.446],[0.781,51.441],[0.791,51.439],[0.824,51.426],[0.875,51.42],[0.901,51.417]]],[[[-0.627,52.182],[-0.631,52.155],[-0.641,52.153],[-0.635,52.139],[-0.607,52.134],[-0.592,52.111],[-0.669,52.049],[-0.643,52.037],[-0.64,52.024],[-0.651,52.019],[-0.643,52.011],[-0.662,52.0],[-0.646,51.972],[-0.653,51.969],[-0.702,51.909],[-0.693,51.9],[-0.673,51.902],[-0.652,51.887],[-0.62,51.885],[-0.584,51.87],[-0.538,51.831],[-0.544,51.825],[-0.554,51.827],[-0.561,51.83],[-0.582,51.807],[-0.633,51.82],[-0.667,51.816],[-0.695,51.841],[-0.687,51.849],[-0.696,51.858],[-0.717,51.857],[-0.746,51.842],[-0.724,51.818],[-0.709,51.821],[-0.685,51.8],[-0.69,51.792],[-0.67,51.766],[-0.613,51.747],[-0.586,51.752],[-0.575,51.737],[-0.554,51.734],[-0.55,51.723],[-0.563,51.712],[-0.544,51.697],[-0.549,51.683],[-0.524,51.682],[-0.505,51.673],[-0.521,51.668],[-0.523,51.658],[-0.537,51.661],[-0.539,51.638],[-0.521,51.602],[-0.501,51.6],[-0.477,51.559],[-0.495,51.539],[-0.483,51.507],[-0.49,51.495],[-0.51,51.469],[-0.459,51.456],[-0.456,51.438],[-0.391,51.422],[-0.383,51.409],[-0.359,51.412],[-0.328,51.392],[-0.318,51.394],[-0.307,51.378],[-0.331,51.348],[-0.331,51.329],[-0.306,51.335],[-0.288,51.362],[-0.261,51.38],[-0.245,51.38],[-0.245,51.367],[-0.223,51.357],[-0.217,51.343],[-0.23,51.337],[-0.221,51.33],[-0.197,51.344],[-0.157,51.321],[-0.155,51.301],[-0.137,51.301],[-0.124,51.287],[-0.091,51.301],[-0.079,51.32],[-0.051,51.322],[-0.038,51.339],[0.002,51.329],[0.015,51.292],[0.033,51.308],[0.042,51.293],[0.086,51.293],[0.085,51.316],[0.118,51.33],[0.118,51.344],[0.137,51.344],[0.152,51.37],[0.148,51.393],[0.162,51.392],[0.149,51.408],[0.153,51.409],[0.156,51.431],[0.164,51.429],[0.173,51.443],[0.203,51.454],[0.221,51.479],[0.275,51.454],[0.302,51.461],[0.315,51.465],[0.315,51.465],[0.325,51.45],[0.382,51.444],[0.44,51.447],[0.459,51.456],[0.458,51.458],[0.454,51.463],[0.468,51.464],[0.458,51.467],[0.468,51.483],[0.546,51.487],[0.591,51.479],[0.615,51.475],[0.66,51.478],[0.69,51.459],[0.671,51.472],[0.7,51.473],[0.721,51.46],[0.723,51.445],[0.71,51.435],[0.678,51.433],[0.672,51.448],[0.659,51.447],[0.636,51.446],[0.619,51.437],[0.605,51.421],[0.617,51.428],[0.624,51.424],[0.611,51.417],[0.587,51.413],[0.564,51.41],[0.532,51.413],[0.516,51.4],[0.523,51.385],[0.538,51.41],[0.561,51.395],[0.586,51.389],[0.595,51.387],[0.602,51.391],[0.597,51.387],[0.612,51.379],[0.62,51.388],[0.632,51.389],[0.635,51.389],[0.627,51.375],[0.648,51.398],[0.67,51.373],[0.687,51.392],[0.703,51.392],[0.695,51.38],[0.714,51.384],[0.697,51.42],[0.728,51.42],[0.716,51.413],[0.726,51.399],[0.764,51.382],[0.764,51.363],[0.735,51.346],[0.767,51.362],[0.814,51.358],[0.816,51.346],[0.817,51.356],[0.866,51.356],[0.871,51.354],[0.897,51.344],[0.88,51.329],[0.895,51.336],[0.915,51.329],[0.897,51.341],[0.95,51.346],[0.95,51.346],[1.005,51.349],[1.033,51.366],[1.16,51.375],[1.224,51.379],[1.225,51.379],[1.315,51.38],[1.384,51.392],[1.392,51.393],[1.425,51.394],[1.442,51.387],[1.446,51.358],[1.446,51.358],[1.446,51.358],[1.425,51.326],[1.423,51.331],[1.415,51.327],[1.424,51.324],[1.378,51.329],[1.358,51.312],[1.358,51.311],[1.371,51.314],[1.381,51.29],[1.395,51.256],[1.405,51.224],[1.405,51.175],[1.395,51.156],[1.377,51.141],[1.343,51.131],[1.343,51.13],[1.343,51.13],[1.343,51.122],[1.338,51.127],[1.317,51.123],[1.323,51.114],[1.31,51.117],[1.318,51.114],[1.314,51.115],[1.328,51.111],[1.317,51.112],[1.302,51.113],[1.3,51.113],[1.299,51.112],[1.226,51.099],[1.221,51.098],[1.22,51.097],[1.215,51.095],[1.206,51.091],[1.206,51.09],[1.186,51.079],[1.195,51.076],[1.076,51.063],[1.07,51.06],[1.06,51.059],[0.997,51.025],[0.99,51.013],[0.986,51.009],[0.982,50.999],[0.964,50.969],[0.971,50.942],[0.978,50.912],[0.978,50.912],[0.855,50.924],[0.855,50.924],[0.844,50.925],[0.772,50.931],[0.775,50.927],[0.73,50.913],[0.659,50.87],[0.658,50.87],[0.646,50.867],[0.525,50.845],[0.503,50.843],[0.501,50.842],[0.378,50.82],[0.377,50.82],[0.339,50.799],[0.339,50.799],[0.31,50.777],[0.266,50.743],[0.26,50.739],[0.21,50.738],[0.21,50.739],[0.156,50.757],[0.15,50.759],[0.149,50.759],[0.122,50.758],[0.107,50.764],[0.068,50.782],[0.06,50.782],[0.058,50.782],[0.058,50.782],[0.056,50.782],[0.058,50.776],[0.034,50.782],[-0.015,50.793],[-0.038,50.799],[-0.039,50.799],[-0.043,50.8],[-0.092,50.811],[-0.092,50.808],[-0.11,50.811],[-0.11,50.813],[-0.193,50.824],[-0.216,50.828],[-0.217,50.828],[-0.251,50.83],[-0.249,50.826],[-0.268,50.826],[-0.278,50.827],[-0.298,50.823],[-0.333,50.817],[-0.333,50.817],[-0.436,50.803],[-0.436,50.803],[-0.542,50.8],[-0.555,50.798],[-0.568,50.798],[-0.627,50.788],[-0.702,50.777],[-0.713,50.774],[-0.726,50.772],[-0.734,50.766],[-0.752,50.76],[-0.754,50.759],[-0.753,50.761],[-0.753,50.761],[-0.752,50.761],[-0.751,50.762],[-0.751,50.762],[-0.751,50.762],[-0.751,50.762],[-0.75,50.763],[-0.763,50.773],[-0.764,50.772],[-0.787,50.76],[-0.772,50.764],[-0.762,50.751],[-0.751,50.757],[-0.75,50.757],[-0.785,50.726],[-0.789,50.722],[-0.819,50.739],[-0.824,50.744],[-0.844,50.751],[-0.86,50.76],[-0.881,50.765],[-0.907,50.774],[-0.915,50.781],[-0.915,50.789],[-0.908,50.787],[-0.912,50.783],[-0.911,50.781],[-0.905,50.782],[-0.892,50.794],[-0.878,50.808],[-0.866,50.805],[-0.845,50.799],[-0.825,50.804],[-0.808,50.831],[-0.814,50.834],[-0.82,50.817],[-0.843,50.805],[-0.866,50.813],[-0.869,50.814],[-0.866,50.816],[-0.851,50.828],[-0.861,50.828],[-0.858,50.84],[-0.865,50.84],[-0.87,50.84],[-0.865,50.828],[-0.865,50.827],[-0.865,50.827],[-0.877,50.811],[-0.892,50.818],[-0.894,50.838],[-0.913,50.84],[-0.908,50.799],[-0.943,50.815],[-0.932,50.846],[-0.934,50.846],[-0.975,50.842],[-0.981,50.835],[-0.999,50.842],[-1.001,50.851],[-1.003,50.843],[-1.021,50.839],[-1.022,50.836],[-1.022,50.835],[-1.023,50.833],[-1.024,50.833],[-1.024,50.832],[-1.025,50.826],[-1.036,50.835],[-1.078,50.837],[-1.089,50.828],[-1.106,50.838],[-1.103,50.846],[-1.114,50.844],[-1.117,50.843],[-1.118,50.837],[-1.119,50.836],[-1.149,50.844],[-1.154,50.845],[-1.171,50.84],[-1.171,50.841],[-1.172,50.857],[-1.178,50.838],[-1.179,50.838],[-1.18,50.837],[-1.177,50.837],[-1.161,50.838],[-1.157,50.838],[-1.157,50.838],[-1.157,50.823],[-1.15,50.825],[-1.146,50.826],[-1.124,50.806],[-1.137,50.802],[-1.124,50.804],[-1.12,50.796],[-1.118,50.792],[-1.141,50.783],[-1.112,50.79],[-1.137,50.776],[-1.142,50.773],[-1.15,50.776],[-1.19,50.79],[-1.199,50.797],[-1.214,50.809],[-1.214,50.809],[-1.307,50.841],[-1.303,50.877],[-1.301,50.88],[-1.303,50.879],[-1.304,50.879],[-1.317,50.876],[-1.311,50.851],[-1.31,50.849],[-1.311,50.849],[-1.363,50.879],[-1.365,50.88],[-1.384,50.892],[-1.385,50.904],[-1.372,50.912],[-1.376,50.911],[-1.388,50.907],[-1.393,50.883],[-1.399,50.895],[-1.432,50.907],[-1.443,50.911],[-1.447,50.904],[-1.465,50.91],[-1.467,50.911],[-1.475,50.924],[-1.477,50.929],[-1.477,50.929],[-1.477,50.929],[-1.48,50.935],[-1.478,50.929],[-1.482,50.93],[-1.485,50.933],[-1.486,50.933],[-1.486,50.932],[-1.484,50.93],[-1.482,50.928],[-1.474,50.912],[-1.479,50.917],[-1.489,50.91],[-1.491,50.916],[-1.489,50.91],[-1.488,50.908],[-1.478,50.912],[-1.459,50.901],[-1.433,50.897],[-1.427,50.897],[-1.378,50.855],[-1.357,50.85],[-1.361,50.843],[-1.34,50.843],[-1.339,50.827],[-1.326,50.826],[-1.325,50.823],[-1.326,50.817],[-1.311,50.813],[-1.308,50.82],[-1.309,50.815],[-1.317,50.808],[-1.327,50.804],[-1.343,50.786],[-1.374,50.785],[-1.375,50.785],[-1.375,50.785],[-1.398,50.784],[-1.408,50.786],[-1.413,50.784],[-1.393,50.777],[-1.4,50.774],[-1.4,50.774],[-1.41,50.77],[-1.41,50.769],[-1.434,50.765],[-1.502,50.754],[-1.52,50.754],[-1.535,50.764],[-1.526,50.745],[-1.542,50.74],[-1.531,50.737],[-1.558,50.721],[-1.58,50.718],[-1.56,50.709],[-1.629,50.729],[-1.64,50.732],[-1.692,50.737],[-1.682,50.752],[-1.744,50.747],[-1.739,50.763],[-1.749,50.779],[-1.785,50.765],[-1.804,50.796],[-1.812,50.809],[-1.803,50.83],[-1.791,50.836],[-1.802,50.843],[-1.807,50.863],[-1.83,50.855],[-1.854,50.863],[-1.849,50.89],[-1.817,50.904],[-1.811,50.927],[-1.842,50.932],[-1.874,50.917],[-1.921,50.961],[-1.955,50.978],[-1.957,50.99],[-1.95,50.982],[-1.928,50.998],[-1.887,51.0],[-1.874,51.006],[-1.874,50.985],[-1.853,51.005],[-1.836,51.009],[-1.815,50.986],[-1.8,50.991],[-1.754,50.978],[-1.72,50.977],[-1.662,50.945],[-1.635,50.959],[-1.62,50.959],[-1.603,50.979],[-1.62,50.983],[-1.629,50.999],[-1.597,51.01],[-1.599,51.024],[-1.632,51.033],[-1.635,51.04],[-1.628,51.078],[-1.637,51.092],[-1.626,51.117],[-1.663,51.127],[-1.654,51.156],[-1.672,51.179],[-1.669,51.191],[-1.694,51.204],[-1.69,51.215],[-1.634,51.218],[-1.608,51.253],[-1.578,51.256],[-1.546,51.245],[-1.536,51.249],[-1.53,51.261],[-1.541,51.261],[-1.543,51.281],[-1.523,51.287],[-1.519,51.296],[-1.534,51.316],[-1.528,51.338],[-1.498,51.329],[-1.486,51.348],[-1.501,51.356],[-1.495,51.37],[-1.556,51.396],[-1.553,51.41],[-1.571,51.415],[-1.565,51.422],[-1.527,51.424],[-1.524,51.447],[-1.582,51.494],[-1.585,51.525],[-1.603,51.518],[-1.648,51.572],[-1.655,51.576],[-1.677,51.569],[-1.691,51.584],[-1.691,51.605],[-1.667,51.616],[-1.674,51.623],[-1.66,51.635],[-1.692,51.652],[-1.7,51.671],[-1.683,51.69],[-1.668,51.68],[-1.648,51.684],[-1.688,51.712],[-1.696,51.724],[-1.687,51.74],[-1.701,51.771],[-1.719,51.783],[-1.682,51.804],[-1.686,51.834],[-1.676,51.85],[-1.687,51.865],[-1.667,51.877],[-1.659,51.897],[-1.633,51.899],[-1.646,51.922],[-1.615,51.938],[-1.632,51.956],[-1.663,51.964],[-1.666,51.987],[-1.612,51.955],[-1.592,51.97],[-1.6,51.977],[-1.564,51.977],[-1.55,51.981],[-1.557,51.992],[-1.523,51.997],[-1.488,52.094],[-1.477,52.101],[-1.447,52.098],[-1.453,52.113],[-1.426,52.118],[-1.385,52.094],[-1.358,52.101],[-1.371,52.118],[-1.393,52.119],[-1.366,52.136],[-1.349,52.135],[-1.332,52.168],[-1.248,52.097],[-1.321,52.087],[-1.318,52.08],[-1.298,52.078],[-1.313,52.051],[-1.278,52.014],[-1.283,51.98],[-1.242,51.986],[-1.196,51.977],[-1.164,51.993],[-1.134,51.997],[-1.118,52.015],[-1.137,52.022],[-1.122,52.045],[-1.062,52.063],[-1.028,52.064],[-1.042,52.074],[-1.026,52.076],[-0.968,52.071],[-0.952,52.082],[-0.906,52.021],[-0.89,52.032],[-0.878,52.03],[-0.871,52.04],[-0.852,52.051],[-0.863,52.061],[-0.84,52.064],[-0.831,52.072],[-0.847,52.092],[-0.87,52.1],[-0.871,52.112],[-0.887,52.114],[-0.881,52.126],[-0.828,52.133],[-0.832,52.144],[-0.814,52.142],[-0.808,52.157],[-0.792,52.151],[-0.778,52.169],[-0.75,52.167],[-0.705,52.192],[-0.668,52.195],[-0.627,52.182]]]]}},{"type":"Feature","properties":{"code":"E12000009","name":"South West"},"geometry":{"type":"MultiPolygon","coordinates":[[[[-6.349,49.898],[-6.328,49.892],[-6.329,49.892],[-6.338,49.893],[-6.338,49.893],[-6.341,49.882],[-6.342,49.883],[-6.353,49.889],[-6.349,49.898]]],[[[-6.276,49.921],[-6.288,49.91],[-6.303,49.912],[-6.304,49.903],[-6.306,49.905],[-6.313,49.913],[-6.313,49.913],[-6.314,49.913],[-6.314,49.913],[-6.321,49.909],[-6.327,49.912],[-6.328,49.913],[-6.309,49.917],[-6.31,49.92],[-6.312,49.929],[-6.298,49.937],[-6.277,49.929],[-6.276,49.921]]],[[[-6.332,49.94],[-6.332,49.94],[-6.344,49.961],[-6.346,49.967],[-6.321,49.954],[-6.32,49.952],[-6.332,49.94]]],[[[-6.349,49.952],[-6.356,49.946],[-6.36,49.949],[-6.359,49.967],[-6.348,49.956],[-6.349,49.952]]],[[[-6.294,49.978],[-6.29,49.97],[-6.289,49.966],[-6.262,49.963],[-6.263,49.962],[-6.284,49.956],[-6.286,49.957],[-6.294,49.96],[-6.294,49.96],[-6.294,49.96],[-6.302,49.963],[-6.304,49.965],[-6.295,49.976],[-6.292,49.974],[-6.294,49.978],[-6.294,49.978]]],[[[-1.956,50.692],[-1.962,50.686],[-1.988,50.692],[-1.965,50.695],[-1.956,50.692]]],[[[-4.727,50.683],[-4.727,50.683],[-4.727,50.683],[-4.727,50.683]]],[[[-4.666,51.159],[-4.671,51.158],[-4.681,51.172],[-4.678,51.199],[-4.677,51.202],[-4.653,51.162],[-4.666,51.159]]],[[[-1.768,52.113],[-1.746,52.093],[-1.729,52.1],[-1.731,52.073],[-1.713,52.067],[-1.702,52.073],[-1.705,52.06],[-1.689,52.052],[-1.694,52.04],[-1.664,52.031],[-1.624,52.039],[-1.618,52.033],[-1.666,51.997],[-1.666,51.987],[-1.663,51.964],[-1.632,51.956],[-1.615,51.938],[-1.646,51.922],[-1.633,51.899],[-1.659,51.897],[-1.667,51.877],[-1.687,51.865],[-1.676,51.85],[-1.686,51.834],[-1.682,51.804],[-1.719,51.783],[-1.701,51.771],[-1.687,51.74],[-1.696,51.724],[-1.688,51.712],[-1.648,51.684],[-1.668,51.68],[-1.683,51.69],[-1.7,51.671],[-1.692,51.652],[-1.66,51.635],[-1.674,51.623],[-1.667,51.616],[-1.691,51.605],[-1.691,51.584],[-1.677,51.569],[-1.655,51.576],[-1.648,51.572],[-1.603,51.518],[-1.585,51.525],[-1.582,51.494],[-1.524,51.447],[-1.527,51.424],[-1.565,51.422],[-1.571,51.415],[-1.553,51.41],[-1.556,51.396],[-1.495,51.37],[-1.501,51.356],[-1.486,51.348],[-1.498,51.329],[-1.528,51.338],[-1.534,51.316],[-1.519,51.296],[-1.523,51.287],[-1.543,51.281],[-1.541,51.261],[-1.53,51.261],[-1.536,51.249],[-1.546,51.245],[-1.578,51.256],[-1.608,51.253],[-1.634,51.218],[-1.69,51.215],[-1.694,51.204],[-1.669,51.191],[-1.672,51.179],[-1.654,51.156],[-1.663,51.127],[-1.626,51.117],[-1.637,51.092],[-1.628,51.078],[-1.635,51.04],[-1.632,51.033],[-1.599,51.024],[-1.597,51.01],[-1.629,50.999],[-1.62,50.983],[-1.603,50.979],[-1.62,50.959],[-1.635,50.959],[-1.662,50.945],[-1.72,50.977],[-1.754,50.978],[-1.8,50.991],[-1.815,50.986],[-1.836,51.009],[-1.853,51.005],[-1.874,50.985],[-1.874,51.006],[-1.887,51.0],[-1.928,50.998],[-1.95,50.982],[-1.957,50.99],[-1.955,50.978],[-1.921,50.961],[-1.874,50.917],[-1.842,50.932],[-1.811,50.927],[-1.817,50.904],[-1.849,50.89],[-1.854,50.863],[-1.83,50.855],[-1.807,50.863],[-1.802,50.843],[-1.791,50.836],[-1.803,50.83],[-1.812,50.809],[-1.804,50.796],[-1.785,50.765],[-1.749,50.779],[-1.739,50.763],[-1.744,50.747],[-1.682,50.752],[-1.692,50.737],[-1.693,50.737],[-1.718,50.735],[-1.724,50.734],[-1.727,50.732],[-1.729,50.732],[-1.731,50.73],[-1.742,50.724],[-1.757,50.731],[-1.762,50.723],[-1.761,50.718],[-1.746,50.716],[-1.739,50.724],[-1.749,50.711],[-1.749,50.711],[-1.804,50.72],[-1.812,50.72],[-1.818,50.721],[-1.838,50.718],[-1.867,50.717],[-1.877,50.714],[-1.885,50.713],[-1.891,50.71],[-1.913,50.704],[-1.947,50.683],[-1.934,50.699],[-1.952,50.704],[-1.958,50.716],[-1.992,50.713],[-1.984,50.719],[-1.995,50.73],[-1.99,50.737],[-2.001,50.734],[-2.012,50.731],[-2.001,50.721],[-1.988,50.707],[-2.001,50.71],[-2.04,50.719],[-2.041,50.719],[-2.028,50.729],[-2.054,50.729],[-2.042,50.726],[-2.042,50.718],[-2.042,50.718],[-2.043,50.715],[-2.068,50.715],[-2.072,50.708],[-2.058,50.706],[-2.074,50.706],[-2.071,50.698],[-2.08,50.695],[-2.079,50.694],[-2.079,50.69],[-2.079,50.69],[-2.066,50.687],[-2.054,50.7],[-2.026,50.707],[-2.018,50.701],[-2.035,50.702],[-2.025,50.688],[-2.053,50.678],[-2.025,50.684],[-2.027,50.678],[-2.047,50.67],[-2.029,50.674],[-2.027,50.668],[-2.022,50.682],[-2.011,50.683],[-2.01,50.671],[-2.001,50.675],[-2.0,50.676],[-1.993,50.667],[-1.978,50.677],[-1.984,50.667],[-1.968,50.66],[-1.971,50.669],[-1.95,50.68],[-1.941,50.672],[-1.943,50.666],[-1.952,50.65],[-1.949,50.648],[-1.95,50.646],[-1.946,50.646],[-1.941,50.641],[-1.926,50.643],[-1.924,50.642],[-1.954,50.62],[-1.957,50.617],[-1.957,50.617],[-1.957,50.617],[-1.956,50.615],[-1.956,50.609],[-1.956,50.609],[-1.956,50.608],[-1.948,50.608],[-1.944,50.608],[-1.951,50.595],[-2.026,50.589],[-2.055,50.577],[-2.057,50.58],[-2.064,50.594],[-2.064,50.594],[-2.064,50.594],[-2.066,50.594],[-2.111,50.599],[-2.133,50.612],[-2.134,50.612],[-2.135,50.613],[-2.146,50.608],[-2.158,50.615],[-2.173,50.615],[-2.198,50.623],[-2.198,50.623],[-2.199,50.623],[-2.223,50.619],[-2.244,50.616],[-2.25,50.617],[-2.267,50.619],[-2.284,50.622],[-2.331,50.628],[-2.339,50.632],[-2.367,50.633],[-2.395,50.637],[-2.423,50.636],[-2.425,50.635],[-2.426,50.635],[-2.427,50.634],[-2.439,50.628],[-2.448,50.619],[-2.453,50.614],[-2.445,50.609],[-2.46,50.608],[-2.445,50.609],[-2.441,50.61],[-2.441,50.61],[-2.451,50.604],[-2.448,50.603],[-2.449,50.601],[-2.432,50.596],[-2.45,50.601],[-2.47,50.584],[-2.47,50.584],[-2.47,50.583],[-2.497,50.597],[-2.496,50.603],[-2.517,50.618],[-2.534,50.618],[-2.535,50.619],[-2.56,50.639],[-2.567,50.641],[-2.612,50.654],[-2.567,50.632],[-2.541,50.618],[-2.497,50.596],[-2.47,50.582],[-2.461,50.572],[-2.461,50.571],[-2.461,50.571],[-2.461,50.571],[-2.438,50.57],[-2.422,50.569],[-2.428,50.566],[-2.42,50.555],[-2.419,50.546],[-2.456,50.514],[-2.457,50.513],[-2.45,50.561],[-2.531,50.612],[-2.544,50.618],[-2.567,50.63],[-2.637,50.664],[-2.793,50.718],[-2.851,50.726],[-2.906,50.733],[-2.909,50.733],[-2.909,50.733],[-2.912,50.734],[-2.947,50.718],[-2.948,50.718],[-3.027,50.699],[-3.03,50.699],[-3.053,50.704],[-3.055,50.703],[-3.082,50.702],[-3.095,50.686],[-3.096,50.685],[-3.134,50.685],[-3.192,50.685],[-3.258,50.673],[-3.29,50.642],[-3.301,50.632],[-3.309,50.648],[-3.307,50.63],[-3.341,50.622],[-3.348,50.621],[-3.349,50.62],[-3.352,50.619],[-3.358,50.612],[-3.362,50.607],[-3.39,50.611],[-3.415,50.616],[-3.424,50.617],[-3.421,50.623],[-3.416,50.629],[-3.451,50.682],[-3.452,50.683],[-3.461,50.696],[-3.46,50.689],[-3.457,50.677],[-3.457,50.675],[-3.458,50.676],[-3.468,50.683],[-3.47,50.682],[-3.47,50.681],[-3.469,50.678],[-3.468,50.664],[-3.451,50.647],[-3.447,50.62],[-3.447,50.617],[-3.446,50.617],[-3.445,50.611],[-3.445,50.606],[-3.445,50.606],[-3.445,50.606],[-3.444,50.602],[-3.428,50.611],[-3.427,50.611],[-3.425,50.612],[-3.426,50.611],[-3.467,50.578],[-3.468,50.563],[-3.5,50.541],[-3.501,50.546],[-3.51,50.543],[-3.497,50.538],[-3.507,50.521],[-3.509,50.517],[-3.509,50.517],[-3.515,50.482],[-3.481,50.464],[-3.516,50.454],[-3.541,50.461],[-3.557,50.429],[-3.56,50.423],[-3.545,50.402],[-3.52,50.403],[-3.512,50.396],[-3.505,50.4],[-3.513,50.406],[-3.482,50.4],[-3.508,50.379],[-3.508,50.379],[-3.518,50.346],[-3.519,50.346],[-3.54,50.337],[-3.551,50.338],[-3.572,50.347],[-3.574,50.348],[-3.568,50.351],[-3.564,50.353],[-3.576,50.363],[-3.576,50.364],[-3.569,50.369],[-3.595,50.382],[-3.595,50.382],[-3.595,50.382],[-3.595,50.382],[-3.594,50.381],[-3.581,50.372],[-3.581,50.372],[-3.584,50.36],[-3.577,50.351],[-3.577,50.346],[-3.571,50.344],[-3.564,50.335],[-3.572,50.326],[-3.592,50.322],[-3.611,50.318],[-3.611,50.318],[-3.613,50.318],[-3.643,50.29],[-3.657,50.248],[-3.66,50.239],[-3.659,50.239],[-3.659,50.238],[-3.644,50.225],[-3.641,50.222],[-3.681,50.222],[-3.683,50.221],[-3.698,50.213],[-3.721,50.202],[-3.738,50.215],[-3.773,50.224],[-3.761,50.236],[-3.726,50.237],[-3.739,50.241],[-3.723,50.247],[-3.72,50.248],[-3.724,50.247],[-3.754,50.24],[-3.755,50.242],[-3.749,50.256],[-3.757,50.255],[-3.767,50.263],[-3.774,50.257],[-3.765,50.254],[-3.762,50.247],[-3.759,50.241],[-3.761,50.241],[-3.767,50.243],[-3.767,50.242],[-3.775,50.244],[-3.77,50.239],[-3.778,50.231],[-3.782,50.23],[-3.787,50.211],[-3.804,50.213],[-3.82,50.216],[-3.844,50.228],[-3.868,50.24],[-3.867,50.241],[-3.859,50.243],[-3.859,50.245],[-3.858,50.261],[-3.859,50.261],[-3.859,50.261],[-3.875,50.272],[-3.882,50.277],[-3.877,50.28],[-3.87,50.279],[-3.865,50.285],[-3.871,50.281],[-3.895,50.282],[-3.899,50.284],[-3.898,50.286],[-3.91,50.294],[-3.915,50.294],[-3.918,50.296],[-3.944,50.296],[-3.947,50.307],[-3.948,50.31],[-3.953,50.308],[-3.953,50.308],[-3.975,50.305],[-3.992,50.307],[-4.016,50.299],[-4.043,50.295],[-4.071,50.305],[-4.062,50.308],[-4.033,50.313],[-4.053,50.318],[-4.056,50.311],[-4.058,50.312],[-4.119,50.319],[-4.12,50.336],[-4.123,50.336],[-4.123,50.346],[-4.123,50.347],[-4.123,50.347],[-4.124,50.347],[-4.131,50.359],[-4.105,50.357],[-4.112,50.359],[-4.1,50.379],[-4.101,50.383],[-4.116,50.362],[-4.133,50.362],[-4.133,50.363],[-4.141,50.362],[-4.153,50.362],[-4.154,50.368],[-4.164,50.359],[-4.164,50.369],[-4.174,50.367],[-4.183,50.367],[-4.184,50.371],[-4.182,50.378],[-4.191,50.385],[-4.193,50.39],[-4.18,50.397],[-4.195,50.392],[-4.205,50.399],[-4.204,50.401],[-4.195,50.419],[-4.192,50.425],[-4.165,50.42],[-4.164,50.428],[-4.166,50.427],[-4.173,50.424],[-4.177,50.423],[-4.185,50.426],[-4.19,50.428],[-4.181,50.435],[-4.169,50.444],[-4.163,50.449],[-4.156,50.446],[-4.152,50.464],[-4.152,50.464],[-4.152,50.464],[-4.161,50.456],[-4.185,50.434],[-4.191,50.435],[-4.2,50.437],[-4.201,50.436],[-4.222,50.426],[-4.238,50.439],[-4.224,50.422],[-4.21,50.425],[-4.21,50.419],[-4.211,50.405],[-4.227,50.394],[-4.227,50.393],[-4.233,50.394],[-4.231,50.391],[-4.231,50.391],[-4.231,50.391],[-4.231,50.39],[-4.202,50.388],[-4.209,50.386],[-4.195,50.372],[-4.209,50.369],[-4.209,50.369],[-4.209,50.369],[-4.208,50.368],[-4.197,50.36],[-4.208,50.347],[-4.173,50.359],[-4.172,50.357],[-4.171,50.347],[-4.2,50.333],[-4.201,50.333],[-4.188,50.318],[-4.189,50.318],[-4.21,50.318],[-4.221,50.312],[-4.223,50.312],[-4.224,50.313],[-4.22,50.325],[-4.229,50.334],[-4.25,50.341],[-4.308,50.361],[-4.41,50.364],[-4.437,50.361],[-4.451,50.351],[-4.451,50.348],[-4.473,50.333],[-4.498,50.337],[-4.498,50.337],[-4.538,50.324],[-4.539,50.324],[-4.578,50.333],[-4.598,50.324],[-4.607,50.329],[-4.633,50.324],[-4.639,50.33],[-4.637,50.33],[-4.618,50.335],[-4.619,50.335],[-4.609,50.338],[-4.621,50.336],[-4.631,50.339],[-4.642,50.332],[-4.668,50.323],[-4.673,50.314],[-4.685,50.32],[-4.685,50.321],[-4.682,50.338],[-4.688,50.34],[-4.689,50.348],[-4.756,50.331],[-4.756,50.331],[-4.756,50.331],[-4.757,50.331],[-4.767,50.321],[-4.766,50.319],[-4.766,50.319],[-4.753,50.299],[-4.764,50.3],[-4.781,50.29],[-4.787,50.269],[-4.786,50.262],[-4.767,50.257],[-4.786,50.246],[-4.781,50.237],[-4.784,50.236],[-4.798,50.23],[-4.798,50.226],[-4.799,50.22],[-4.805,50.223],[-4.809,50.226],[-4.819,50.232],[-4.862,50.236],[-4.879,50.224],[-4.903,50.207],[-4.917,50.197],[-4.934,50.207],[-4.956,50.203],[-4.974,50.186],[-4.982,50.152],[-5.01,50.139],[-5.01,50.139],[-5.018,50.149],[-5.009,50.15],[-5.004,50.151],[-5.004,50.151],[-5.004,50.151],[-4.996,50.162],[-5.024,50.157],[-5.014,50.19],[-5.026,50.182],[-5.035,50.204],[-5.027,50.204],[-5.028,50.21],[-5.028,50.21],[-5.028,50.21],[-5.025,50.215],[-5.024,50.223],[-5.006,50.228],[-5.014,50.227],[-5.022,50.245],[-5.017,50.226],[-5.029,50.223],[-5.028,50.216],[-5.031,50.211],[-5.039,50.213],[-5.043,50.204],[-5.048,50.209],[-5.044,50.203],[-5.059,50.193],[-5.063,50.196],[-5.054,50.18],[-5.077,50.184],[-5.051,50.177],[-5.048,50.172],[-5.053,50.164],[-5.054,50.162],[-5.072,50.165],[-5.078,50.167],[-5.077,50.166],[-5.082,50.167],[-5.102,50.17],[-5.082,50.16],[-5.064,50.152],[-5.051,50.155],[-5.049,50.156],[-5.042,50.144],[-5.045,50.145],[-5.055,50.148],[-5.077,50.14],[-5.073,50.134],[-5.08,50.132],[-5.094,50.126],[-5.082,50.109],[-5.095,50.102],[-5.122,50.1],[-5.135,50.1],[-5.138,50.103],[-5.13,50.11],[-5.138,50.112],[-5.14,50.106],[-5.141,50.106],[-5.145,50.099],[-5.161,50.097],[-5.164,50.1],[-5.165,50.113],[-5.169,50.1],[-5.164,50.096],[-5.163,50.096],[-5.163,50.096],[-5.16,50.094],[-5.172,50.091],[-5.154,50.093],[-5.148,50.085],[-5.151,50.093],[-5.139,50.094],[-5.136,50.091],[-5.107,50.094],[-5.102,50.093],[-5.095,50.089],[-5.097,50.087],[-5.118,50.082],[-5.077,50.086],[-5.076,50.086],[-5.077,50.083],[-5.08,50.069],[-5.076,50.068],[-5.068,50.068],[-5.058,50.053],[-5.066,50.04],[-5.069,50.035],[-5.073,50.034],[-5.097,50.026],[-5.091,50.016],[-5.101,50.004],[-5.123,50.009],[-5.167,50.004],[-5.189,49.974],[-5.186,49.963],[-5.21,49.96],[-5.219,49.97],[-5.22,49.971],[-5.233,49.974],[-5.246,49.976],[-5.244,49.984],[-5.245,49.985],[-5.245,49.985],[-5.258,49.996],[-5.268,50.005],[-5.267,50.007],[-5.256,50.022],[-5.257,50.023],[-5.256,50.023],[-5.257,50.023],[-5.262,50.034],[-5.262,50.034],[-5.28,50.042],[-5.279,50.056],[-5.316,50.085],[-5.339,50.092],[-5.344,50.091],[-5.346,50.092],[-5.363,50.089],[-5.363,50.089],[-5.392,50.104],[-5.429,50.097],[-5.429,50.105],[-5.435,50.108],[-5.463,50.123],[-5.467,50.121],[-5.484,50.128],[-5.53,50.124],[-5.531,50.114],[-5.549,50.106],[-5.548,50.105],[-5.549,50.105],[-5.54,50.096],[-5.533,50.089],[-5.542,50.071],[-5.577,50.052],[-5.585,50.052],[-5.619,50.051],[-5.633,50.042],[-5.636,50.04],[-5.648,50.044],[-5.654,50.042],[-5.677,50.036],[-5.681,50.037],[-5.69,50.049],[-5.693,50.054],[-5.695,50.054],[-5.713,50.062],[-5.714,50.064],[-5.692,50.088],[-5.689,50.09],[-5.71,50.126],[-5.71,50.127],[-5.673,50.166],[-5.642,50.167],[-5.629,50.168],[-5.628,50.168],[-5.628,50.168],[-5.607,50.188],[-5.601,50.193],[-5.6,50.193],[-5.591,50.189],[-5.559,50.205],[-5.539,50.216],[-5.537,50.216],[-5.482,50.219],[-5.477,50.219],[-5.472,50.209],[-5.472,50.208],[-5.469,50.2],[-5.437,50.194],[-5.434,50.194],[-5.413,50.21],[-5.394,50.226],[-5.395,50.241],[-5.378,50.244],[-5.368,50.236],[-5.367,50.236],[-5.325,50.244],[-5.304,50.262],[-5.289,50.261],[-5.281,50.271],[-5.251,50.283],[-5.25,50.285],[-5.244,50.287],[-5.242,50.293],[-5.235,50.301],[-5.234,50.318],[-5.201,50.32],[-5.181,50.34],[-5.154,50.346],[-5.146,50.375],[-5.153,50.384],[-5.152,50.389],[-5.144,50.389],[-5.145,50.397],[-5.147,50.405],[-5.146,50.406],[-5.109,50.413],[-5.102,50.413],[-5.1,50.426],[-5.096,50.424],[-5.078,50.416],[-5.055,50.426],[-5.044,50.442],[-5.043,50.462],[-5.042,50.464],[-5.032,50.468],[-5.04,50.474],[-5.036,50.489],[-5.036,50.489],[-5.035,50.494],[-5.047,50.498],[-5.024,50.509],[-5.028,50.518],[-5.027,50.524],[-5.023,50.527],[-5.037,50.55],[-5.036,50.549],[-4.984,50.542],[-4.972,50.558],[-4.945,50.569],[-4.95,50.557],[-4.935,50.549],[-4.931,50.53],[-4.925,50.531],[-4.926,50.545],[-4.931,50.565],[-4.916,50.576],[-4.928,50.583],[-4.935,50.587],[-4.921,50.593],[-4.915,50.591],[-4.908,50.585],[-4.899,50.584],[-4.885,50.582],[-4.881,50.584],[-4.868,50.589],[-4.87,50.595],[-4.87,50.595],[-4.838,50.594],[-4.832,50.592],[-4.827,50.593],[-4.796,50.598],[-4.792,50.602],[-4.791,50.603],[-4.789,50.604],[-4.77,50.622],[-4.759,50.653],[-4.761,50.653],[-4.764,50.67],[-4.764,50.67],[-4.743,50.676],[-4.741,50.676],[-4.735,50.672],[-4.733,50.674],[-4.73,50.674],[-4.726,50.684],[-4.68,50.696],[-4.681,50.704],[-4.681,50.704],[-4.655,50.716],[-4.654,50.74],[-4.649,50.74],[-4.64,50.74],[-4.64,50.741],[-4.635,50.741],[-4.635,50.745],[-4.625,50.753],[-4.586,50.771],[-4.562,50.781],[-4.559,50.829],[-4.557,50.829],[-4.547,50.83],[-4.556,50.837],[-4.558,50.848],[-4.56,50.855],[-4.559,50.866],[-4.567,50.889],[-4.57,50.904],[-4.562,50.912],[-4.546,50.928],[-4.546,50.929],[-4.541,50.952],[-4.526,51.022],[-4.425,51.014],[-4.424,51.013],[-4.391,50.995],[-4.343,50.989],[-4.303,50.998],[-4.282,51.014],[-4.249,51.04],[-4.243,51.041],[-4.241,51.046],[-4.218,51.064],[-4.216,51.064],[-4.21,51.052],[-4.191,51.055],[-4.191,51.055],[-4.191,51.055],[-4.198,51.034],[-4.189,51.041],[-4.18,51.049],[-4.18,51.067],[-4.152,51.074],[-4.153,51.08],[-4.164,51.084],[-4.163,51.101],[-4.167,51.08],[-4.185,51.076],[-4.189,51.066],[-4.217,51.076],[-4.222,51.118],[-4.236,51.12],[-4.24,51.121],[-4.236,51.131],[-4.25,51.138],[-4.258,51.141],[-4.261,51.143],[-4.224,51.144],[-4.216,51.152],[-4.211,51.178],[-4.229,51.188],[-4.211,51.191],[-4.202,51.2],[-4.186,51.198],[-4.178,51.197],[-4.114,51.212],[-4.098,51.211],[-4.092,51.216],[-4.088,51.217],[-4.039,51.207],[-4.029,51.216],[-4.028,51.216],[-4.006,51.217],[-3.958,51.219],[-3.955,51.221],[-3.954,51.221],[-3.951,51.222],[-3.926,51.232],[-3.923,51.231],[-3.892,51.224],[-3.854,51.234],[-3.854,51.235],[-3.814,51.231],[-3.811,51.232],[-3.81,51.232],[-3.787,51.246],[-3.77,51.238],[-3.721,51.233],[-3.721,51.233],[-3.72,51.233],[-3.633,51.224],[-3.622,51.217],[-3.621,51.217],[-3.579,51.232],[-3.542,51.232],[-3.496,51.224],[-3.47,51.208],[-3.448,51.209],[-3.433,51.2],[-3.401,51.182],[-3.277,51.18],[-3.154,51.209],[-3.147,51.209],[-3.125,51.211],[-3.076,51.201],[-3.055,51.206],[-3.019,51.218],[-3.033,51.195],[-3.023,51.196],[-3.002,51.226],[-2.999,51.223],[-2.984,51.22],[-2.999,51.225],[-3.001,51.242],[-3.022,51.265],[-3.012,51.321],[-3.035,51.329],[-3.0,51.322],[-2.994,51.321],[-2.99,51.317],[-2.99,51.316],[-2.987,51.313],[-2.986,51.312],[-2.987,51.311],[-2.993,51.301],[-2.988,51.306],[-2.983,51.312],[-2.99,51.317],[-2.986,51.335],[-2.983,51.349],[-2.995,51.357],[-2.967,51.364],[-2.962,51.375],[-2.963,51.383],[-2.981,51.388],[-2.971,51.391],[-2.94,51.396],[-2.939,51.391],[-2.917,51.396],[-2.89,51.387],[-2.913,51.396],[-2.865,51.442],[-2.858,51.448],[-2.853,51.453],[-2.831,51.466],[-2.8,51.485],[-2.756,51.494],[-2.743,51.493],[-2.733,51.492],[-2.731,51.502],[-2.729,51.502],[-2.727,51.502],[-2.716,51.501],[-2.685,51.481],[-2.685,51.48],[-2.685,51.481],[-2.709,51.498],[-2.718,51.508],[-2.708,51.517],[-2.674,51.544],[-2.663,51.574],[-2.628,51.606],[-2.579,51.63],[-2.575,51.631],[-2.569,51.656],[-2.535,51.677],[-2.542,51.682],[-2.546,51.684],[-2.567,51.695],[-2.58,51.688],[-2.61,51.673],[-2.649,51.631],[-2.652,51.61],[-2.657,51.622],[-2.657,51.623],[-2.66,51.63],[-2.663,51.636],[-2.669,51.646],[-2.68,51.648],[-2.666,51.664],[-2.686,51.663],[-2.657,51.675],[-2.672,51.681],[-2.669,51.693],[-2.684,51.701],[-2.668,51.706],[-2.688,51.73],[-2.672,51.736],[-2.663,51.754],[-2.68,51.769],[-2.67,51.794],[-2.679,51.803],[-2.66,51.811],[-2.661,51.823],[-2.65,51.826],[-2.637,51.843],[-2.625,51.839],[-2.601,51.856],[-2.583,51.85],[-2.581,51.862],[-2.532,51.861],[-2.509,51.885],[-2.488,51.88],[-2.439,51.897],[-2.448,51.919],[-2.466,51.928],[-2.466,51.952],[-2.501,51.961],[-2.492,51.964],[-2.495,51.981],[-2.471,51.995],[-2.492,52.008],[-2.479,52.023],[-2.464,52.023],[-2.463,52.014],[-2.437,52.015],[-2.437,51.997],[-2.413,51.994],[-2.399,51.996],[-2.393,52.013],[-2.351,52.021],[-2.353,52.014],[-2.325,52.004],[-2.327,51.976],[-2.313,51.977],[-2.3,51.967],[-2.271,51.969],[-2.251,51.967],[-2.221,51.995],[-2.185,51.991],[-2.181,52.0],[-2.165,51.996],[-2.188,52.019],[-2.177,52.023],[-2.181,52.042],[-2.171,52.048],[-2.118,52.042],[-2.117,52.034],[-2.139,52.028],[-2.15,52.011],[-2.141,51.999],[-2.112,52.015],[-2.085,52.01],[-2.061,52.015],[-2.05,52.004],[-2.038,52.005],[-1.984,52.036],[-1.951,52.038],[-1.932,52.03],[-1.913,52.044],[-1.839,52.007],[-1.825,52.031],[-1.835,52.044],[-1.863,52.053],[-1.874,52.07],[-1.847,52.079],[-1.832,52.073],[-1.819,52.085],[-1.813,52.079],[-1.802,52.097],[-1.768,52.113]]]]}}]}